zip,county,state
80001,JEFFERSON,CO
80002,JEFFERSON,CO
80003,JEFFERSON,CO
80003,JEFFERSON,CO
80004,JEFFERSON,CO
80005,JEFFERSON,CO
80005,JEFFERSON,CO
80006,JEFFERSON,CO
80007,JEFFERSON,CO
80010,ARAPAHOE,CO
80011,ARAPAHOE,CO
80011,ARAPAHOE,CO
80011,ARAPAHOE,CO
80011,ARAPAHOE,CO
80011,ARAPAHOE,CO
80012,ARAPAHOE,CO
80012,ARAPAHOE,CO
80013,ARAPAHOE,CO
80014,ARAPAHOE,CO
80014,ARAPAHOE,CO
80015,ARAPAHOE,CO
80015,ARAPAHOE,CO
80016,ARAPAHOE,CO
80016,ARAPAHOE,CO
80016,ARAPAHOE,CO
80017,ARAPAHOE,CO
80018,ARAPAHOE,CO
80019,ADAMS,CO
80020,BROOMFIELD,CO
80020,BROOMFIELD,CO
80021,JEFFERSON,CO
80021,JEFFERSON,CO
80022,ADAMS,CO
80022,ADAMS,CO
80022,ADAMS,CO
80023,BROOMFIELD,CO
80023,BROOMFIELD,CO
80023,BROOMFIELD,CO
80024,ADAMS,CO
80025,BOULDER,CO
80025,BOULDER,CO
80026,BOULDER,CO
80026,BOULDER,CO
80027,BOULDER,CO
80027,BOULDER,CO
80030,ADAMS,CO
80031,ADAMS,CO
80033,JEFFERSON,CO
80033,JEFFERSON,CO
80034,JEFFERSON,CO
80035,ADAMS,CO
80036,ADAMS,CO
80037,ADAMS,CO
80038,BROOMFIELD,CO
80040,ADAMS,CO
80041,ARAPAHOE,CO
80042,ADAMS,CO
80044,ARAPAHOE,CO
80045,ADAMS,CO
80046,ARAPAHOE,CO
80047,ARAPAHOE,CO
80101,ELBERT,CO
80102,ADAMS,CO
80103,ARAPAHOE,CO
80104,DOUGLAS,CO
80105,ARAPAHOE,CO
80106,EL PASO,CO
80106,EL PASO,CO
80107,ELBERT,CO
80108,DOUGLAS,CO
80108,DOUGLAS,CO
80109,DOUGLAS,CO
80110,ARAPAHOE,CO
80110,ARAPAHOE,CO
80110,ARAPAHOE,CO
80110,ARAPAHOE,CO
80110,ARAPAHOE,CO
80110,ARAPAHOE,CO
80110,ARAPAHOE,CO
80111,ARAPAHOE,CO
80111,ARAPAHOE,CO
80111,ARAPAHOE,CO
80111,ARAPAHOE,CO
80111,ARAPAHOE,CO
80111,ARAPAHOE,CO
80111,ARAPAHOE,CO
80112,ARAPAHOE,CO
80112,ARAPAHOE,CO
80112,ARAPAHOE,CO
80112,ARAPAHOE,CO
80112,ARAPAHOE,CO
80113,ARAPAHOE,CO
80113,ARAPAHOE,CO
80113,ARAPAHOE,CO
80113,ARAPAHOE,CO
80116,DOUGLAS,CO
80117,ELBERT,CO
80118,DOUGLAS,CO
80120,ARAPAHOE,CO
80121,ARAPAHOE,CO
80121,ARAPAHOE,CO
80121,ARAPAHOE,CO
80121,ARAPAHOE,CO
80121,ARAPAHOE,CO
80121,ARAPAHOE,CO
80121,ARAPAHOE,CO
80121,ARAPAHOE,CO
80122,ARAPAHOE,CO
80122,ARAPAHOE,CO
80123,JEFFERSON,CO
80123,JEFFERSON,CO
80123,JEFFERSON,CO
80123,JEFFERSON,CO
80123,JEFFERSON,CO
80123,JEFFERSON,CO
80123,JEFFERSON,CO
80124,DOUGLAS,CO
80124,DOUGLAS,CO
80124,DOUGLAS,CO
80125,DOUGLAS,CO
80125,DOUGLAS,CO
80126,DOUGLAS,CO
80126,DOUGLAS,CO
80126,DOUGLAS,CO
80127,JEFFERSON,CO
80127,JEFFERSON,CO
80128,JEFFERSON,CO
80129,DOUGLAS,CO
80129,DOUGLAS,CO
80129,DOUGLAS,CO
80130,DOUGLAS,CO
80130,DOUGLAS,CO
80130,DOUGLAS,CO
80131,DOUGLAS,CO
80132,EL PASO,CO
80132,EL PASO,CO
80133,EL PASO,CO
80134,DOUGLAS,CO
80134,DOUGLAS,CO
80135,DOUGLAS,CO
80135,DOUGLAS,CO
80136,ADAMS,CO
80137,ADAMS,CO
80138,DOUGLAS,CO
80150,ARAPAHOE,CO
80151,ARAPAHOE,CO
80155,ARAPAHOE,CO
80155,ARAPAHOE,CO
80155,ARAPAHOE,CO
80160,ARAPAHOE,CO
80161,ARAPAHOE,CO
80161,ARAPAHOE,CO
80162,JEFFERSON,CO
80163,DOUGLAS,CO
80163,DOUGLAS,CO
80163,DOUGLAS,CO
80165,ARAPAHOE,CO
80165,ARAPAHOE,CO
80166,ARAPAHOE,CO
80166,ARAPAHOE,CO
80201,DENVER,CO
80202,DENVER,CO
80203,DENVER,CO
80204,DENVER,CO
80205,DENVER,CO
80206,DENVER,CO
80207,DENVER,CO
80208,DENVER,CO
80208,DENVER,CO
80209,DENVER,CO
80210,DENVER,CO
80211,DENVER,CO
80212,DENVER,CO
80212,DENVER,CO
80212,DENVER,CO
80214,JEFFERSON,CO
80214,JEFFERSON,CO
80214,JEFFERSON,CO
80214,JEFFERSON,CO
80215,JEFFERSON,CO
80215,JEFFERSON,CO
80215,JEFFERSON,CO
80216,DENVER,CO
80216,DENVER,CO
80217,DENVER,CO
80218,DENVER,CO
80219,DENVER,CO
80220,DENVER,CO
80221,ADAMS,CO
80221,ADAMS,CO
80221,ADAMS,CO
80221,ADAMS,CO
80221,ADAMS,CO
80222,DENVER,CO
80223,DENVER,CO
80224,DENVER,CO
80225,JEFFERSON,CO
80225,JEFFERSON,CO
80225,JEFFERSON,CO
80226,JEFFERSON,CO
80226,JEFFERSON,CO
80227,JEFFERSON,CO
80227,JEFFERSON,CO
80228,JEFFERSON,CO
80228,JEFFERSON,CO
80229,ADAMS,CO
80229,ADAMS,CO
80229,ADAMS,CO
80230,DENVER,CO
80230,DENVER,CO
80230,DENVER,CO
80231,DENVER,CO
80232,JEFFERSON,CO
80232,JEFFERSON,CO
80233,ADAMS,CO
80233,ADAMS,CO
80233,ADAMS,CO
80233,ADAMS,CO
80234,ADAMS,CO
80234,ADAMS,CO
80234,ADAMS,CO
80234,ADAMS,CO
80234,ADAMS,CO
80235,JEFFERSON,CO
80235,JEFFERSON,CO
80236,DENVER,CO
80236,DENVER,CO
80236,DENVER,CO
80236,DENVER,CO
80237,DENVER,CO
80238,DENVER,CO
80238,DENVER,CO
80239,DENVER,CO
80241,ADAMS,CO
80241,ADAMS,CO
80241,ADAMS,CO
80241,ADAMS,CO
80241,ADAMS,CO
80243,DENVER,CO
80243,DENVER,CO
80246,DENVER,CO
80246,DENVER,CO
80247,ARAPAHOE,CO
80247,ARAPAHOE,CO
80248,DENVER,CO
80249,DENVER,CO
80250,DENVER,CO
80256,DENVER,CO
80256,DENVER,CO
80257,DENVER,CO
80257,DENVER,CO
80259,DENVER,CO
80259,DENVER,CO
80260,ADAMS,CO
80260,ADAMS,CO
80260,ADAMS,CO
80260,ADAMS,CO
80260,ADAMS,CO
80260,ADAMS,CO
80261,DENVER,CO
80261,DENVER,CO
80263,DENVER,CO
80263,DENVER,CO
80264,DENVER,CO
80265,DENVER,CO
80266,DENVER,CO
80271,DENVER,CO
80271,DENVER,CO
80273,DENVER,CO
80273,DENVER,CO
80274,DENVER,CO
80274,DENVER,CO
80281,DENVER,CO
80281,DENVER,CO
80290,DENVER,CO
80291,DENVER,CO
80291,DENVER,CO
80293,DENVER,CO
80294,DENVER,CO
80294,DENVER,CO
80299,DENVER,CO
80299,DENVER,CO
80301,BOULDER,CO
80302,BOULDER,CO
80303,BOULDER,CO
80304,BOULDER,CO
80305,BOULDER,CO
80306,BOULDER,CO
80307,BOULDER,CO
80308,BOULDER,CO
80309,BOULDER,CO
80309,BOULDER,CO
80310,BOULDER,CO
80310,BOULDER,CO
80314,BOULDER,CO
80314,BOULDER,CO
80401,JEFFERSON,CO
80401,JEFFERSON,CO
80401,JEFFERSON,CO
80402,JEFFERSON,CO
80403,JEFFERSON,CO
80403,JEFFERSON,CO
80403,JEFFERSON,CO
80419,JEFFERSON,CO
80419,JEFFERSON,CO
80420,PARK,CO
80421,PARK,CO
80422,GILPIN,CO
80422,GILPIN,CO
80423,EAGLE,CO
80424,SUMMIT,CO
80424,SUMMIT,CO
80425,JEFFERSON,CO
80426,EAGLE,CO
80427,GILPIN,CO
80428,ROUTT,CO
80429,LAKE,CO
80429,LAKE,CO
80430,JACKSON,CO
80430,JACKSON,CO
80432,PARK,CO
80432,PARK,CO
80433,JEFFERSON,CO
80433,JEFFERSON,CO
80433,JEFFERSON,CO
80434,JACKSON,CO
80435,SUMMIT,CO
80435,SUMMIT,CO
80435,SUMMIT,CO
80436,CLEAR CREEK,CO
80437,JEFFERSON,CO
80438,CLEAR CREEK,CO
80439,JEFFERSON,CO
80439,JEFFERSON,CO
80440,PARK,CO
80442,GRAND,CO
80443,SUMMIT,CO
80443,SUMMIT,CO
80444,CLEAR CREEK,CO
80446,GRAND,CO
80446,GRAND,CO
80447,GRAND,CO
80448,PARK,CO
80449,PARK,CO
80451,GRAND,CO
80451,GRAND,CO
80452,CLEAR CREEK,CO
80453,JEFFERSON,CO
80454,JEFFERSON,CO
80455,BOULDER,CO
80456,PARK,CO
80456,PARK,CO
80456,PARK,CO
80457,JEFFERSON,CO
80459,GRAND,CO
80461,LAKE,CO
80463,EAGLE,CO
80465,JEFFERSON,CO
80466,BOULDER,CO
80467,ROUTT,CO
80468,GRAND,CO
80469,ROUTT,CO
80470,JEFFERSON,CO
80471,BOULDER,CO
80473,JACKSON,CO
80474,GILPIN,CO
80475,PARK,CO
80476,CLEAR CREEK,CO
80477,ROUTT,CO
80477,ROUTT,CO
80477,ROUTT,CO
80478,GRAND,CO
80479,ROUTT,CO
80480,JACKSON,CO
80481,BOULDER,CO
80482,GRAND,CO
80483,ROUTT,CO
80487,ROUTT,CO
80487,ROUTT,CO
80487,ROUTT,CO
80488,ROUTT,CO
80488,ROUTT,CO
80488,ROUTT,CO
80497,SUMMIT,CO
80498,SUMMIT,CO
80498,SUMMIT,CO
80501,BOULDER,CO
80502,BOULDER,CO
80503,BOULDER,CO
80503,BOULDER,CO
80504,WELD,CO
80504,WELD,CO
80504,WELD,CO
80504,WELD,CO
80504,WELD,CO
80510,LARIMER,CO
80511,LARIMER,CO
80512,LARIMER,CO
80513,LARIMER,CO
80514,WELD,CO
80514,WELD,CO
80515,LARIMER,CO
80516,BOULDER,CO
80516,BOULDER,CO
80517,LARIMER,CO
80517,LARIMER,CO
80520,WELD,CO
80521,LARIMER,CO
80521,LARIMER,CO
80522,LARIMER,CO
80522,LARIMER,CO
80523,LARIMER,CO
80523,LARIMER,CO
80524,LARIMER,CO
80524,LARIMER,CO
80524,LARIMER,CO
80525,LARIMER,CO
80525,LARIMER,CO
80525,LARIMER,CO
80526,LARIMER,CO
80526,LARIMER,CO
80527,LARIMER,CO
80527,LARIMER,CO
80528,LARIMER,CO
80528,LARIMER,CO
80530,WELD,CO
80532,LARIMER,CO
80533,BOULDER,CO
80534,WELD,CO
80534,WELD,CO
80535,LARIMER,CO
80536,LARIMER,CO
80536,LARIMER,CO
80537,LARIMER,CO
80538,LARIMER,CO
80539,LARIMER,CO
80540,BOULDER,CO
80541,LARIMER,CO
80542,WELD,CO
80543,WELD,CO
80544,BOULDER,CO
80545,LARIMER,CO
80545,LARIMER,CO
80546,WELD,CO
80547,LARIMER,CO
80549,LARIMER,CO
80550,WELD,CO
80550,WELD,CO
80551,WELD,CO
80551,WELD,CO
80553,LARIMER,CO
80553,LARIMER,CO
80553,LARIMER,CO
80601,ADAMS,CO
80602,ADAMS,CO
80602,ADAMS,CO
80603,WELD,CO
80603,WELD,CO
80603,WELD,CO
80610,WELD,CO
80610,WELD,CO
80611,WELD,CO
80612,WELD,CO
80614,ADAMS,CO
80615,WELD,CO
80615,WELD,CO
80620,WELD,CO
80621,WELD,CO
80621,WELD,CO
80621,WELD,CO
80622,WELD,CO
80623,WELD,CO
80624,WELD,CO
80631,WELD,CO
80631,WELD,CO
80632,WELD,CO
80633,WELD,CO
80634,WELD,CO
80634,WELD,CO
80638,WELD,CO
80638,WELD,CO
80639,WELD,CO
80639,WELD,CO
80640,ADAMS,CO
80640,ADAMS,CO
80640,ADAMS,CO
80642,WELD,CO
80643,WELD,CO
80644,WELD,CO
80645,WELD,CO
80645,WELD,CO
80646,WELD,CO
80648,WELD,CO
80649,MORGAN,CO
80650,WELD,CO
80651,WELD,CO
80652,WELD,CO
80653,MORGAN,CO
80654,MORGAN,CO
80654,MORGAN,CO
80701,MORGAN,CO
80705,MORGAN,CO
80705,MORGAN,CO
80705,MORGAN,CO
80720,WASHINGTON,CO
80721,PHILLIPS,CO
80722,LOGAN,CO
80723,MORGAN,CO
80726,LOGAN,CO
80727,YUMA,CO
80728,LOGAN,CO
80729,WELD,CO
80731,PHILLIPS,CO
80732,WELD,CO
80733,MORGAN,CO
80734,PHILLIPS,CO
80735,YUMA,CO
80735,YUMA,CO
80736,LOGAN,CO
80737,SEDGWICK,CO
80740,WASHINGTON,CO
80741,LOGAN,CO
80741,LOGAN,CO
80742,WELD,CO
80742,WELD,CO
80743,WASHINGTON,CO
80744,SEDGWICK,CO
80745,LOGAN,CO
80746,PHILLIPS,CO
80747,LOGAN,CO
80749,SEDGWICK,CO
80750,MORGAN,CO
80751,LOGAN,CO
80754,WELD,CO
80755,YUMA,CO
80757,WASHINGTON,CO
80757,WASHINGTON,CO
80758,YUMA,CO
80758,YUMA,CO
80759,YUMA,CO
80801,WASHINGTON,CO
80801,WASHINGTON,CO
80802,CHEYENNE,CO
80804,LINCOLN,CO
80805,KIT CARSON,CO
80807,KIT CARSON,CO
80808,EL PASO,CO
80808,EL PASO,CO
80809,EL PASO,CO
80809,EL PASO,CO
80810,CHEYENNE,CO
80810,CHEYENNE,CO
80810,CHEYENNE,CO
80812,WASHINGTON,CO
80813,TELLER,CO
80814,TELLER,CO
80815,KIT CARSON,CO
80816,TELLER,CO
80816,TELLER,CO
80816,TELLER,CO
80817,EL PASO,CO
80818,LINCOLN,CO
80818,LINCOLN,CO
80819,EL PASO,CO
80819,EL PASO,CO
80819,EL PASO,CO
80820,PARK,CO
80821,LINCOLN,CO
80821,LINCOLN,CO
80821,LINCOLN,CO
80822,YUMA,CO
80823,LINCOLN,CO
80824,YUMA,CO
80825,CHEYENNE,CO
80826,LINCOLN,CO
80826,LINCOLN,CO
80826,LINCOLN,CO
80826,LINCOLN,CO
80827,PARK,CO
80827,PARK,CO
80828,LINCOLN,CO
80829,EL PASO,CO
80829,EL PASO,CO
80829,EL PASO,CO
80830,ELBERT,CO
80831,EL PASO,CO
80831,EL PASO,CO
80832,EL PASO,CO
80833,EL PASO,CO
80834,KIT CARSON,CO
80835,ELBERT,CO
80836,KIT CARSON,CO
80840,EL PASO,CO
80840,EL PASO,CO
80840,EL PASO,CO
80841,EL PASO,CO
80841,EL PASO,CO
80860,TELLER,CO
80860,TELLER,CO
80860,TELLER,CO
80861,KIT CARSON,CO
80862,CHEYENNE,CO
80862,CHEYENNE,CO
80863,TELLER,CO
80863,TELLER,CO
80863,TELLER,CO
80864,EL PASO,CO
80864,EL PASO,CO
80864,EL PASO,CO
80866,TELLER,CO
80901,EL PASO,CO
80901,EL PASO,CO
80901,EL PASO,CO
80901,EL PASO,CO
80902,EL PASO,CO
80902,EL PASO,CO
80902,EL PASO,CO
80902,EL PASO,CO
80902,EL PASO,CO
80902,EL PASO,CO
80903,EL PASO,CO
80903,EL PASO,CO
80903,EL PASO,CO
80903,EL PASO,CO
80904,EL PASO,CO
80904,EL PASO,CO
80904,EL PASO,CO
80904,EL PASO,CO
80905,EL PASO,CO
80905,EL PASO,CO
80905,EL PASO,CO
80905,EL PASO,CO
80906,EL PASO,CO
80906,EL PASO,CO
80906,EL PASO,CO
80906,EL PASO,CO
80906,EL PASO,CO
80907,EL PASO,CO
80907,EL PASO,CO
80907,EL PASO,CO
80907,EL PASO,CO
80908,EL PASO,CO
80908,EL PASO,CO
80908,EL PASO,CO
80908,EL PASO,CO
80908,EL PASO,CO
80909,EL PASO,CO
80909,EL PASO,CO
80909,EL PASO,CO
80909,EL PASO,CO
80910,EL PASO,CO
80910,EL PASO,CO
80910,EL PASO,CO
80910,EL PASO,CO
80911,EL PASO,CO
80911,EL PASO,CO
80911,EL PASO,CO
80911,EL PASO,CO
80911,EL PASO,CO
80911,EL PASO,CO
80912,EL PASO,CO
80912,EL PASO,CO
80912,EL PASO,CO
80912,EL PASO,CO
80912,EL PASO,CO
80912,EL PASO,CO
80912,EL PASO,CO
80912,EL PASO,CO
80912,EL PASO,CO
80912,EL PASO,CO
80912,EL PASO,CO
80913,EL PASO,CO
80913,EL PASO,CO
80913,EL PASO,CO
80913,EL PASO,CO
80913,EL PASO,CO
80913,EL PASO,CO
80914,EL PASO,CO
80914,EL PASO,CO
80914,EL PASO,CO
80914,EL PASO,CO
80914,EL PASO,CO
80914,EL PASO,CO
80914,EL PASO,CO
80914,EL PASO,CO
80914,EL PASO,CO
80914,EL PASO,CO
80914,EL PASO,CO
80915,EL PASO,CO
80915,EL PASO,CO
80915,EL PASO,CO
80915,EL PASO,CO
80916,EL PASO,CO
80916,EL PASO,CO
80916,EL PASO,CO
80916,EL PASO,CO
80917,EL PASO,CO
80917,EL PASO,CO
80917,EL PASO,CO
80917,EL PASO,CO
80918,EL PASO,CO
80918,EL PASO,CO
80918,EL PASO,CO
80918,EL PASO,CO
80919,EL PASO,CO
80919,EL PASO,CO
80919,EL PASO,CO
80919,EL PASO,CO
80919,EL PASO,CO
80920,EL PASO,CO
80920,EL PASO,CO
80920,EL PASO,CO
80920,EL PASO,CO
80921,EL PASO,CO
80921,EL PASO,CO
80921,EL PASO,CO
80921,EL PASO,CO
80922,EL PASO,CO
80922,EL PASO,CO
80922,EL PASO,CO
80922,EL PASO,CO
80923,EL PASO,CO
80923,EL PASO,CO
80923,EL PASO,CO
80923,EL PASO,CO
80924,EL PASO,CO
80924,EL PASO,CO
80924,EL PASO,CO
80924,EL PASO,CO
80925,EL PASO,CO
80925,EL PASO,CO
80925,EL PASO,CO
80925,EL PASO,CO
80925,EL PASO,CO
80926,EL PASO,CO
80926,EL PASO,CO
80926,EL PASO,CO
80926,EL PASO,CO
80927,EL PASO,CO
80927,EL PASO,CO
80927,EL PASO,CO
80927,EL PASO,CO
80928,EL PASO,CO
80928,EL PASO,CO
80928,EL PASO,CO
80928,EL PASO,CO
80928,EL PASO,CO
80929,EL PASO,CO
80929,EL PASO,CO
80929,EL PASO,CO
80929,EL PASO,CO
80929,EL PASO,CO
80930,EL PASO,CO
80930,EL PASO,CO
80930,EL PASO,CO
80930,EL PASO,CO
80930,EL PASO,CO
80931,EL PASO,CO
80931,EL PASO,CO
80931,EL PASO,CO
80931,EL PASO,CO
80931,EL PASO,CO
80932,EL PASO,CO
80932,EL PASO,CO
80932,EL PASO,CO
80932,EL PASO,CO
80933,EL PASO,CO
80933,EL PASO,CO
80933,EL PASO,CO
80933,EL PASO,CO
80934,EL PASO,CO
80934,EL PASO,CO
80934,EL PASO,CO
80934,EL PASO,CO
80935,EL PASO,CO
80935,EL PASO,CO
80935,EL PASO,CO
80935,EL PASO,CO
80936,EL PASO,CO
80936,EL PASO,CO
80936,EL PASO,CO
80936,EL PASO,CO
80937,EL PASO,CO
80937,EL PASO,CO
80937,EL PASO,CO
80937,EL PASO,CO
80938,EL PASO,CO
80938,EL PASO,CO
80938,EL PASO,CO
80938,EL PASO,CO
80939,EL PASO,CO
80939,EL PASO,CO
80939,EL PASO,CO
80939,EL PASO,CO
80941,EL PASO,CO
80941,EL PASO,CO
80941,EL PASO,CO
80941,EL PASO,CO
80942,EL PASO,CO
80942,EL PASO,CO
80942,EL PASO,CO
80942,EL PASO,CO
80946,EL PASO,CO
80946,EL PASO,CO
80946,EL PASO,CO
80946,EL PASO,CO
80947,EL PASO,CO
80947,EL PASO,CO
80947,EL PASO,CO
80947,EL PASO,CO
80949,EL PASO,CO
80949,EL PASO,CO
80949,EL PASO,CO
80949,EL PASO,CO
80950,EL PASO,CO
80950,EL PASO,CO
80950,EL PASO,CO
80950,EL PASO,CO
80951,EL PASO,CO
80951,EL PASO,CO
80951,EL PASO,CO
80951,EL PASO,CO
80960,EL PASO,CO
80960,EL PASO,CO
80960,EL PASO,CO
80960,EL PASO,CO
80962,EL PASO,CO
80962,EL PASO,CO
80962,EL PASO,CO
80970,EL PASO,CO
80970,EL PASO,CO
80970,EL PASO,CO
80977,EL PASO,CO
80977,EL PASO,CO
80977,EL PASO,CO
80977,EL PASO,CO
80995,EL PASO,CO
80995,EL PASO,CO
80995,EL PASO,CO
80995,EL PASO,CO
80997,EL PASO,CO
80997,EL PASO,CO
80997,EL PASO,CO
80997,EL PASO,CO
81001,PUEBLO,CO
81001,PUEBLO,CO
81001,PUEBLO,CO
81001,PUEBLO,CO
81001,PUEBLO,CO
81001,PUEBLO,CO
81002,PUEBLO,CO
81003,PUEBLO,CO
81004,PUEBLO,CO
81004,PUEBLO,CO
81005,PUEBLO,CO
81006,PUEBLO,CO
81006,PUEBLO,CO
81006,PUEBLO,CO
81006,PUEBLO,CO
81007,PUEBLO,CO
81007,PUEBLO,CO
81008,PUEBLO,CO
81008,PUEBLO,CO
81009,PUEBLO,CO
81009,PUEBLO,CO
81010,PUEBLO,CO
81010,PUEBLO,CO
81011,PUEBLO,CO
81011,PUEBLO,CO
81012,PUEBLO,CO
81012,PUEBLO,CO
81019,PUEBLO,CO
81019,PUEBLO,CO
81020,LAS ANIMAS,CO
81021,KIOWA,CO
81022,PUEBLO,CO
81022,PUEBLO,CO
81022,PUEBLO,CO
81022,PUEBLO,CO
81023,PUEBLO,CO
81024,LAS ANIMAS,CO
81025,PUEBLO,CO
81027,LAS ANIMAS,CO
81029,BACA,CO
81030,OTERO,CO
81033,CROWLEY,CO
81034,CROWLEY,CO
81034,CROWLEY,CO
81036,KIOWA,CO
81036,KIOWA,CO
81036,KIOWA,CO
81038,BENT,CO
81038,BENT,CO
81039,OTERO,CO
81040,HUERFANO,CO
81040,HUERFANO,CO
81041,PROWERS,CO
81041,PROWERS,CO
81041,PROWERS,CO
81043,PROWERS,CO
81044,BENT,CO
81044,BENT,CO
81044,BENT,CO
81045,KIOWA,CO
81046,LAS ANIMAS,CO
81047,PROWERS,CO
81047,PROWERS,CO
81047,PROWERS,CO
81049,LAS ANIMAS,CO
81049,LAS ANIMAS,CO
81050,OTERO,CO
81050,OTERO,CO
81050,OTERO,CO
81050,OTERO,CO
81050,OTERO,CO
81050,OTERO,CO
81050,OTERO,CO
81050,OTERO,CO
81050,OTERO,CO
81050,OTERO,CO
81050,OTERO,CO
81052,PROWERS,CO
81052,PROWERS,CO
81052,PROWERS,CO
81052,PROWERS,CO
81052,PROWERS,CO
81052,PROWERS,CO
81052,PROWERS,CO
81054,BENT,CO
81054,BENT,CO
81054,BENT,CO
81054,BENT,CO
81054,BENT,CO
81054,BENT,CO
81055,HUERFANO,CO
81055,HUERFANO,CO
81055,HUERFANO,CO
81055,HUERFANO,CO
81057,BENT,CO
81057,BENT,CO
81058,OTERO,CO
81059,LAS ANIMAS,CO
81059,LAS ANIMAS,CO
81059,LAS ANIMAS,CO
81059,LAS ANIMAS,CO
81062,CROWLEY,CO
81063,CROWLEY,CO
81063,CROWLEY,CO
81063,CROWLEY,CO
81064,BACA,CO
81064,BACA,CO
81067,OTERO,CO
81067,OTERO,CO
81067,OTERO,CO
81069,PUEBLO,CO
81069,PUEBLO,CO
81069,PUEBLO,CO
81069,PUEBLO,CO
81069,PUEBLO,CO
81071,KIOWA,CO
81071,KIOWA,CO
81071,KIOWA,CO
81073,BACA,CO
81073,BACA,CO
81073,BACA,CO
81076,CROWLEY,CO
81077,OTERO,CO
81081,LAS ANIMAS,CO
81082,LAS ANIMAS,CO
81082,LAS ANIMAS,CO
81082,LAS ANIMAS,CO
81082,LAS ANIMAS,CO
81082,LAS ANIMAS,CO
81082,LAS ANIMAS,CO
81082,LAS ANIMAS,CO
81082,LAS ANIMAS,CO
81082,LAS ANIMAS,CO
81084,BACA,CO
81084,BACA,CO
81087,BACA,CO
81089,HUERFANO,CO
81089,HUERFANO,CO
81089,HUERFANO,CO
81089,HUERFANO,CO
81089,HUERFANO,CO
81089,HUERFANO,CO
81090,BACA,CO
81090,BACA,CO
81091,LAS ANIMAS,CO
81091,LAS ANIMAS,CO
81091,LAS ANIMAS,CO
81091,LAS ANIMAS,CO
81091,LAS ANIMAS,CO
81091,LAS ANIMAS,CO
81091,LAS ANIMAS,CO
81091,LAS ANIMAS,CO
81092,PROWERS,CO
81092,PROWERS,CO
81101,ALAMOSA,CO
81101,ALAMOSA,CO
81101,ALAMOSA,CO
81101,ALAMOSA,CO
81101,ALAMOSA,CO
81101,ALAMOSA,CO
81101,ALAMOSA,CO
81101,ALAMOSA,CO
81101,ALAMOSA,CO
81101,ALAMOSA,CO
81102,ALAMOSA,CO
81102,ALAMOSA,CO
81120,CONEJOS,CO
81120,CONEJOS,CO
81120,CONEJOS,CO
81120,CONEJOS,CO
81120,CONEJOS,CO
81120,CONEJOS,CO
81120,CONEJOS,CO
81120,CONEJOS,CO
81120,CONEJOS,CO
81120,CONEJOS,CO
81120,CONEJOS,CO
81120,CONEJOS,CO
81120,CONEJOS,CO
81120,CONEJOS,CO
81120,CONEJOS,CO
81121,ARCHULETA,CO
81121,ARCHULETA,CO
81121,ARCHULETA,CO
81122,LA PLATA,CO
81122,LA PLATA,CO
81122,LA PLATA,CO
81122,LA PLATA,CO
81123,COSTILLA,CO
81124,CONEJOS,CO
81125,RIO GRANDE,CO
81126,COSTILLA,CO
81128,ARCHULETA,CO
81129,CONEJOS,CO
81130,MINERAL,CO
81130,MINERAL,CO
81131,SAGUACHE,CO
81132,RIO GRANDE,CO
81132,RIO GRANDE,CO
81132,RIO GRANDE,CO
81132,RIO GRANDE,CO
81132,RIO GRANDE,CO
81132,RIO GRANDE,CO
81133,COSTILLA,CO
81133,COSTILLA,CO
81133,COSTILLA,CO
81133,COSTILLA,CO
81133,COSTILLA,CO
81135,RIO GRANDE,CO
81135,RIO GRANDE,CO
81136,ALAMOSA,CO
81137,LA PLATA,CO
81137,LA PLATA,CO
81137,LA PLATA,CO
81137,LA PLATA,CO
81137,LA PLATA,CO
81137,LA PLATA,CO
81137,LA PLATA,CO
81137,LA PLATA,CO
81138,COSTILLA,CO
81140,CONEJOS,CO
81140,CONEJOS,CO
81140,CONEJOS,CO
81140,CONEJOS,CO
81141,CONEJOS,CO
81143,SAGUACHE,CO
81143,SAGUACHE,CO
81144,RIO GRANDE,CO
81144,RIO GRANDE,CO
81144,RIO GRANDE,CO
81144,RIO GRANDE,CO
81146,ALAMOSA,CO
81147,ARCHULETA,CO
81147,ARCHULETA,CO
81147,ARCHULETA,CO
81147,ARCHULETA,CO
81148,CONEJOS,CO
81149,SAGUACHE,CO
81151,CONEJOS,CO
81151,CONEJOS,CO
81151,CONEJOS,CO
81152,COSTILLA,CO
81152,COSTILLA,CO
81152,COSTILLA,CO
81152,COSTILLA,CO
81152,COSTILLA,CO
81152,COSTILLA,CO
81152,COSTILLA,CO
81152,COSTILLA,CO
81152,COSTILLA,CO
81154,RIO GRANDE,CO
81154,RIO GRANDE,CO
81154,RIO GRANDE,CO
81154,RIO GRANDE,CO
81155,SAGUACHE,CO
81155,SAGUACHE,CO
81157,ARCHULETA,CO
81157,ARCHULETA,CO
81201,CHAFFEE,CO
81201,CHAFFEE,CO
81201,CHAFFEE,CO
81201,CHAFFEE,CO
81201,CHAFFEE,CO
81201,CHAFFEE,CO
81201,CHAFFEE,CO
81201,CHAFFEE,CO
81201,CHAFFEE,CO
81210,GUNNISON,CO
81210,GUNNISON,CO
81210,GUNNISON,CO
81210,GUNNISON,CO
81210,GUNNISON,CO
81210,GUNNISON,CO
81211,CHAFFEE,CO
81211,CHAFFEE,CO
81212,FREMONT,CO
81212,FREMONT,CO
81212,FREMONT,CO
81212,FREMONT,CO
81212,FREMONT,CO
81212,FREMONT,CO
81212,FREMONT,CO
81215,FREMONT,CO
81220,MONTROSE,CO
81221,FREMONT,CO
81222,FREMONT,CO
81223,FREMONT,CO
81223,FREMONT,CO
81224,GUNNISON,CO
81224,GUNNISON,CO
81225,GUNNISON,CO
81225,GUNNISON,CO
81225,GUNNISON,CO
81225,GUNNISON,CO
81225,GUNNISON,CO
81225,GUNNISON,CO
81225,GUNNISON,CO
81226,FREMONT,CO
81226,FREMONT,CO
81226,FREMONT,CO
81226,FREMONT,CO
81227,CHAFFEE,CO
81227,CHAFFEE,CO
81228,CHAFFEE,CO
81228,CHAFFEE,CO
81230,GUNNISON,CO
81230,GUNNISON,CO
81230,GUNNISON,CO
81230,GUNNISON,CO
81230,GUNNISON,CO
81231,GUNNISON,CO
81231,GUNNISON,CO
81232,FREMONT,CO
81233,FREMONT,CO
81235,HINSDALE,CO
81236,CHAFFEE,CO
81236,CHAFFEE,CO
81236,CHAFFEE,CO
81236,CHAFFEE,CO
81236,CHAFFEE,CO
81237,GUNNISON,CO
81239,GUNNISON,CO
81240,FREMONT,CO
81241,GUNNISON,CO
81242,CHAFFEE,CO
81242,CHAFFEE,CO
81243,GUNNISON,CO
81244,FREMONT,CO
81248,SAGUACHE,CO
81248,SAGUACHE,CO
81251,LAKE,CO
81252,CUSTER,CO
81252,CUSTER,CO
81252,CUSTER,CO
81252,CUSTER,CO
81252,CUSTER,CO
81253,CUSTER,CO
81253,CUSTER,CO
81290,FREMONT,CO
81290,FREMONT,CO
81301,LA PLATA,CO
81301,LA PLATA,CO
81301,LA PLATA,CO
81301,LA PLATA,CO
81301,LA PLATA,CO
81302,LA PLATA,CO
81303,LA PLATA,CO
81320,DOLORES,CO
81321,MONTEZUMA,CO
81321,MONTEZUMA,CO
81321,MONTEZUMA,CO
81323,MONTEZUMA,CO
81323,MONTEZUMA,CO
81323,MONTEZUMA,CO
81324,DOLORES,CO
81324,DOLORES,CO
81325,SAN MIGUEL,CO
81325,SAN MIGUEL,CO
81326,LA PLATA,CO
81326,LA PLATA,CO
81326,LA PLATA,CO
81326,LA PLATA,CO
81327,MONTEZUMA,CO
81328,MONTEZUMA,CO
81329,LA PLATA,CO
81330,MONTEZUMA,CO
81330,MONTEZUMA,CO
81331,MONTEZUMA,CO
81332,DOLORES,CO
81334,MONTEZUMA,CO
81334,MONTEZUMA,CO
81335,MONTEZUMA,CO
81401,MONTROSE,CO
81401,MONTROSE,CO
81402,MONTROSE,CO
81403,MONTROSE,CO
81410,DELTA,CO
81410,DELTA,CO
81411,MONTROSE,CO
81413,DELTA,CO
81413,DELTA,CO
81413,DELTA,CO
81414,DELTA,CO
81414,DELTA,CO
81415,DELTA,CO
81415,DELTA,CO
81416,DELTA,CO
81418,DELTA,CO
81418,DELTA,CO
81419,DELTA,CO
81419,DELTA,CO
81420,DELTA,CO
81422,MONTROSE,CO
81423,SAN MIGUEL,CO
81424,MONTROSE,CO
81425,MONTROSE,CO
81426,SAN MIGUEL,CO
81427,OURAY,CO
81427,OURAY,CO
81428,DELTA,CO
81428,DELTA,CO
81429,MONTROSE,CO
81430,SAN MIGUEL,CO
81430,SAN MIGUEL,CO
81431,MONTROSE,CO
81432,OURAY,CO
81433,SAN JUAN,CO
81434,GUNNISON,CO
81434,GUNNISON,CO
81435,SAN MIGUEL,CO
81435,SAN MIGUEL,CO
81435,SAN MIGUEL,CO
81435,SAN MIGUEL,CO
81435,SAN MIGUEL,CO
81501,MESA,CO
81501,MESA,CO
81502,MESA,CO
81502,MESA,CO
81503,MESA,CO
81503,MESA,CO
81504,MESA,CO
81504,MESA,CO
81504,MESA,CO
81505,MESA,CO
81505,MESA,CO
81505,MESA,CO
81506,MESA,CO
81506,MESA,CO
81507,MESA,CO
81507,MESA,CO
81520,MESA,CO
81521,MESA,CO
81521,MESA,CO
81522,MESA,CO
81523,MESA,CO
81524,MESA,CO
81525,MESA,CO
81525,MESA,CO
81526,MESA,CO
81526,MESA,CO
81527,MESA,CO
81601,GARFIELD,CO
81601,GARFIELD,CO
81601,GARFIELD,CO
81601,GARFIELD,CO
81601,GARFIELD,CO
81602,GARFIELD,CO
81602,GARFIELD,CO
81602,GARFIELD,CO
81610,MOFFAT,CO
81610,MOFFAT,CO
81610,MOFFAT,CO
81611,PITKIN,CO
81611,PITKIN,CO
81612,PITKIN,CO
81615,PITKIN,CO
81615,PITKIN,CO
81615,PITKIN,CO
81620,EAGLE,CO
81620,EAGLE,CO
81621,EAGLE,CO
81621,EAGLE,CO
81623,GARFIELD,CO
81623,GARFIELD,CO
81623,GARFIELD,CO
81623,GARFIELD,CO
81623,GARFIELD,CO
81624,MESA,CO
81624,MESA,CO
81625,MOFFAT,CO
81625,MOFFAT,CO
81626,MOFFAT,CO
81630,MESA,CO
81631,EAGLE,CO
81632,EAGLE,CO
81632,EAGLE,CO
81633,MOFFAT,CO
81633,MOFFAT,CO
81635,GARFIELD,CO
81635,GARFIELD,CO
81635,GARFIELD,CO
81635,GARFIELD,CO
81635,GARFIELD,CO
81636,GARFIELD,CO
81636,GARFIELD,CO
81636,GARFIELD,CO
81637,EAGLE,CO
81637,EAGLE,CO
81637,EAGLE,CO
81638,MOFFAT,CO
81638,MOFFAT,CO
81639,ROUTT,CO
81640,MOFFAT,CO
81640,MOFFAT,CO
81640,MOFFAT,CO
81641,RIO BLANCO,CO
81641,RIO BLANCO,CO
81641,RIO BLANCO,CO
81642,PITKIN,CO
81642,PITKIN,CO
81642,PITKIN,CO
81643,MESA,CO
81645,EAGLE,CO
81645,EAGLE,CO
81646,MESA,CO
81647,GARFIELD,CO
81648,RIO BLANCO,CO
81649,EAGLE,CO
81650,GARFIELD,CO
81650,GARFIELD,CO
81650,GARFIELD,CO
81650,GARFIELD,CO
81652,GARFIELD,CO
81653,MOFFAT,CO
81654,PITKIN,CO
81654,PITKIN,CO
81655,EAGLE,CO
81656,PITKIN,CO
81657,EAGLE,CO
81657,EAGLE,CO
81657,EAGLE,CO
81658,EAGLE,CO
90001,LOS ANGELES,CA
90001,LOS ANGELES,CA
90001,LOS ANGELES,CA
90002,LOS ANGELES,CA
90002,LOS ANGELES,CA
90003,LOS ANGELES,CA
90003,LOS ANGELES,CA
90004,LOS ANGELES,CA
90004,LOS ANGELES,CA
90005,LOS ANGELES,CA
90005,LOS ANGELES,CA
90006,LOS ANGELES,CA
90006,LOS ANGELES,CA
90007,LOS ANGELES,CA
90007,LOS ANGELES,CA
90008,LOS ANGELES,CA
90008,LOS ANGELES,CA
90008,LOS ANGELES,CA
90008,LOS ANGELES,CA
90008,LOS ANGELES,CA
90009,LOS ANGELES,CA
90009,LOS ANGELES,CA
90009,LOS ANGELES,CA
90009,LOS ANGELES,CA
90010,LOS ANGELES,CA
90010,LOS ANGELES,CA
90011,LOS ANGELES,CA
90012,LOS ANGELES,CA
90012,LOS ANGELES,CA
90013,LOS ANGELES,CA
90013,LOS ANGELES,CA
90014,LOS ANGELES,CA
90015,LOS ANGELES,CA
90016,LOS ANGELES,CA
90016,LOS ANGELES,CA
90017,LOS ANGELES,CA
90017,LOS ANGELES,CA
90018,LOS ANGELES,CA
90018,LOS ANGELES,CA
90018,LOS ANGELES,CA
90019,LOS ANGELES,CA
90019,LOS ANGELES,CA
90020,LOS ANGELES,CA
90020,LOS ANGELES,CA
90021,LOS ANGELES,CA
90021,LOS ANGELES,CA
90022,LOS ANGELES,CA
90022,LOS ANGELES,CA
90022,LOS ANGELES,CA
90022,LOS ANGELES,CA
90023,LOS ANGELES,CA
90023,LOS ANGELES,CA
90023,LOS ANGELES,CA
90024,LOS ANGELES,CA
90024,LOS ANGELES,CA
90025,LOS ANGELES,CA
90025,LOS ANGELES,CA
90025,LOS ANGELES,CA
90025,LOS ANGELES,CA
90026,LOS ANGELES,CA
90026,LOS ANGELES,CA
90026,LOS ANGELES,CA
90026,LOS ANGELES,CA
90027,LOS ANGELES,CA
90027,LOS ANGELES,CA
90027,LOS ANGELES,CA
90028,LOS ANGELES,CA
90028,LOS ANGELES,CA
90029,LOS ANGELES,CA
90029,LOS ANGELES,CA
90030,LOS ANGELES,CA
90031,LOS ANGELES,CA
90031,LOS ANGELES,CA
90031,LOS ANGELES,CA
90032,LOS ANGELES,CA
90033,LOS ANGELES,CA
90033,LOS ANGELES,CA
90034,LOS ANGELES,CA
90034,LOS ANGELES,CA
90035,LOS ANGELES,CA
90035,LOS ANGELES,CA
90036,LOS ANGELES,CA
90036,LOS ANGELES,CA
90036,LOS ANGELES,CA
90036,LOS ANGELES,CA
90037,LOS ANGELES,CA
90037,LOS ANGELES,CA
90038,LOS ANGELES,CA
90038,LOS ANGELES,CA
90038,LOS ANGELES,CA
90038,LOS ANGELES,CA
90038,LOS ANGELES,CA
90039,LOS ANGELES,CA
90039,LOS ANGELES,CA
90040,LOS ANGELES,CA
90040,LOS ANGELES,CA
90040,LOS ANGELES,CA
90041,LOS ANGELES,CA
90041,LOS ANGELES,CA
90042,LOS ANGELES,CA
90042,LOS ANGELES,CA
90043,LOS ANGELES,CA
90043,LOS ANGELES,CA
90043,LOS ANGELES,CA
90043,LOS ANGELES,CA
90044,LOS ANGELES,CA
90044,LOS ANGELES,CA
90044,LOS ANGELES,CA
90045,LOS ANGELES,CA
90045,LOS ANGELES,CA
90045,LOS ANGELES,CA
90045,LOS ANGELES,CA
90046,LOS ANGELES,CA
90046,LOS ANGELES,CA
90046,LOS ANGELES,CA
90047,LOS ANGELES,CA
90047,LOS ANGELES,CA
90048,LOS ANGELES,CA
90048,LOS ANGELES,CA
90048,LOS ANGELES,CA
90048,LOS ANGELES,CA
90048,LOS ANGELES,CA
90049,LOS ANGELES,CA
90049,LOS ANGELES,CA
90050,LOS ANGELES,CA
90051,LOS ANGELES,CA
90051,LOS ANGELES,CA
90052,LOS ANGELES,CA
90053,LOS ANGELES,CA
90054,LOS ANGELES,CA
90055,LOS ANGELES,CA
90056,LOS ANGELES,CA
90056,LOS ANGELES,CA
90056,LOS ANGELES,CA
90056,LOS ANGELES,CA
90057,LOS ANGELES,CA
90057,LOS ANGELES,CA
90058,LOS ANGELES,CA
90058,LOS ANGELES,CA
90059,LOS ANGELES,CA
90059,LOS ANGELES,CA
90059,LOS ANGELES,CA
90060,LOS ANGELES,CA
90061,LOS ANGELES,CA
90061,LOS ANGELES,CA
90061,LOS ANGELES,CA
90062,LOS ANGELES,CA
90062,LOS ANGELES,CA
90063,LOS ANGELES,CA
90063,LOS ANGELES,CA
90064,LOS ANGELES,CA
90064,LOS ANGELES,CA
90065,LOS ANGELES,CA
90065,LOS ANGELES,CA
90065,LOS ANGELES,CA
90066,LOS ANGELES,CA
90066,LOS ANGELES,CA
90066,LOS ANGELES,CA
90067,LOS ANGELES,CA
90067,LOS ANGELES,CA
90068,LOS ANGELES,CA
90068,LOS ANGELES,CA
90069,LOS ANGELES,CA
90069,LOS ANGELES,CA
90069,LOS ANGELES,CA
90070,LOS ANGELES,CA
90071,LOS ANGELES,CA
90071,LOS ANGELES,CA
90071,LOS ANGELES,CA
90072,LOS ANGELES,CA
90072,LOS ANGELES,CA
90073,LOS ANGELES,CA
90073,LOS ANGELES,CA
90073,LOS ANGELES,CA
90073,LOS ANGELES,CA
90073,LOS ANGELES,CA
90074,LOS ANGELES,CA
90074,LOS ANGELES,CA
90075,LOS ANGELES,CA
90076,LOS ANGELES,CA
90077,LOS ANGELES,CA
90077,LOS ANGELES,CA
90078,LOS ANGELES,CA
90078,LOS ANGELES,CA
90079,LOS ANGELES,CA
90080,LOS ANGELES,CA
90081,LOS ANGELES,CA
90082,LOS ANGELES,CA
90083,LOS ANGELES,CA
90084,LOS ANGELES,CA
90084,LOS ANGELES,CA
90085,LOS ANGELES,CA
90086,LOS ANGELES,CA
90087,LOS ANGELES,CA
90088,LOS ANGELES,CA
90088,LOS ANGELES,CA
90089,LOS ANGELES,CA
90089,LOS ANGELES,CA
90091,LOS ANGELES,CA
90091,LOS ANGELES,CA
90091,LOS ANGELES,CA
90093,LOS ANGELES,CA
90094,LOS ANGELES,CA
90094,LOS ANGELES,CA
90095,LOS ANGELES,CA
90095,LOS ANGELES,CA
90096,LOS ANGELES,CA
90096,LOS ANGELES,CA
90099,LOS ANGELES,CA
90099,LOS ANGELES,CA
90099,LOS ANGELES,CA
90134,LOS ANGELES,CA
90134,LOS ANGELES,CA
90140,LOS ANGELES,CA
90140,LOS ANGELES,CA
90189,LOS ANGELES,CA
90189,LOS ANGELES,CA
90189,LOS ANGELES,CA
90201,LOS ANGELES,CA
90201,LOS ANGELES,CA
90201,LOS ANGELES,CA
90202,LOS ANGELES,CA
90202,LOS ANGELES,CA
90205,LOS ANGELES,CA
90205,LOS ANGELES,CA
90209,LOS ANGELES,CA
90210,LOS ANGELES,CA
90211,LOS ANGELES,CA
90212,LOS ANGELES,CA
90213,LOS ANGELES,CA
90220,LOS ANGELES,CA
90220,LOS ANGELES,CA
90220,LOS ANGELES,CA
90220,LOS ANGELES,CA
90221,LOS ANGELES,CA
90221,LOS ANGELES,CA
90221,LOS ANGELES,CA
90222,LOS ANGELES,CA
90222,LOS ANGELES,CA
90223,LOS ANGELES,CA
90224,LOS ANGELES,CA
90224,LOS ANGELES,CA
90224,LOS ANGELES,CA
90230,LOS ANGELES,CA
90230,LOS ANGELES,CA
90231,LOS ANGELES,CA
90232,LOS ANGELES,CA
90239,LOS ANGELES,CA
90240,LOS ANGELES,CA
90241,LOS ANGELES,CA
90242,LOS ANGELES,CA
90245,LOS ANGELES,CA
90247,LOS ANGELES,CA
90248,LOS ANGELES,CA
90249,LOS ANGELES,CA
90250,LOS ANGELES,CA
90250,LOS ANGELES,CA
90250,LOS ANGELES,CA
90251,LOS ANGELES,CA
90254,LOS ANGELES,CA
90255,LOS ANGELES,CA
90255,LOS ANGELES,CA
90255,LOS ANGELES,CA
90260,LOS ANGELES,CA
90262,LOS ANGELES,CA
90263,LOS ANGELES,CA
90263,LOS ANGELES,CA
90264,LOS ANGELES,CA
90265,LOS ANGELES,CA
90266,LOS ANGELES,CA
90266,LOS ANGELES,CA
90267,LOS ANGELES,CA
90267,LOS ANGELES,CA
90270,LOS ANGELES,CA
90270,LOS ANGELES,CA
90272,LOS ANGELES,CA
90272,LOS ANGELES,CA
90274,LOS ANGELES,CA
90274,LOS ANGELES,CA
90274,LOS ANGELES,CA
90274,LOS ANGELES,CA
90274,LOS ANGELES,CA
90274,LOS ANGELES,CA
90274,LOS ANGELES,CA
90275,LOS ANGELES,CA
90275,LOS ANGELES,CA
90275,LOS ANGELES,CA
90275,LOS ANGELES,CA
90275,LOS ANGELES,CA
90275,LOS ANGELES,CA
90275,LOS ANGELES,CA
90275,LOS ANGELES,CA
90277,LOS ANGELES,CA
90278,LOS ANGELES,CA
90280,LOS ANGELES,CA
90290,LOS ANGELES,CA
90291,LOS ANGELES,CA
90291,LOS ANGELES,CA
90292,LOS ANGELES,CA
90292,LOS ANGELES,CA
90292,LOS ANGELES,CA
90293,LOS ANGELES,CA
90293,LOS ANGELES,CA
90294,LOS ANGELES,CA
90295,LOS ANGELES,CA
90295,LOS ANGELES,CA
90295,LOS ANGELES,CA
90296,LOS ANGELES,CA
90296,LOS ANGELES,CA
90301,LOS ANGELES,CA
90302,LOS ANGELES,CA
90303,LOS ANGELES,CA
90304,LOS ANGELES,CA
90305,LOS ANGELES,CA
90306,LOS ANGELES,CA
90307,LOS ANGELES,CA
90308,LOS ANGELES,CA
90309,LOS ANGELES,CA
90310,LOS ANGELES,CA
90311,LOS ANGELES,CA
90312,LOS ANGELES,CA
90401,LOS ANGELES,CA
90402,LOS ANGELES,CA
90403,LOS ANGELES,CA
90404,LOS ANGELES,CA
90405,LOS ANGELES,CA
90406,LOS ANGELES,CA
90407,LOS ANGELES,CA
90408,LOS ANGELES,CA
90409,LOS ANGELES,CA
90410,LOS ANGELES,CA
90411,LOS ANGELES,CA
90501,LOS ANGELES,CA
90502,LOS ANGELES,CA
90503,LOS ANGELES,CA
90504,LOS ANGELES,CA
90505,LOS ANGELES,CA
90506,LOS ANGELES,CA
90507,LOS ANGELES,CA
90508,LOS ANGELES,CA
90509,LOS ANGELES,CA
90510,LOS ANGELES,CA
90601,LOS ANGELES,CA
90601,LOS ANGELES,CA
90601,LOS ANGELES,CA
90601,LOS ANGELES,CA
90602,LOS ANGELES,CA
90603,LOS ANGELES,CA
90604,LOS ANGELES,CA
90605,LOS ANGELES,CA
90606,LOS ANGELES,CA
90606,LOS ANGELES,CA
90607,LOS ANGELES,CA
90608,LOS ANGELES,CA
90609,LOS ANGELES,CA
90610,LOS ANGELES,CA
90610,LOS ANGELES,CA
90620,ORANGE,CA
90621,ORANGE,CA
90622,ORANGE,CA
90623,ORANGE,CA
90623,ORANGE,CA
90624,ORANGE,CA
90630,ORANGE,CA
90631,ORANGE,CA
90631,ORANGE,CA
90631,ORANGE,CA
90631,ORANGE,CA
90632,ORANGE,CA
90633,ORANGE,CA
90637,LOS ANGELES,CA
90638,LOS ANGELES,CA
90638,LOS ANGELES,CA
90638,LOS ANGELES,CA
90639,LOS ANGELES,CA
90639,LOS ANGELES,CA
90640,LOS ANGELES,CA
90650,LOS ANGELES,CA
90651,LOS ANGELES,CA
90652,LOS ANGELES,CA
90660,LOS ANGELES,CA
90661,LOS ANGELES,CA
90662,LOS ANGELES,CA
90670,LOS ANGELES,CA
90670,LOS ANGELES,CA
90671,LOS ANGELES,CA
90671,LOS ANGELES,CA
90680,ORANGE,CA
90701,LOS ANGELES,CA
90701,LOS ANGELES,CA
90702,LOS ANGELES,CA
90703,LOS ANGELES,CA
90703,LOS ANGELES,CA
90704,LOS ANGELES,CA
90704,LOS ANGELES,CA
90704,LOS ANGELES,CA
90706,LOS ANGELES,CA
90707,LOS ANGELES,CA
90710,LOS ANGELES,CA
90711,LOS ANGELES,CA
90712,LOS ANGELES,CA
90713,LOS ANGELES,CA
90714,LOS ANGELES,CA
90715,LOS ANGELES,CA
90716,LOS ANGELES,CA
90716,LOS ANGELES,CA
90716,LOS ANGELES,CA
90717,LOS ANGELES,CA
90720,ORANGE,CA
90720,ORANGE,CA
90720,ORANGE,CA
90721,ORANGE,CA
90723,LOS ANGELES,CA
90731,LOS ANGELES,CA
90731,LOS ANGELES,CA
90731,LOS ANGELES,CA
90731,LOS ANGELES,CA
90732,LOS ANGELES,CA
90733,LOS ANGELES,CA
90734,LOS ANGELES,CA
90740,ORANGE,CA
90742,ORANGE,CA
90743,ORANGE,CA
90744,LOS ANGELES,CA
90745,LOS ANGELES,CA
90745,LOS ANGELES,CA
90746,LOS ANGELES,CA
90746,LOS ANGELES,CA
90747,LOS ANGELES,CA
90747,LOS ANGELES,CA
90747,LOS ANGELES,CA
90747,LOS ANGELES,CA
90748,LOS ANGELES,CA
90749,LOS ANGELES,CA
90749,LOS ANGELES,CA
90755,LOS ANGELES,CA
90755,LOS ANGELES,CA
90755,LOS ANGELES,CA
90801,LOS ANGELES,CA
90802,LOS ANGELES,CA
90803,LOS ANGELES,CA
90803,LOS ANGELES,CA
90803,LOS ANGELES,CA
90804,LOS ANGELES,CA
90804,LOS ANGELES,CA
90805,LOS ANGELES,CA
90805,LOS ANGELES,CA
90805,LOS ANGELES,CA
90806,LOS ANGELES,CA
90807,LOS ANGELES,CA
90807,LOS ANGELES,CA
90807,LOS ANGELES,CA
90808,LOS ANGELES,CA
90809,LOS ANGELES,CA
90810,LOS ANGELES,CA
90810,LOS ANGELES,CA
90810,LOS ANGELES,CA
90810,LOS ANGELES,CA
90813,LOS ANGELES,CA
90814,LOS ANGELES,CA
90815,LOS ANGELES,CA
90822,LOS ANGELES,CA
90822,LOS ANGELES,CA
90831,LOS ANGELES,CA
90832,LOS ANGELES,CA
90833,LOS ANGELES,CA
90840,LOS ANGELES,CA
90840,LOS ANGELES,CA
90840,LOS ANGELES,CA
90842,LOS ANGELES,CA
90842,LOS ANGELES,CA
90844,LOS ANGELES,CA
90844,LOS ANGELES,CA
90846,LOS ANGELES,CA
90846,LOS ANGELES,CA
90847,LOS ANGELES,CA
90847,LOS ANGELES,CA
90848,LOS ANGELES,CA
90848,LOS ANGELES,CA
90848,LOS ANGELES,CA
90853,LOS ANGELES,CA
90895,LOS ANGELES,CA
90895,LOS ANGELES,CA
90895,LOS ANGELES,CA
91001,LOS ANGELES,CA
91003,LOS ANGELES,CA
91006,LOS ANGELES,CA
91007,LOS ANGELES,CA
91008,LOS ANGELES,CA
91008,LOS ANGELES,CA
91009,LOS ANGELES,CA
91010,LOS ANGELES,CA
91011,LOS ANGELES,CA
91011,LOS ANGELES,CA
91011,LOS ANGELES,CA
91011,LOS ANGELES,CA
91011,LOS ANGELES,CA
91012,LOS ANGELES,CA
91012,LOS ANGELES,CA
91012,LOS ANGELES,CA
91016,LOS ANGELES,CA
91017,LOS ANGELES,CA
91020,LOS ANGELES,CA
91021,LOS ANGELES,CA
91023,LOS ANGELES,CA
91024,LOS ANGELES,CA
91025,LOS ANGELES,CA
91030,LOS ANGELES,CA
91030,LOS ANGELES,CA
91031,LOS ANGELES,CA
91031,LOS ANGELES,CA
91040,LOS ANGELES,CA
91040,LOS ANGELES,CA
91041,LOS ANGELES,CA
91042,LOS ANGELES,CA
91043,LOS ANGELES,CA
91046,LOS ANGELES,CA
91066,LOS ANGELES,CA
91077,LOS ANGELES,CA
91101,LOS ANGELES,CA
91102,LOS ANGELES,CA
91103,LOS ANGELES,CA
91104,LOS ANGELES,CA
91105,LOS ANGELES,CA
91106,LOS ANGELES,CA
91107,LOS ANGELES,CA
91108,LOS ANGELES,CA
91108,LOS ANGELES,CA
91109,LOS ANGELES,CA
91110,LOS ANGELES,CA
91110,LOS ANGELES,CA
91114,LOS ANGELES,CA
91115,LOS ANGELES,CA
91116,LOS ANGELES,CA
91117,LOS ANGELES,CA
91118,LOS ANGELES,CA
91118,LOS ANGELES,CA
91121,LOS ANGELES,CA
91121,LOS ANGELES,CA
91123,LOS ANGELES,CA
91123,LOS ANGELES,CA
91124,LOS ANGELES,CA
91124,LOS ANGELES,CA
91125,LOS ANGELES,CA
91125,LOS ANGELES,CA
91126,LOS ANGELES,CA
91126,LOS ANGELES,CA
91129,LOS ANGELES,CA
91129,LOS ANGELES,CA
91182,LOS ANGELES,CA
91182,LOS ANGELES,CA
91184,LOS ANGELES,CA
91184,LOS ANGELES,CA
91185,LOS ANGELES,CA
91185,LOS ANGELES,CA
91188,LOS ANGELES,CA
91188,LOS ANGELES,CA
91189,LOS ANGELES,CA
91189,LOS ANGELES,CA
91199,LOS ANGELES,CA
91199,LOS ANGELES,CA
91201,LOS ANGELES,CA
91202,LOS ANGELES,CA
91203,LOS ANGELES,CA
91204,LOS ANGELES,CA
91205,LOS ANGELES,CA
91206,LOS ANGELES,CA
91207,LOS ANGELES,CA
91208,LOS ANGELES,CA
91209,LOS ANGELES,CA
91210,LOS ANGELES,CA
91210,LOS ANGELES,CA
91214,LOS ANGELES,CA
91214,LOS ANGELES,CA
91221,LOS ANGELES,CA
91222,LOS ANGELES,CA
91224,LOS ANGELES,CA
91224,LOS ANGELES,CA
91225,LOS ANGELES,CA
91226,LOS ANGELES,CA
91301,LOS ANGELES,CA
91301,LOS ANGELES,CA
91301,LOS ANGELES,CA
91301,LOS ANGELES,CA
91301,LOS ANGELES,CA
91301,LOS ANGELES,CA
91301,LOS ANGELES,CA
91301,LOS ANGELES,CA
91301,LOS ANGELES,CA
91301,LOS ANGELES,CA
91302,LOS ANGELES,CA
91302,LOS ANGELES,CA
91302,LOS ANGELES,CA
91302,LOS ANGELES,CA
91302,LOS ANGELES,CA
91303,LOS ANGELES,CA
91303,LOS ANGELES,CA
91303,LOS ANGELES,CA
91304,LOS ANGELES,CA
91304,LOS ANGELES,CA
91304,LOS ANGELES,CA
91305,LOS ANGELES,CA
91306,LOS ANGELES,CA
91306,LOS ANGELES,CA
91307,LOS ANGELES,CA
91307,LOS ANGELES,CA
91307,LOS ANGELES,CA
91308,LOS ANGELES,CA
91308,LOS ANGELES,CA
91309,LOS ANGELES,CA
91310,LOS ANGELES,CA
91310,LOS ANGELES,CA
91311,LOS ANGELES,CA
91313,LOS ANGELES,CA
91316,LOS ANGELES,CA
91316,LOS ANGELES,CA
91319,VENTURA,CA
91319,VENTURA,CA
91320,VENTURA,CA
91320,VENTURA,CA
91320,VENTURA,CA
91321,LOS ANGELES,CA
91321,LOS ANGELES,CA
91321,LOS ANGELES,CA
91322,LOS ANGELES,CA
91322,LOS ANGELES,CA
91324,LOS ANGELES,CA
91325,LOS ANGELES,CA
91325,LOS ANGELES,CA
91325,LOS ANGELES,CA
91326,LOS ANGELES,CA
91326,LOS ANGELES,CA
91327,LOS ANGELES,CA
91327,LOS ANGELES,CA
91328,LOS ANGELES,CA
91330,LOS ANGELES,CA
91330,LOS ANGELES,CA
91331,LOS ANGELES,CA
91331,LOS ANGELES,CA
91331,LOS ANGELES,CA
91331,LOS ANGELES,CA
91333,LOS ANGELES,CA
91334,LOS ANGELES,CA
91334,LOS ANGELES,CA
91335,LOS ANGELES,CA
91335,LOS ANGELES,CA
91337,LOS ANGELES,CA
91340,LOS ANGELES,CA
91341,LOS ANGELES,CA
91342,LOS ANGELES,CA
91342,LOS ANGELES,CA
91342,LOS ANGELES,CA
91342,LOS ANGELES,CA
91342,LOS ANGELES,CA
91342,LOS ANGELES,CA
91343,LOS ANGELES,CA
91343,LOS ANGELES,CA
91343,LOS ANGELES,CA
91344,LOS ANGELES,CA
91344,LOS ANGELES,CA
91345,LOS ANGELES,CA
91345,LOS ANGELES,CA
91346,LOS ANGELES,CA
91346,LOS ANGELES,CA
91350,LOS ANGELES,CA
91350,LOS ANGELES,CA
91350,LOS ANGELES,CA
91350,LOS ANGELES,CA
91350,LOS ANGELES,CA
91350,LOS ANGELES,CA
91350,LOS ANGELES,CA
91351,LOS ANGELES,CA
91351,LOS ANGELES,CA
91351,LOS ANGELES,CA
91352,LOS ANGELES,CA
91352,LOS ANGELES,CA
91352,LOS ANGELES,CA
91352,LOS ANGELES,CA
91353,LOS ANGELES,CA
91354,LOS ANGELES,CA
91354,LOS ANGELES,CA
91355,LOS ANGELES,CA
91355,LOS ANGELES,CA
91356,LOS ANGELES,CA
91357,LOS ANGELES,CA
91358,VENTURA,CA
91359,VENTURA,CA
91359,VENTURA,CA
91359,VENTURA,CA
91359,VENTURA,CA
91360,VENTURA,CA
91361,VENTURA,CA
91361,VENTURA,CA
91361,VENTURA,CA
91361,VENTURA,CA
91361,VENTURA,CA
91362,VENTURA,CA
91362,VENTURA,CA
91362,VENTURA,CA
91364,LOS ANGELES,CA
91364,LOS ANGELES,CA
91365,LOS ANGELES,CA
91365,LOS ANGELES,CA
91367,LOS ANGELES,CA
91367,LOS ANGELES,CA
91371,LOS ANGELES,CA
91371,LOS ANGELES,CA
91371,LOS ANGELES,CA
91372,LOS ANGELES,CA
91372,LOS ANGELES,CA
91372,LOS ANGELES,CA
91376,LOS ANGELES,CA
91376,LOS ANGELES,CA
91377,VENTURA,CA
91377,VENTURA,CA
91380,LOS ANGELES,CA
91380,LOS ANGELES,CA
91381,LOS ANGELES,CA
91381,LOS ANGELES,CA
91381,LOS ANGELES,CA
91381,LOS ANGELES,CA
91381,LOS ANGELES,CA
91382,LOS ANGELES,CA
91383,LOS ANGELES,CA
91384,LOS ANGELES,CA
91384,LOS ANGELES,CA
91384,LOS ANGELES,CA
91385,LOS ANGELES,CA
91385,LOS ANGELES,CA
91386,LOS ANGELES,CA
91386,LOS ANGELES,CA
91386,LOS ANGELES,CA
91387,LOS ANGELES,CA
91387,LOS ANGELES,CA
91387,LOS ANGELES,CA
91387,LOS ANGELES,CA
91390,LOS ANGELES,CA
91390,LOS ANGELES,CA
91390,LOS ANGELES,CA
91390,LOS ANGELES,CA
91390,LOS ANGELES,CA
91390,LOS ANGELES,CA
91390,LOS ANGELES,CA
91390,LOS ANGELES,CA
91392,LOS ANGELES,CA
91393,LOS ANGELES,CA
91393,LOS ANGELES,CA
91394,LOS ANGELES,CA
91395,LOS ANGELES,CA
91396,LOS ANGELES,CA
91396,LOS ANGELES,CA
91401,LOS ANGELES,CA
91401,LOS ANGELES,CA
91401,LOS ANGELES,CA
91402,LOS ANGELES,CA
91402,LOS ANGELES,CA
91403,LOS ANGELES,CA
91403,LOS ANGELES,CA
91404,LOS ANGELES,CA
91405,LOS ANGELES,CA
91405,LOS ANGELES,CA
91406,LOS ANGELES,CA
91406,LOS ANGELES,CA
91407,LOS ANGELES,CA
91408,LOS ANGELES,CA
91409,LOS ANGELES,CA
91410,LOS ANGELES,CA
91411,LOS ANGELES,CA
91411,LOS ANGELES,CA
91412,LOS ANGELES,CA
91412,LOS ANGELES,CA
91413,LOS ANGELES,CA
91413,LOS ANGELES,CA
91416,LOS ANGELES,CA
91416,LOS ANGELES,CA
91423,LOS ANGELES,CA
91423,LOS ANGELES,CA
91426,LOS ANGELES,CA
91426,LOS ANGELES,CA
91436,LOS ANGELES,CA
91436,LOS ANGELES,CA
91470,LOS ANGELES,CA
91470,LOS ANGELES,CA
91482,LOS ANGELES,CA
91482,LOS ANGELES,CA
91499,LOS ANGELES,CA
91499,LOS ANGELES,CA
91501,LOS ANGELES,CA
91501,LOS ANGELES,CA
91502,LOS ANGELES,CA
91503,LOS ANGELES,CA
91504,LOS ANGELES,CA
91505,LOS ANGELES,CA
91506,LOS ANGELES,CA
91507,LOS ANGELES,CA
91507,LOS ANGELES,CA
91508,LOS ANGELES,CA
91510,LOS ANGELES,CA
91521,LOS ANGELES,CA
91521,LOS ANGELES,CA
91522,LOS ANGELES,CA
91522,LOS ANGELES,CA
91523,LOS ANGELES,CA
91523,LOS ANGELES,CA
91601,LOS ANGELES,CA
91601,LOS ANGELES,CA
91601,LOS ANGELES,CA
91601,LOS ANGELES,CA
91601,LOS ANGELES,CA
91601,LOS ANGELES,CA
91602,LOS ANGELES,CA
91602,LOS ANGELES,CA
91602,LOS ANGELES,CA
91602,LOS ANGELES,CA
91602,LOS ANGELES,CA
91602,LOS ANGELES,CA
91603,LOS ANGELES,CA
91603,LOS ANGELES,CA
91604,LOS ANGELES,CA
91604,LOS ANGELES,CA
91604,LOS ANGELES,CA
91605,LOS ANGELES,CA
91605,LOS ANGELES,CA
91606,LOS ANGELES,CA
91606,LOS ANGELES,CA
91606,LOS ANGELES,CA
91607,LOS ANGELES,CA
91607,LOS ANGELES,CA
91607,LOS ANGELES,CA
91607,LOS ANGELES,CA
91607,LOS ANGELES,CA
91607,LOS ANGELES,CA
91607,LOS ANGELES,CA
91608,LOS ANGELES,CA
91608,LOS ANGELES,CA
91608,LOS ANGELES,CA
91608,LOS ANGELES,CA
91609,LOS ANGELES,CA
91609,LOS ANGELES,CA
91610,LOS ANGELES,CA
91610,LOS ANGELES,CA
91610,LOS ANGELES,CA
91614,LOS ANGELES,CA
91614,LOS ANGELES,CA
91614,LOS ANGELES,CA
91615,LOS ANGELES,CA
91615,LOS ANGELES,CA
91616,LOS ANGELES,CA
91616,LOS ANGELES,CA
91617,LOS ANGELES,CA
91617,LOS ANGELES,CA
91617,LOS ANGELES,CA
91617,LOS ANGELES,CA
91618,LOS ANGELES,CA
91618,LOS ANGELES,CA
91618,LOS ANGELES,CA
91701,SAN BERNARDINO,CA
91701,SAN BERNARDINO,CA
91701,SAN BERNARDINO,CA
91702,LOS ANGELES,CA
91702,LOS ANGELES,CA
91706,LOS ANGELES,CA
91706,LOS ANGELES,CA
91708,SAN BERNARDINO,CA
91709,SAN BERNARDINO,CA
91710,SAN BERNARDINO,CA
91710,SAN BERNARDINO,CA
91710,SAN BERNARDINO,CA
91711,LOS ANGELES,CA
91714,LOS ANGELES,CA
91714,LOS ANGELES,CA
91715,LOS ANGELES,CA
91715,LOS ANGELES,CA
91716,LOS ANGELES,CA
91716,LOS ANGELES,CA
91722,LOS ANGELES,CA
91723,LOS ANGELES,CA
91724,LOS ANGELES,CA
91724,LOS ANGELES,CA
91729,SAN BERNARDINO,CA
91729,SAN BERNARDINO,CA
91729,SAN BERNARDINO,CA
91730,SAN BERNARDINO,CA
91730,SAN BERNARDINO,CA
91730,SAN BERNARDINO,CA
91731,LOS ANGELES,CA
91732,LOS ANGELES,CA
91732,LOS ANGELES,CA
91732,LOS ANGELES,CA
91733,LOS ANGELES,CA
91733,LOS ANGELES,CA
91733,LOS ANGELES,CA
91734,LOS ANGELES,CA
91735,LOS ANGELES,CA
91735,LOS ANGELES,CA
91737,SAN BERNARDINO,CA
91737,SAN BERNARDINO,CA
91737,SAN BERNARDINO,CA
91739,SAN BERNARDINO,CA
91739,SAN BERNARDINO,CA
91739,SAN BERNARDINO,CA
91740,LOS ANGELES,CA
91741,LOS ANGELES,CA
91743,SAN BERNARDINO,CA
91744,LOS ANGELES,CA
91744,LOS ANGELES,CA
91744,LOS ANGELES,CA
91745,LOS ANGELES,CA
91745,LOS ANGELES,CA
91745,LOS ANGELES,CA
91745,LOS ANGELES,CA
91745,LOS ANGELES,CA
91746,LOS ANGELES,CA
91746,LOS ANGELES,CA
91746,LOS ANGELES,CA
91746,LOS ANGELES,CA
91747,LOS ANGELES,CA
91748,LOS ANGELES,CA
91748,LOS ANGELES,CA
91748,LOS ANGELES,CA
91748,LOS ANGELES,CA
91748,LOS ANGELES,CA
91748,LOS ANGELES,CA
91749,LOS ANGELES,CA
91750,LOS ANGELES,CA
91752,RIVERSIDE,CA
91752,RIVERSIDE,CA
91752,RIVERSIDE,CA
91754,LOS ANGELES,CA
91755,LOS ANGELES,CA
91756,LOS ANGELES,CA
91756,LOS ANGELES,CA
91756,LOS ANGELES,CA
91756,LOS ANGELES,CA
91756,LOS ANGELES,CA
91758,SAN BERNARDINO,CA
91759,SAN BERNARDINO,CA
91761,SAN BERNARDINO,CA
91762,SAN BERNARDINO,CA
91762,SAN BERNARDINO,CA
91763,SAN BERNARDINO,CA
91764,SAN BERNARDINO,CA
91765,LOS ANGELES,CA
91765,LOS ANGELES,CA
91766,LOS ANGELES,CA
91766,LOS ANGELES,CA
91766,LOS ANGELES,CA
91767,LOS ANGELES,CA
91768,LOS ANGELES,CA
91769,LOS ANGELES,CA
91770,LOS ANGELES,CA
91771,LOS ANGELES,CA
91771,LOS ANGELES,CA
91772,LOS ANGELES,CA
91772,LOS ANGELES,CA
91773,LOS ANGELES,CA
91775,LOS ANGELES,CA
91776,LOS ANGELES,CA
91778,LOS ANGELES,CA
91780,LOS ANGELES,CA
91784,SAN BERNARDINO,CA
91785,SAN BERNARDINO,CA
91786,SAN BERNARDINO,CA
91788,LOS ANGELES,CA
91789,LOS ANGELES,CA
91789,LOS ANGELES,CA
91789,LOS ANGELES,CA
91789,LOS ANGELES,CA
91790,LOS ANGELES,CA
91791,LOS ANGELES,CA
91792,LOS ANGELES,CA
91793,LOS ANGELES,CA
91801,LOS ANGELES,CA
91802,LOS ANGELES,CA
91803,LOS ANGELES,CA
91804,LOS ANGELES,CA
91896,LOS ANGELES,CA
91899,LOS ANGELES,CA
91901,SAN DIEGO,CA
91902,SAN DIEGO,CA
91903,SAN DIEGO,CA
91905,SAN DIEGO,CA
91906,SAN DIEGO,CA
91908,SAN DIEGO,CA
91909,SAN DIEGO,CA
91910,SAN DIEGO,CA
91911,SAN DIEGO,CA
91912,SAN DIEGO,CA
91913,SAN DIEGO,CA
91914,SAN DIEGO,CA
91915,SAN DIEGO,CA
91916,SAN DIEGO,CA
91917,SAN DIEGO,CA
91921,SAN DIEGO,CA
91931,SAN DIEGO,CA
91932,SAN DIEGO,CA
91932,SAN DIEGO,CA
91933,SAN DIEGO,CA
91933,SAN DIEGO,CA
91934,SAN DIEGO,CA
91935,SAN DIEGO,CA
91941,SAN DIEGO,CA
91942,SAN DIEGO,CA
91943,SAN DIEGO,CA
91944,SAN DIEGO,CA
91945,SAN DIEGO,CA
91946,SAN DIEGO,CA
91948,SAN DIEGO,CA
91950,SAN DIEGO,CA
91950,SAN DIEGO,CA
91951,SAN DIEGO,CA
91962,SAN DIEGO,CA
91963,SAN DIEGO,CA
91976,SAN DIEGO,CA
91977,SAN DIEGO,CA
91978,SAN DIEGO,CA
91979,SAN DIEGO,CA
91980,SAN DIEGO,CA
91987,SAN DIEGO,CA
91987,SAN DIEGO,CA
92003,SAN DIEGO,CA
92004,SAN DIEGO,CA
92004,SAN DIEGO,CA
92007,SAN DIEGO,CA
92007,SAN DIEGO,CA
92008,SAN DIEGO,CA
92009,SAN DIEGO,CA
92009,SAN DIEGO,CA
92009,SAN DIEGO,CA
92010,SAN DIEGO,CA
92011,SAN DIEGO,CA
92011,SAN DIEGO,CA
92011,SAN DIEGO,CA
92013,SAN DIEGO,CA
92014,SAN DIEGO,CA
92018,SAN DIEGO,CA
92019,SAN DIEGO,CA
92020,SAN DIEGO,CA
92021,SAN DIEGO,CA
92021,SAN DIEGO,CA
92021,SAN DIEGO,CA
92022,SAN DIEGO,CA
92023,SAN DIEGO,CA
92024,SAN DIEGO,CA
92024,SAN DIEGO,CA
92024,SAN DIEGO,CA
92025,SAN DIEGO,CA
92026,SAN DIEGO,CA
92026,SAN DIEGO,CA
92027,SAN DIEGO,CA
92028,SAN DIEGO,CA
92028,SAN DIEGO,CA
92029,SAN DIEGO,CA
92029,SAN DIEGO,CA
92030,SAN DIEGO,CA
92033,SAN DIEGO,CA
92036,SAN DIEGO,CA
92037,SAN DIEGO,CA
92038,SAN DIEGO,CA
92039,SAN DIEGO,CA
92040,SAN DIEGO,CA
92046,SAN DIEGO,CA
92049,SAN DIEGO,CA
92051,SAN DIEGO,CA
92052,SAN DIEGO,CA
92054,SAN DIEGO,CA
92054,SAN DIEGO,CA
92054,SAN DIEGO,CA
92055,SAN DIEGO,CA
92055,SAN DIEGO,CA
92055,SAN DIEGO,CA
92055,SAN DIEGO,CA
92056,SAN DIEGO,CA
92057,SAN DIEGO,CA
92058,SAN DIEGO,CA
92059,SAN DIEGO,CA
92060,SAN DIEGO,CA
92060,SAN DIEGO,CA
92061,SAN DIEGO,CA
92061,SAN DIEGO,CA
92064,SAN DIEGO,CA
92065,SAN DIEGO,CA
92066,SAN DIEGO,CA
92066,SAN DIEGO,CA
92066,SAN DIEGO,CA
92067,SAN DIEGO,CA
92067,SAN DIEGO,CA
92068,SAN DIEGO,CA
92068,SAN DIEGO,CA
92069,SAN DIEGO,CA
92069,SAN DIEGO,CA
92070,SAN DIEGO,CA
92071,SAN DIEGO,CA
92072,SAN DIEGO,CA
92074,SAN DIEGO,CA
92075,SAN DIEGO,CA
92078,SAN DIEGO,CA
92078,SAN DIEGO,CA
92079,SAN DIEGO,CA
92081,SAN DIEGO,CA
92082,SAN DIEGO,CA
92083,SAN DIEGO,CA
92084,SAN DIEGO,CA
92085,SAN DIEGO,CA
92086,SAN DIEGO,CA
92086,SAN DIEGO,CA
92088,SAN DIEGO,CA
92091,SAN DIEGO,CA
92091,SAN DIEGO,CA
92092,SAN DIEGO,CA
92092,SAN DIEGO,CA
92092,SAN DIEGO,CA
92093,SAN DIEGO,CA
92093,SAN DIEGO,CA
92093,SAN DIEGO,CA
92096,SAN DIEGO,CA
92096,SAN DIEGO,CA
92101,SAN DIEGO,CA
92102,SAN DIEGO,CA
92103,SAN DIEGO,CA
92104,SAN DIEGO,CA
92105,SAN DIEGO,CA
92106,SAN DIEGO,CA
92107,SAN DIEGO,CA
92107,SAN DIEGO,CA
92108,SAN DIEGO,CA
92109,SAN DIEGO,CA
92109,SAN DIEGO,CA
92110,SAN DIEGO,CA
92111,SAN DIEGO,CA
92112,SAN DIEGO,CA
92113,SAN DIEGO,CA
92114,SAN DIEGO,CA
92115,SAN DIEGO,CA
92116,SAN DIEGO,CA
92117,SAN DIEGO,CA
92118,SAN DIEGO,CA
92118,SAN DIEGO,CA
92119,SAN DIEGO,CA
92120,SAN DIEGO,CA
92121,SAN DIEGO,CA
92122,SAN DIEGO,CA
92123,SAN DIEGO,CA
92124,SAN DIEGO,CA
92126,SAN DIEGO,CA
92127,SAN DIEGO,CA
92128,SAN DIEGO,CA
92128,SAN DIEGO,CA
92129,SAN DIEGO,CA
92130,SAN DIEGO,CA
92131,SAN DIEGO,CA
92132,SAN DIEGO,CA
92132,SAN DIEGO,CA
92134,SAN DIEGO,CA
92134,SAN DIEGO,CA
92135,SAN DIEGO,CA
92135,SAN DIEGO,CA
92135,SAN DIEGO,CA
92136,SAN DIEGO,CA
92136,SAN DIEGO,CA
92137,SAN DIEGO,CA
92138,SAN DIEGO,CA
92139,SAN DIEGO,CA
92140,SAN DIEGO,CA
92140,SAN DIEGO,CA
92142,SAN DIEGO,CA
92143,SAN DIEGO,CA
92143,SAN DIEGO,CA
92145,SAN DIEGO,CA
92145,SAN DIEGO,CA
92147,SAN DIEGO,CA
92147,SAN DIEGO,CA
92149,SAN DIEGO,CA
92150,SAN DIEGO,CA
92152,SAN DIEGO,CA
92152,SAN DIEGO,CA
92153,SAN DIEGO,CA
92153,SAN DIEGO,CA
92154,SAN DIEGO,CA
92154,SAN DIEGO,CA
92155,SAN DIEGO,CA
92155,SAN DIEGO,CA
92158,SAN DIEGO,CA
92158,SAN DIEGO,CA
92159,SAN DIEGO,CA
92160,SAN DIEGO,CA
92161,SAN DIEGO,CA
92161,SAN DIEGO,CA
92163,SAN DIEGO,CA
92165,SAN DIEGO,CA
92166,SAN DIEGO,CA
92167,SAN DIEGO,CA
92168,SAN DIEGO,CA
92169,SAN DIEGO,CA
92170,SAN DIEGO,CA
92171,SAN DIEGO,CA
92172,SAN DIEGO,CA
92173,SAN DIEGO,CA
92173,SAN DIEGO,CA
92174,SAN DIEGO,CA
92175,SAN DIEGO,CA
92176,SAN DIEGO,CA
92177,SAN DIEGO,CA
92178,SAN DIEGO,CA
92178,SAN DIEGO,CA
92179,SAN DIEGO,CA
92182,SAN DIEGO,CA
92182,SAN DIEGO,CA
92186,SAN DIEGO,CA
92187,SAN DIEGO,CA
92187,SAN DIEGO,CA
92191,SAN DIEGO,CA
92192,SAN DIEGO,CA
92193,SAN DIEGO,CA
92195,SAN DIEGO,CA
92196,SAN DIEGO,CA
92197,SAN DIEGO,CA
92198,SAN DIEGO,CA
92199,SAN DIEGO,CA
92201,RIVERSIDE,CA
92201,RIVERSIDE,CA
92201,RIVERSIDE,CA
92202,RIVERSIDE,CA
92203,RIVERSIDE,CA
92203,RIVERSIDE,CA
92210,RIVERSIDE,CA
92210,RIVERSIDE,CA
92211,RIVERSIDE,CA
92220,RIVERSIDE,CA
92222,IMPERIAL,CA
92223,RIVERSIDE,CA
92223,RIVERSIDE,CA
92225,RIVERSIDE,CA
92225,RIVERSIDE,CA
92225,RIVERSIDE,CA
92226,RIVERSIDE,CA
92227,IMPERIAL,CA
92230,RIVERSIDE,CA
92231,IMPERIAL,CA
92231,IMPERIAL,CA
92232,IMPERIAL,CA
92233,IMPERIAL,CA
92234,RIVERSIDE,CA
92234,RIVERSIDE,CA
92235,RIVERSIDE,CA
92235,RIVERSIDE,CA
92236,RIVERSIDE,CA
92239,RIVERSIDE,CA
92239,RIVERSIDE,CA
92239,RIVERSIDE,CA
92240,RIVERSIDE,CA
92240,RIVERSIDE,CA
92241,RIVERSIDE,CA
92241,RIVERSIDE,CA
92241,RIVERSIDE,CA
92241,RIVERSIDE,CA
92242,SAN BERNARDINO,CA
92242,SAN BERNARDINO,CA
92243,IMPERIAL,CA
92244,IMPERIAL,CA
92247,RIVERSIDE,CA
92248,RIVERSIDE,CA
92249,IMPERIAL,CA
92250,IMPERIAL,CA
92250,IMPERIAL,CA
92251,IMPERIAL,CA
92252,SAN BERNARDINO,CA
92253,RIVERSIDE,CA
92254,RIVERSIDE,CA
92254,RIVERSIDE,CA
92255,RIVERSIDE,CA
92256,SAN BERNARDINO,CA
92256,SAN BERNARDINO,CA
92257,IMPERIAL,CA
92257,IMPERIAL,CA
92258,RIVERSIDE,CA
92258,RIVERSIDE,CA
92258,RIVERSIDE,CA
92258,RIVERSIDE,CA
92259,IMPERIAL,CA
92260,RIVERSIDE,CA
92261,RIVERSIDE,CA
92262,RIVERSIDE,CA
92262,RIVERSIDE,CA
92262,RIVERSIDE,CA
92262,RIVERSIDE,CA
92263,RIVERSIDE,CA
92264,RIVERSIDE,CA
92266,IMPERIAL,CA
92267,SAN BERNARDINO,CA
92267,SAN BERNARDINO,CA
92268,SAN BERNARDINO,CA
92268,SAN BERNARDINO,CA
92270,RIVERSIDE,CA
92273,IMPERIAL,CA
92274,RIVERSIDE,CA
92274,RIVERSIDE,CA
92274,RIVERSIDE,CA
92274,RIVERSIDE,CA
92274,RIVERSIDE,CA
92274,RIVERSIDE,CA
92274,RIVERSIDE,CA
92274,RIVERSIDE,CA
92275,IMPERIAL,CA
92275,IMPERIAL,CA
92276,RIVERSIDE,CA
92276,RIVERSIDE,CA
92276,RIVERSIDE,CA
92276,RIVERSIDE,CA
92276,RIVERSIDE,CA
92276,RIVERSIDE,CA
92277,SAN BERNARDINO,CA
92277,SAN BERNARDINO,CA
92277,SAN BERNARDINO,CA
92278,SAN BERNARDINO,CA
92278,SAN BERNARDINO,CA
92278,SAN BERNARDINO,CA
92278,SAN BERNARDINO,CA
92280,SAN BERNARDINO,CA
92280,SAN BERNARDINO,CA
92280,SAN BERNARDINO,CA
92281,IMPERIAL,CA
92282,RIVERSIDE,CA
92282,RIVERSIDE,CA
92283,IMPERIAL,CA
92283,IMPERIAL,CA
92284,SAN BERNARDINO,CA
92285,SAN BERNARDINO,CA
92285,SAN BERNARDINO,CA
92285,SAN BERNARDINO,CA
92285,SAN BERNARDINO,CA
92286,SAN BERNARDINO,CA
92301,SAN BERNARDINO,CA
92301,SAN BERNARDINO,CA
92304,SAN BERNARDINO,CA
92304,SAN BERNARDINO,CA
92305,SAN BERNARDINO,CA
92305,SAN BERNARDINO,CA
92307,SAN BERNARDINO,CA
92308,SAN BERNARDINO,CA
92308,SAN BERNARDINO,CA
92309,SAN BERNARDINO,CA
92309,SAN BERNARDINO,CA
92310,SAN BERNARDINO,CA
92310,SAN BERNARDINO,CA
92311,SAN BERNARDINO,CA
92311,SAN BERNARDINO,CA
92312,SAN BERNARDINO,CA
92313,SAN BERNARDINO,CA
92314,SAN BERNARDINO,CA
92315,SAN BERNARDINO,CA
92315,SAN BERNARDINO,CA
92316,SAN BERNARDINO,CA
92316,SAN BERNARDINO,CA
92317,SAN BERNARDINO,CA
92318,SAN BERNARDINO,CA
92320,RIVERSIDE,CA
92321,SAN BERNARDINO,CA
92322,SAN BERNARDINO,CA
92322,SAN BERNARDINO,CA
92322,SAN BERNARDINO,CA
92323,SAN BERNARDINO,CA
92324,SAN BERNARDINO,CA
92324,SAN BERNARDINO,CA
92325,SAN BERNARDINO,CA
92325,SAN BERNARDINO,CA
92325,SAN BERNARDINO,CA
92327,SAN BERNARDINO,CA
92328,INYO,CA
92328,INYO,CA
92328,INYO,CA
92328,INYO,CA
92329,SAN BERNARDINO,CA
92331,SAN BERNARDINO,CA
92332,SAN BERNARDINO,CA
92332,SAN BERNARDINO,CA
92333,SAN BERNARDINO,CA
92334,SAN BERNARDINO,CA
92335,SAN BERNARDINO,CA
92336,SAN BERNARDINO,CA
92337,SAN BERNARDINO,CA
92338,SAN BERNARDINO,CA
92338,SAN BERNARDINO,CA
92338,SAN BERNARDINO,CA
92339,SAN BERNARDINO,CA
92339,SAN BERNARDINO,CA
92340,SAN BERNARDINO,CA
92341,SAN BERNARDINO,CA
92341,SAN BERNARDINO,CA
92342,SAN BERNARDINO,CA
92342,SAN BERNARDINO,CA
92344,SAN BERNARDINO,CA
92344,SAN BERNARDINO,CA
92345,SAN BERNARDINO,CA
92346,SAN BERNARDINO,CA
92347,SAN BERNARDINO,CA
92347,SAN BERNARDINO,CA
92350,SAN BERNARDINO,CA
92350,SAN BERNARDINO,CA
92352,SAN BERNARDINO,CA
92352,SAN BERNARDINO,CA
92354,SAN BERNARDINO,CA
92354,SAN BERNARDINO,CA
92356,SAN BERNARDINO,CA
92356,SAN BERNARDINO,CA
92357,SAN BERNARDINO,CA
92357,SAN BERNARDINO,CA
92358,SAN BERNARDINO,CA
92359,SAN BERNARDINO,CA
92359,SAN BERNARDINO,CA
92363,SAN BERNARDINO,CA
92363,SAN BERNARDINO,CA
92363,SAN BERNARDINO,CA
92363,SAN BERNARDINO,CA
92364,SAN BERNARDINO,CA
92364,SAN BERNARDINO,CA
92365,SAN BERNARDINO,CA
92365,SAN BERNARDINO,CA
92366,SAN BERNARDINO,CA
92368,SAN BERNARDINO,CA
92369,SAN BERNARDINO,CA
92371,SAN BERNARDINO,CA
92372,SAN BERNARDINO,CA
92373,SAN BERNARDINO,CA
92373,SAN BERNARDINO,CA
92373,SAN BERNARDINO,CA
92373,SAN BERNARDINO,CA
92374,SAN BERNARDINO,CA
92375,SAN BERNARDINO,CA
92376,SAN BERNARDINO,CA
92377,SAN BERNARDINO,CA
92378,SAN BERNARDINO,CA
92382,SAN BERNARDINO,CA
92382,SAN BERNARDINO,CA
92382,SAN BERNARDINO,CA
92382,SAN BERNARDINO,CA
92384,INYO,CA
92385,SAN BERNARDINO,CA
92386,SAN BERNARDINO,CA
92386,SAN BERNARDINO,CA
92389,INYO,CA
92389,INYO,CA
92391,SAN BERNARDINO,CA
92392,SAN BERNARDINO,CA
92393,SAN BERNARDINO,CA
92394,SAN BERNARDINO,CA
92394,SAN BERNARDINO,CA
92395,SAN BERNARDINO,CA
92395,SAN BERNARDINO,CA
92395,SAN BERNARDINO,CA
92397,SAN BERNARDINO,CA
92398,SAN BERNARDINO,CA
92399,SAN BERNARDINO,CA
92399,SAN BERNARDINO,CA
92401,SAN BERNARDINO,CA
92401,SAN BERNARDINO,CA
92402,SAN BERNARDINO,CA
92402,SAN BERNARDINO,CA
92403,SAN BERNARDINO,CA
92403,SAN BERNARDINO,CA
92404,SAN BERNARDINO,CA
92404,SAN BERNARDINO,CA
92404,SAN BERNARDINO,CA
92405,SAN BERNARDINO,CA
92405,SAN BERNARDINO,CA
92406,SAN BERNARDINO,CA
92406,SAN BERNARDINO,CA
92407,SAN BERNARDINO,CA
92407,SAN BERNARDINO,CA
92407,SAN BERNARDINO,CA
92407,SAN BERNARDINO,CA
92407,SAN BERNARDINO,CA
92407,SAN BERNARDINO,CA
92407,SAN BERNARDINO,CA
92407,SAN BERNARDINO,CA
92407,SAN BERNARDINO,CA
92408,SAN BERNARDINO,CA
92408,SAN BERNARDINO,CA
92410,SAN BERNARDINO,CA
92410,SAN BERNARDINO,CA
92410,SAN BERNARDINO,CA
92411,SAN BERNARDINO,CA
92411,SAN BERNARDINO,CA
92413,SAN BERNARDINO,CA
92413,SAN BERNARDINO,CA
92413,SAN BERNARDINO,CA
92415,SAN BERNARDINO,CA
92415,SAN BERNARDINO,CA
92415,SAN BERNARDINO,CA
92418,SAN BERNARDINO,CA
92418,SAN BERNARDINO,CA
92418,SAN BERNARDINO,CA
92423,SAN BERNARDINO,CA
92423,SAN BERNARDINO,CA
92427,SAN BERNARDINO,CA
92427,SAN BERNARDINO,CA
92501,RIVERSIDE,CA
92502,RIVERSIDE,CA
92503,RIVERSIDE,CA
92503,RIVERSIDE,CA
92504,RIVERSIDE,CA
92504,RIVERSIDE,CA
92504,RIVERSIDE,CA
92505,RIVERSIDE,CA
92505,RIVERSIDE,CA
92506,RIVERSIDE,CA
92507,RIVERSIDE,CA
92507,RIVERSIDE,CA
92507,RIVERSIDE,CA
92508,RIVERSIDE,CA
92509,RIVERSIDE,CA
92509,RIVERSIDE,CA
92513,RIVERSIDE,CA
92514,RIVERSIDE,CA
92516,RIVERSIDE,CA
92517,RIVERSIDE,CA
92518,RIVERSIDE,CA
92518,RIVERSIDE,CA
92518,RIVERSIDE,CA
92519,RIVERSIDE,CA
92521,RIVERSIDE,CA
92521,RIVERSIDE,CA
92522,RIVERSIDE,CA
92522,RIVERSIDE,CA
92530,RIVERSIDE,CA
92530,RIVERSIDE,CA
92530,RIVERSIDE,CA
92531,RIVERSIDE,CA
92531,RIVERSIDE,CA
92532,RIVERSIDE,CA
92532,RIVERSIDE,CA
92532,RIVERSIDE,CA
92536,RIVERSIDE,CA
92536,RIVERSIDE,CA
92539,RIVERSIDE,CA
92543,RIVERSIDE,CA
92544,RIVERSIDE,CA
92544,RIVERSIDE,CA
92545,RIVERSIDE,CA
92546,RIVERSIDE,CA
92548,RIVERSIDE,CA
92549,RIVERSIDE,CA
92551,RIVERSIDE,CA
92552,RIVERSIDE,CA
92553,RIVERSIDE,CA
92554,RIVERSIDE,CA
92555,RIVERSIDE,CA
92555,RIVERSIDE,CA
92556,RIVERSIDE,CA
92557,RIVERSIDE,CA
92561,RIVERSIDE,CA
92561,RIVERSIDE,CA
92561,RIVERSIDE,CA
92562,RIVERSIDE,CA
92562,RIVERSIDE,CA
92562,RIVERSIDE,CA
92563,RIVERSIDE,CA
92563,RIVERSIDE,CA
92564,RIVERSIDE,CA
92564,RIVERSIDE,CA
92567,RIVERSIDE,CA
92567,RIVERSIDE,CA
92570,RIVERSIDE,CA
92570,RIVERSIDE,CA
92571,RIVERSIDE,CA
92572,RIVERSIDE,CA
92581,RIVERSIDE,CA
92582,RIVERSIDE,CA
92583,RIVERSIDE,CA
92583,RIVERSIDE,CA
92583,RIVERSIDE,CA
92584,RIVERSIDE,CA
92584,RIVERSIDE,CA
92584,RIVERSIDE,CA
92584,RIVERSIDE,CA
92584,RIVERSIDE,CA
92585,RIVERSIDE,CA
92585,RIVERSIDE,CA
92585,RIVERSIDE,CA
92585,RIVERSIDE,CA
92586,RIVERSIDE,CA
92586,RIVERSIDE,CA
92586,RIVERSIDE,CA
92586,RIVERSIDE,CA
92587,RIVERSIDE,CA
92587,RIVERSIDE,CA
92587,RIVERSIDE,CA
92587,RIVERSIDE,CA
92587,RIVERSIDE,CA
92589,RIVERSIDE,CA
92589,RIVERSIDE,CA
92590,RIVERSIDE,CA
92590,RIVERSIDE,CA
92591,RIVERSIDE,CA
92591,RIVERSIDE,CA
92592,RIVERSIDE,CA
92592,RIVERSIDE,CA
92593,RIVERSIDE,CA
92593,RIVERSIDE,CA
92595,RIVERSIDE,CA
92596,RIVERSIDE,CA
92596,RIVERSIDE,CA
92599,RIVERSIDE,CA
92599,RIVERSIDE,CA
92602,ORANGE,CA
92603,ORANGE,CA
92604,ORANGE,CA
92605,ORANGE,CA
92605,ORANGE,CA
92606,ORANGE,CA
92607,ORANGE,CA
92607,ORANGE,CA
92609,ORANGE,CA
92609,ORANGE,CA
92610,ORANGE,CA
92610,ORANGE,CA
92610,ORANGE,CA
92610,ORANGE,CA
92612,ORANGE,CA
92614,ORANGE,CA
92615,ORANGE,CA
92615,ORANGE,CA
92616,ORANGE,CA
92617,ORANGE,CA
92618,ORANGE,CA
92619,ORANGE,CA
92620,ORANGE,CA
92623,ORANGE,CA
92624,ORANGE,CA
92624,ORANGE,CA
92624,ORANGE,CA
92625,ORANGE,CA
92625,ORANGE,CA
92626,ORANGE,CA
92627,ORANGE,CA
92628,ORANGE,CA
92629,ORANGE,CA
92629,ORANGE,CA
92629,ORANGE,CA
92630,ORANGE,CA
92630,ORANGE,CA
92637,ORANGE,CA
92637,ORANGE,CA
92646,ORANGE,CA
92646,ORANGE,CA
92646,ORANGE,CA
92647,ORANGE,CA
92647,ORANGE,CA
92648,ORANGE,CA
92648,ORANGE,CA
92648,ORANGE,CA
92649,ORANGE,CA
92649,ORANGE,CA
92650,ORANGE,CA
92650,ORANGE,CA
92651,ORANGE,CA
92652,ORANGE,CA
92652,ORANGE,CA
92653,ORANGE,CA
92653,ORANGE,CA
92653,ORANGE,CA
92653,ORANGE,CA
92654,ORANGE,CA
92654,ORANGE,CA
92654,ORANGE,CA
92655,ORANGE,CA
92656,ORANGE,CA
92656,ORANGE,CA
92656,ORANGE,CA
92657,ORANGE,CA
92657,ORANGE,CA
92658,ORANGE,CA
92659,ORANGE,CA
92660,ORANGE,CA
92661,ORANGE,CA
92662,ORANGE,CA
92662,ORANGE,CA
92662,ORANGE,CA
92663,ORANGE,CA
92672,ORANGE,CA
92673,ORANGE,CA
92674,ORANGE,CA
92675,ORANGE,CA
92675,ORANGE,CA
92675,ORANGE,CA
92676,ORANGE,CA
92676,ORANGE,CA
92676,ORANGE,CA
92677,ORANGE,CA
92677,ORANGE,CA
92678,ORANGE,CA
92678,ORANGE,CA
92679,ORANGE,CA
92679,ORANGE,CA
92679,ORANGE,CA
92679,ORANGE,CA
92679,ORANGE,CA
92679,ORANGE,CA
92679,ORANGE,CA
92679,ORANGE,CA
92679,ORANGE,CA
92683,ORANGE,CA
92684,ORANGE,CA
92685,ORANGE,CA
92688,ORANGE,CA
92688,ORANGE,CA
92688,ORANGE,CA
92688,ORANGE,CA
92690,ORANGE,CA
92690,ORANGE,CA
92690,ORANGE,CA
92691,ORANGE,CA
92691,ORANGE,CA
92691,ORANGE,CA
92692,ORANGE,CA
92692,ORANGE,CA
92692,ORANGE,CA
92693,ORANGE,CA
92693,ORANGE,CA
92694,ORANGE,CA
92694,ORANGE,CA
92694,ORANGE,CA
92694,ORANGE,CA
92694,ORANGE,CA
92697,ORANGE,CA
92697,ORANGE,CA
92697,ORANGE,CA
92698,ORANGE,CA
92698,ORANGE,CA
92701,ORANGE,CA
92702,ORANGE,CA
92703,ORANGE,CA
92703,ORANGE,CA
92704,ORANGE,CA
92704,ORANGE,CA
92704,ORANGE,CA
92705,ORANGE,CA
92705,ORANGE,CA
92705,ORANGE,CA
92706,ORANGE,CA
92706,ORANGE,CA
92707,ORANGE,CA
92707,ORANGE,CA
92707,ORANGE,CA
92708,ORANGE,CA
92708,ORANGE,CA
92708,ORANGE,CA
92711,ORANGE,CA
92728,ORANGE,CA
92728,ORANGE,CA
92728,ORANGE,CA
92735,ORANGE,CA
92780,ORANGE,CA
92781,ORANGE,CA
92782,ORANGE,CA
92799,ORANGE,CA
92801,ORANGE,CA
92802,ORANGE,CA
92802,ORANGE,CA
92803,ORANGE,CA
92804,ORANGE,CA
92804,ORANGE,CA
92805,ORANGE,CA
92805,ORANGE,CA
92806,ORANGE,CA
92806,ORANGE,CA
92807,ORANGE,CA
92807,ORANGE,CA
92808,ORANGE,CA
92808,ORANGE,CA
92809,ORANGE,CA
92809,ORANGE,CA
92811,ORANGE,CA
92812,ORANGE,CA
92814,ORANGE,CA
92815,ORANGE,CA
92816,ORANGE,CA
92817,ORANGE,CA
92817,ORANGE,CA
92821,ORANGE,CA
92822,ORANGE,CA
92823,ORANGE,CA
92825,ORANGE,CA
92831,ORANGE,CA
92832,ORANGE,CA
92833,ORANGE,CA
92834,ORANGE,CA
92835,ORANGE,CA
92836,ORANGE,CA
92837,ORANGE,CA
92838,ORANGE,CA
92840,ORANGE,CA
92841,ORANGE,CA
92842,ORANGE,CA
92843,ORANGE,CA
92844,ORANGE,CA
92845,ORANGE,CA
92846,ORANGE,CA
92856,ORANGE,CA
92857,ORANGE,CA
92859,ORANGE,CA
92860,RIVERSIDE,CA
92861,ORANGE,CA
92861,ORANGE,CA
92862,ORANGE,CA
92863,ORANGE,CA
92864,ORANGE,CA
92865,ORANGE,CA
92866,ORANGE,CA
92867,ORANGE,CA
92867,ORANGE,CA
92868,ORANGE,CA
92869,ORANGE,CA
92870,ORANGE,CA
92871,ORANGE,CA
92877,RIVERSIDE,CA
92878,RIVERSIDE,CA
92879,RIVERSIDE,CA
92880,RIVERSIDE,CA
92880,RIVERSIDE,CA
92881,RIVERSIDE,CA
92882,RIVERSIDE,CA
92883,RIVERSIDE,CA
92883,RIVERSIDE,CA
92883,RIVERSIDE,CA
92885,ORANGE,CA
92886,ORANGE,CA
92887,ORANGE,CA
92899,ORANGE,CA
93001,VENTURA,CA
93001,VENTURA,CA
93001,VENTURA,CA
93001,VENTURA,CA
93002,VENTURA,CA
93003,VENTURA,CA
93003,VENTURA,CA
93004,VENTURA,CA
93004,VENTURA,CA
93004,VENTURA,CA
93005,VENTURA,CA
93006,VENTURA,CA
93007,VENTURA,CA
93009,VENTURA,CA
93009,VENTURA,CA
93010,VENTURA,CA
93011,VENTURA,CA
93012,VENTURA,CA
93012,VENTURA,CA
93012,VENTURA,CA
93013,SANTA BARBARA,CA
93014,SANTA BARBARA,CA
93015,VENTURA,CA
93016,VENTURA,CA
93020,VENTURA,CA
93021,VENTURA,CA
93022,VENTURA,CA
93023,VENTURA,CA
93023,VENTURA,CA
93024,VENTURA,CA
93030,VENTURA,CA
93031,VENTURA,CA
93032,VENTURA,CA
93033,VENTURA,CA
93034,VENTURA,CA
93035,VENTURA,CA
93036,VENTURA,CA
93040,VENTURA,CA
93041,VENTURA,CA
93041,VENTURA,CA
93041,VENTURA,CA
93041,VENTURA,CA
93042,VENTURA,CA
93042,VENTURA,CA
93042,VENTURA,CA
93042,VENTURA,CA
93042,VENTURA,CA
93043,VENTURA,CA
93043,VENTURA,CA
93043,VENTURA,CA
93043,VENTURA,CA
93043,VENTURA,CA
93044,VENTURA,CA
93044,VENTURA,CA
93044,VENTURA,CA
93060,VENTURA,CA
93061,VENTURA,CA
93062,VENTURA,CA
93063,VENTURA,CA
93063,VENTURA,CA
93064,VENTURA,CA
93064,VENTURA,CA
93064,VENTURA,CA
93065,VENTURA,CA
93066,VENTURA,CA
93067,SANTA BARBARA,CA
93094,VENTURA,CA
93099,VENTURA,CA
93099,VENTURA,CA
93101,SANTA BARBARA,CA
93102,SANTA BARBARA,CA
93103,SANTA BARBARA,CA
93105,SANTA BARBARA,CA
93105,SANTA BARBARA,CA
93106,SANTA BARBARA,CA
93106,SANTA BARBARA,CA
93106,SANTA BARBARA,CA
93106,SANTA BARBARA,CA
93107,SANTA BARBARA,CA
93107,SANTA BARBARA,CA
93108,SANTA BARBARA,CA
93108,SANTA BARBARA,CA
93109,SANTA BARBARA,CA
93110,SANTA BARBARA,CA
93110,SANTA BARBARA,CA
93111,SANTA BARBARA,CA
93111,SANTA BARBARA,CA
93116,SANTA BARBARA,CA
93116,SANTA BARBARA,CA
93117,SANTA BARBARA,CA
93117,SANTA BARBARA,CA
93117,SANTA BARBARA,CA
93117,SANTA BARBARA,CA
93118,SANTA BARBARA,CA
93118,SANTA BARBARA,CA
93120,SANTA BARBARA,CA
93121,SANTA BARBARA,CA
93130,SANTA BARBARA,CA
93140,SANTA BARBARA,CA
93150,SANTA BARBARA,CA
93150,SANTA BARBARA,CA
93160,SANTA BARBARA,CA
93190,SANTA BARBARA,CA
93199,SANTA BARBARA,CA
93199,SANTA BARBARA,CA
93199,SANTA BARBARA,CA
93201,TULARE,CA
93202,KINGS,CA
93203,KERN,CA
93203,KERN,CA
93203,KERN,CA
93204,KINGS,CA
93205,KERN,CA
93206,KERN,CA
93207,TULARE,CA
93207,TULARE,CA
93208,TULARE,CA
93208,TULARE,CA
93210,FRESNO,CA
93212,KINGS,CA
93215,KERN,CA
93216,KERN,CA
93218,TULARE,CA
93219,TULARE,CA
93219,TULARE,CA
93220,KERN,CA
93221,TULARE,CA
93222,KERN,CA
93222,KERN,CA
93222,KERN,CA
93223,TULARE,CA
93224,KERN,CA
93225,KERN,CA
93226,KERN,CA
93227,TULARE,CA
93230,KINGS,CA
93232,KINGS,CA
93234,FRESNO,CA
93235,TULARE,CA
93237,TULARE,CA
93238,KERN,CA
93238,KERN,CA
93239,KINGS,CA
93239,KINGS,CA
93240,KERN,CA
93240,KERN,CA
93241,KERN,CA
93242,FRESNO,CA
93243,KERN,CA
93243,KERN,CA
93243,KERN,CA
93244,TULARE,CA
93245,KINGS,CA
93245,KINGS,CA
93246,KINGS,CA
93246,KINGS,CA
93246,KINGS,CA
93246,KINGS,CA
93246,KINGS,CA
93247,TULARE,CA
93247,TULARE,CA
93247,TULARE,CA
93249,KERN,CA
93250,KERN,CA
93251,KERN,CA
93252,KERN,CA
93254,SANTA BARBARA,CA
93254,SANTA BARBARA,CA
93255,KERN,CA
93256,TULARE,CA
93257,TULARE,CA
93257,TULARE,CA
93257,TULARE,CA
93258,TULARE,CA
93260,TULARE,CA
93260,TULARE,CA
93261,TULARE,CA
93262,TULARE,CA
93262,TULARE,CA
93263,KERN,CA
93265,TULARE,CA
93266,KINGS,CA
93267,TULARE,CA
93268,KERN,CA
93270,TULARE,CA
93271,TULARE,CA
93272,TULARE,CA
93274,TULARE,CA
93275,TULARE,CA
93276,KERN,CA
93277,TULARE,CA
93278,TULARE,CA
93279,TULARE,CA
93280,KERN,CA
93282,TULARE,CA
93282,TULARE,CA
93283,KERN,CA
93285,KERN,CA
93285,KERN,CA
93286,TULARE,CA
93286,TULARE,CA
93287,KERN,CA
93290,TULARE,CA
93291,TULARE,CA
93292,TULARE,CA
93301,KERN,CA
93302,KERN,CA
93303,KERN,CA
93304,KERN,CA
93305,KERN,CA
93306,KERN,CA
93307,KERN,CA
93308,KERN,CA
93309,KERN,CA
93311,KERN,CA
93312,KERN,CA
93313,KERN,CA
93313,KERN,CA
93313,KERN,CA
93314,KERN,CA
93314,KERN,CA
93380,KERN,CA
93383,KERN,CA
93383,KERN,CA
93383,KERN,CA
93384,KERN,CA
93385,KERN,CA
93386,KERN,CA
93387,KERN,CA
93388,KERN,CA
93389,KERN,CA
93390,KERN,CA
93401,SAN LUIS OBISPO,CA
93401,SAN LUIS OBISPO,CA
93402,SAN LUIS OBISPO,CA
93402,SAN LUIS OBISPO,CA
93402,SAN LUIS OBISPO,CA
93402,SAN LUIS OBISPO,CA
93403,SAN LUIS OBISPO,CA
93403,SAN LUIS OBISPO,CA
93405,SAN LUIS OBISPO,CA
93405,SAN LUIS OBISPO,CA
93406,SAN LUIS OBISPO,CA
93406,SAN LUIS OBISPO,CA
93407,SAN LUIS OBISPO,CA
93407,SAN LUIS OBISPO,CA
93407,SAN LUIS OBISPO,CA
93407,SAN LUIS OBISPO,CA
93408,SAN LUIS OBISPO,CA
93408,SAN LUIS OBISPO,CA
93408,SAN LUIS OBISPO,CA
93409,SAN LUIS OBISPO,CA
93409,SAN LUIS OBISPO,CA
93409,SAN LUIS OBISPO,CA
93410,SAN LUIS OBISPO,CA
93410,SAN LUIS OBISPO,CA
93410,SAN LUIS OBISPO,CA
93410,SAN LUIS OBISPO,CA
93412,SAN LUIS OBISPO,CA
93412,SAN LUIS OBISPO,CA
93412,SAN LUIS OBISPO,CA
93420,SAN LUIS OBISPO,CA
93421,SAN LUIS OBISPO,CA
93422,SAN LUIS OBISPO,CA
93423,SAN LUIS OBISPO,CA
93424,SAN LUIS OBISPO,CA
93426,SAN LUIS OBISPO,CA
93426,SAN LUIS OBISPO,CA
93426,SAN LUIS OBISPO,CA
93426,SAN LUIS OBISPO,CA
93427,SANTA BARBARA,CA
93428,SAN LUIS OBISPO,CA
93429,SANTA BARBARA,CA
93430,SAN LUIS OBISPO,CA
93432,SAN LUIS OBISPO,CA
93433,SAN LUIS OBISPO,CA
93434,SANTA BARBARA,CA
93435,SAN LUIS OBISPO,CA
93436,SANTA BARBARA,CA
93436,SANTA BARBARA,CA
93437,SANTA BARBARA,CA
93437,SANTA BARBARA,CA
93437,SANTA BARBARA,CA
93437,SANTA BARBARA,CA
93438,SANTA BARBARA,CA
93440,SANTA BARBARA,CA
93441,SANTA BARBARA,CA
93442,SAN LUIS OBISPO,CA
93443,SAN LUIS OBISPO,CA
93444,SAN LUIS OBISPO,CA
93445,SAN LUIS OBISPO,CA
93446,SAN LUIS OBISPO,CA
93446,SAN LUIS OBISPO,CA
93446,SAN LUIS OBISPO,CA
93446,SAN LUIS OBISPO,CA
93446,SAN LUIS OBISPO,CA
93446,SAN LUIS OBISPO,CA
93447,SAN LUIS OBISPO,CA
93448,SAN LUIS OBISPO,CA
93448,SAN LUIS OBISPO,CA
93449,SAN LUIS OBISPO,CA
93449,SAN LUIS OBISPO,CA
93450,MONTEREY,CA
93451,SAN LUIS OBISPO,CA
93451,SAN LUIS OBISPO,CA
93451,SAN LUIS OBISPO,CA
93452,SAN LUIS OBISPO,CA
93452,SAN LUIS OBISPO,CA
93453,SAN LUIS OBISPO,CA
93453,SAN LUIS OBISPO,CA
93453,SAN LUIS OBISPO,CA
93453,SAN LUIS OBISPO,CA
93454,SANTA BARBARA,CA
93454,SANTA BARBARA,CA
93454,SANTA BARBARA,CA
93454,SANTA BARBARA,CA
93455,SANTA BARBARA,CA
93455,SANTA BARBARA,CA
93456,SANTA BARBARA,CA
93457,SANTA BARBARA,CA
93457,SANTA BARBARA,CA
93458,SANTA BARBARA,CA
93460,SANTA BARBARA,CA
93461,SAN LUIS OBISPO,CA
93461,SAN LUIS OBISPO,CA
93463,SANTA BARBARA,CA
93463,SANTA BARBARA,CA
93464,SANTA BARBARA,CA
93465,SAN LUIS OBISPO,CA
93475,SAN LUIS OBISPO,CA
93483,SAN LUIS OBISPO,CA
93501,KERN,CA
93501,KERN,CA
93501,KERN,CA
93502,KERN,CA
93504,KERN,CA
93504,KERN,CA
93505,KERN,CA
93505,KERN,CA
93510,LOS ANGELES,CA
93512,MONO,CA
93512,MONO,CA
93513,INYO,CA
93514,INYO,CA
93514,INYO,CA
93514,INYO,CA
93514,INYO,CA
93514,INYO,CA
93514,INYO,CA
93514,INYO,CA
93514,INYO,CA
93514,INYO,CA
93515,INYO,CA
93516,KERN,CA
93516,KERN,CA
93516,KERN,CA
93516,KERN,CA
93517,MONO,CA
93518,KERN,CA
93518,KERN,CA
93518,KERN,CA
93519,KERN,CA
93519,KERN,CA
93522,INYO,CA
93523,KERN,CA
93523,KERN,CA
93523,KERN,CA
93523,KERN,CA
93523,KERN,CA
93524,KERN,CA
93524,KERN,CA
93524,KERN,CA
93524,KERN,CA
93526,INYO,CA
93526,INYO,CA
93527,KERN,CA
93527,KERN,CA
93528,KERN,CA
93529,MONO,CA
93529,MONO,CA
93530,INYO,CA
93531,KERN,CA
93532,LOS ANGELES,CA
93532,LOS ANGELES,CA
93532,LOS ANGELES,CA
93532,LOS ANGELES,CA
93532,LOS ANGELES,CA
93532,LOS ANGELES,CA
93532,LOS ANGELES,CA
93534,LOS ANGELES,CA
93534,LOS ANGELES,CA
93534,LOS ANGELES,CA
93534,LOS ANGELES,CA
93534,LOS ANGELES,CA
93534,LOS ANGELES,CA
93535,LOS ANGELES,CA
93535,LOS ANGELES,CA
93535,LOS ANGELES,CA
93535,LOS ANGELES,CA
93535,LOS ANGELES,CA
93535,LOS ANGELES,CA
93536,LOS ANGELES,CA
93536,LOS ANGELES,CA
93536,LOS ANGELES,CA
93536,LOS ANGELES,CA
93536,LOS ANGELES,CA
93536,LOS ANGELES,CA
93539,LOS ANGELES,CA
93541,MONO,CA
93541,MONO,CA
93541,MONO,CA
93542,INYO,CA
93543,LOS ANGELES,CA
93543,LOS ANGELES,CA
93543,LOS ANGELES,CA
93544,LOS ANGELES,CA
93544,LOS ANGELES,CA
93545,INYO,CA
93545,INYO,CA
93545,INYO,CA
93545,INYO,CA
93545,INYO,CA
93546,MONO,CA
93546,MONO,CA
93546,MONO,CA
93546,MONO,CA
93549,INYO,CA
93549,INYO,CA
93550,LOS ANGELES,CA
93550,LOS ANGELES,CA
93550,LOS ANGELES,CA
93551,LOS ANGELES,CA
93551,LOS ANGELES,CA
93551,LOS ANGELES,CA
93551,LOS ANGELES,CA
93552,LOS ANGELES,CA
93553,LOS ANGELES,CA
93553,LOS ANGELES,CA
93554,KERN,CA
93554,KERN,CA
93554,KERN,CA
93555,KERN,CA
93555,KERN,CA
93555,KERN,CA
93556,KERN,CA
93558,KERN,CA
93558,KERN,CA
93560,KERN,CA
93560,KERN,CA
93560,KERN,CA
93560,KERN,CA
93561,KERN,CA
93561,KERN,CA
93561,KERN,CA
93561,KERN,CA
93561,KERN,CA
93561,KERN,CA
93561,KERN,CA
93561,KERN,CA
93561,KERN,CA
93561,KERN,CA
93562,SAN BERNARDINO,CA
93562,SAN BERNARDINO,CA
93562,SAN BERNARDINO,CA
93562,SAN BERNARDINO,CA
93563,LOS ANGELES,CA
93563,LOS ANGELES,CA
93581,KERN,CA
93584,LOS ANGELES,CA
93586,LOS ANGELES,CA
93586,LOS ANGELES,CA
93590,LOS ANGELES,CA
93591,LOS ANGELES,CA
93591,LOS ANGELES,CA
93591,LOS ANGELES,CA
93592,SAN BERNARDINO,CA
93596,KERN,CA
93599,LOS ANGELES,CA
93599,LOS ANGELES,CA
93601,MADERA,CA
93601,MADERA,CA
93602,FRESNO,CA
93602,FRESNO,CA
93603,TULARE,CA
93603,TULARE,CA
93604,MADERA,CA
93605,FRESNO,CA
93606,FRESNO,CA
93607,FRESNO,CA
93607,FRESNO,CA
93608,FRESNO,CA
93608,FRESNO,CA
93609,FRESNO,CA
93610,MADERA,CA
93610,MADERA,CA
93610,MADERA,CA
93611,FRESNO,CA
93612,FRESNO,CA
93613,FRESNO,CA
93614,MADERA,CA
93615,TULARE,CA
93616,FRESNO,CA
93618,TULARE,CA
93618,TULARE,CA
93619,FRESNO,CA
93620,MERCED,CA
93621,FRESNO,CA
93622,FRESNO,CA
93623,MARIPOSA,CA
93624,FRESNO,CA
93625,FRESNO,CA
93626,FRESNO,CA
93627,FRESNO,CA
93628,FRESNO,CA
93628,FRESNO,CA
93630,FRESNO,CA
93631,FRESNO,CA
93633,TULARE,CA
93633,TULARE,CA
93633,TULARE,CA
93633,TULARE,CA
93633,TULARE,CA
93634,FRESNO,CA
93634,FRESNO,CA
93635,MERCED,CA
93636,MADERA,CA
93637,MADERA,CA
93637,MADERA,CA
93638,MADERA,CA
93639,MADERA,CA
93640,FRESNO,CA
93641,FRESNO,CA
93641,FRESNO,CA
93642,FRESNO,CA
93642,FRESNO,CA
93642,FRESNO,CA
93643,MADERA,CA
93644,MADERA,CA
93645,MADERA,CA
93646,FRESNO,CA
93647,TULARE,CA
93647,TULARE,CA
93648,FRESNO,CA
93649,FRESNO,CA
93650,FRESNO,CA
93650,FRESNO,CA
93651,FRESNO,CA
93652,FRESNO,CA
93653,MADERA,CA
93654,FRESNO,CA
93654,FRESNO,CA
93656,FRESNO,CA
93657,FRESNO,CA
93657,FRESNO,CA
93657,FRESNO,CA
93657,FRESNO,CA
93660,FRESNO,CA
93661,MERCED,CA
93661,MERCED,CA
93662,FRESNO,CA
93662,FRESNO,CA
93664,FRESNO,CA
93665,MERCED,CA
93665,MERCED,CA
93666,TULARE,CA
93667,FRESNO,CA
93668,FRESNO,CA
93669,MADERA,CA
93669,MADERA,CA
93670,TULARE,CA
93673,TULARE,CA
93675,FRESNO,CA
93675,FRESNO,CA
93675,FRESNO,CA
93701,FRESNO,CA
93702,FRESNO,CA
93703,FRESNO,CA
93704,FRESNO,CA
93705,FRESNO,CA
93706,FRESNO,CA
93706,FRESNO,CA
93707,FRESNO,CA
93708,FRESNO,CA
93709,FRESNO,CA
93710,FRESNO,CA
93711,FRESNO,CA
93712,FRESNO,CA
93714,FRESNO,CA
93715,FRESNO,CA
93716,FRESNO,CA
93717,FRESNO,CA
93718,FRESNO,CA
93720,FRESNO,CA
93720,FRESNO,CA
93721,FRESNO,CA
93722,FRESNO,CA
93723,FRESNO,CA
93724,FRESNO,CA
93724,FRESNO,CA
93725,FRESNO,CA
93725,FRESNO,CA
93725,FRESNO,CA
93726,FRESNO,CA
93727,FRESNO,CA
93728,FRESNO,CA
93729,FRESNO,CA
93730,FRESNO,CA
93737,FRESNO,CA
93740,FRESNO,CA
93740,FRESNO,CA
93740,FRESNO,CA
93741,FRESNO,CA
93741,FRESNO,CA
93744,FRESNO,CA
93745,FRESNO,CA
93745,FRESNO,CA
93747,FRESNO,CA
93750,FRESNO,CA
93750,FRESNO,CA
93755,FRESNO,CA
93760,FRESNO,CA
93760,FRESNO,CA
93761,FRESNO,CA
93761,FRESNO,CA
93764,FRESNO,CA
93764,FRESNO,CA
93765,FRESNO,CA
93765,FRESNO,CA
93771,FRESNO,CA
93772,FRESNO,CA
93773,FRESNO,CA
93774,FRESNO,CA
93775,FRESNO,CA
93776,FRESNO,CA
93777,FRESNO,CA
93778,FRESNO,CA
93779,FRESNO,CA
93786,FRESNO,CA
93786,FRESNO,CA
93790,FRESNO,CA
93791,FRESNO,CA
93792,FRESNO,CA
93793,FRESNO,CA
93794,FRESNO,CA
93844,FRESNO,CA
93844,FRESNO,CA
93888,FRESNO,CA
93888,FRESNO,CA
93901,MONTEREY,CA
93902,MONTEREY,CA
93905,MONTEREY,CA
93905,MONTEREY,CA
93906,MONTEREY,CA
93907,MONTEREY,CA
93907,MONTEREY,CA
93908,MONTEREY,CA
93908,MONTEREY,CA
93908,MONTEREY,CA
93912,MONTEREY,CA
93915,MONTEREY,CA
93920,MONTEREY,CA
93920,MONTEREY,CA
93920,MONTEREY,CA
93920,MONTEREY,CA
93921,MONTEREY,CA
93921,MONTEREY,CA
93921,MONTEREY,CA
93922,MONTEREY,CA
93923,MONTEREY,CA
93923,MONTEREY,CA
93924,MONTEREY,CA
93924,MONTEREY,CA
93924,MONTEREY,CA
93924,MONTEREY,CA
93925,MONTEREY,CA
93926,MONTEREY,CA
93927,MONTEREY,CA
93928,MONTEREY,CA
93928,MONTEREY,CA
93928,MONTEREY,CA
93930,MONTEREY,CA
93932,MONTEREY,CA
93933,MONTEREY,CA
93933,MONTEREY,CA
93940,MONTEREY,CA
93940,MONTEREY,CA
93940,MONTEREY,CA
93940,MONTEREY,CA
93942,MONTEREY,CA
93943,MONTEREY,CA
93944,MONTEREY,CA
93944,MONTEREY,CA
93944,MONTEREY,CA
93950,MONTEREY,CA
93950,MONTEREY,CA
93953,MONTEREY,CA
93954,MONTEREY,CA
93955,MONTEREY,CA
93955,MONTEREY,CA
93960,MONTEREY,CA
93962,MONTEREY,CA
93962,MONTEREY,CA
94002,SAN MATEO,CA
94005,SAN MATEO,CA
94010,SAN MATEO,CA
94010,SAN MATEO,CA
94011,SAN MATEO,CA
94014,SAN MATEO,CA
94014,SAN MATEO,CA
94015,SAN MATEO,CA
94015,SAN MATEO,CA
94016,SAN MATEO,CA
94017,SAN MATEO,CA
94018,SAN MATEO,CA
94019,SAN MATEO,CA
94019,SAN MATEO,CA
94020,SAN MATEO,CA
94021,SAN MATEO,CA
94022,SANTA CLARA,CA
94022,SANTA CLARA,CA
94022,SANTA CLARA,CA
94023,SANTA CLARA,CA
94024,SANTA CLARA,CA
94024,SANTA CLARA,CA
94024,SANTA CLARA,CA
94025,SAN MATEO,CA
94025,SAN MATEO,CA
94025,SAN MATEO,CA
94026,SAN MATEO,CA
94027,SAN MATEO,CA
94027,SAN MATEO,CA
94028,SAN MATEO,CA
94028,SAN MATEO,CA
94028,SAN MATEO,CA
94028,SAN MATEO,CA
94030,SAN MATEO,CA
94035,SANTA CLARA,CA
94035,SANTA CLARA,CA
94035,SANTA CLARA,CA
94037,SAN MATEO,CA
94038,SAN MATEO,CA
94039,SANTA CLARA,CA
94040,SANTA CLARA,CA
94040,SANTA CLARA,CA
94040,SANTA CLARA,CA
94041,SANTA CLARA,CA
94042,SANTA CLARA,CA
94043,SANTA CLARA,CA
94044,SAN MATEO,CA
94044,SAN MATEO,CA
94060,SAN MATEO,CA
94061,SAN MATEO,CA
94061,SAN MATEO,CA
94062,SAN MATEO,CA
94062,SAN MATEO,CA
94062,SAN MATEO,CA
94062,SAN MATEO,CA
94063,SAN MATEO,CA
94064,SAN MATEO,CA
94065,SAN MATEO,CA
94066,SAN MATEO,CA
94070,SAN MATEO,CA
94074,SAN MATEO,CA
94080,SAN MATEO,CA
94080,SAN MATEO,CA
94080,SAN MATEO,CA
94083,SAN MATEO,CA
94083,SAN MATEO,CA
94085,SANTA CLARA,CA
94086,SANTA CLARA,CA
94087,SANTA CLARA,CA
94088,SANTA CLARA,CA
94088,SANTA CLARA,CA
94089,SANTA CLARA,CA
94102,SAN FRANCISCO,CA
94103,SAN FRANCISCO,CA
94104,SAN FRANCISCO,CA
94105,SAN FRANCISCO,CA
94107,SAN FRANCISCO,CA
94108,SAN FRANCISCO,CA
94109,SAN FRANCISCO,CA
94110,SAN FRANCISCO,CA
94111,SAN FRANCISCO,CA
94112,SAN FRANCISCO,CA
94114,SAN FRANCISCO,CA
94115,SAN FRANCISCO,CA
94116,SAN FRANCISCO,CA
94117,SAN FRANCISCO,CA
94118,SAN FRANCISCO,CA
94119,SAN FRANCISCO,CA
94120,SAN FRANCISCO,CA
94121,SAN FRANCISCO,CA
94122,SAN FRANCISCO,CA
94123,SAN FRANCISCO,CA
94124,SAN FRANCISCO,CA
94125,SAN FRANCISCO,CA
94126,SAN FRANCISCO,CA
94127,SAN FRANCISCO,CA
94128,SAN MATEO,CA
94128,SAN MATEO,CA
94129,SAN FRANCISCO,CA
94129,SAN FRANCISCO,CA
94130,SAN FRANCISCO,CA
94131,SAN FRANCISCO,CA
94132,SAN FRANCISCO,CA
94133,SAN FRANCISCO,CA
94134,SAN FRANCISCO,CA
94137,SAN FRANCISCO,CA
94137,SAN FRANCISCO,CA
94139,SAN FRANCISCO,CA
94139,SAN FRANCISCO,CA
94139,SAN FRANCISCO,CA
94140,SAN FRANCISCO,CA
94141,SAN FRANCISCO,CA
94142,SAN FRANCISCO,CA
94143,SAN FRANCISCO,CA
94143,SAN FRANCISCO,CA
94144,SAN FRANCISCO,CA
94144,SAN FRANCISCO,CA
94145,SAN FRANCISCO,CA
94145,SAN FRANCISCO,CA
94146,SAN FRANCISCO,CA
94147,SAN FRANCISCO,CA
94151,SAN FRANCISCO,CA
94151,SAN FRANCISCO,CA
94158,SAN FRANCISCO,CA
94159,SAN FRANCISCO,CA
94160,SAN FRANCISCO,CA
94160,SAN FRANCISCO,CA
94161,SAN FRANCISCO,CA
94161,SAN FRANCISCO,CA
94163,SAN FRANCISCO,CA
94163,SAN FRANCISCO,CA
94164,SAN FRANCISCO,CA
94172,SAN FRANCISCO,CA
94177,SAN FRANCISCO,CA
94177,SAN FRANCISCO,CA
94188,SAN FRANCISCO,CA
94203,SACRAMENTO,CA
94203,SACRAMENTO,CA
94204,SACRAMENTO,CA
94204,SACRAMENTO,CA
94205,SACRAMENTO,CA
94205,SACRAMENTO,CA
94206,SACRAMENTO,CA
94206,SACRAMENTO,CA
94209,SACRAMENTO,CA
94209,SACRAMENTO,CA
94229,SACRAMENTO,CA
94229,SACRAMENTO,CA
94230,SACRAMENTO,CA
94230,SACRAMENTO,CA
94232,SACRAMENTO,CA
94232,SACRAMENTO,CA
94235,SACRAMENTO,CA
94235,SACRAMENTO,CA
94236,SACRAMENTO,CA
94236,SACRAMENTO,CA
94237,SACRAMENTO,CA
94237,SACRAMENTO,CA
94239,SACRAMENTO,CA
94239,SACRAMENTO,CA
94240,SACRAMENTO,CA
94240,SACRAMENTO,CA
94244,SACRAMENTO,CA
94244,SACRAMENTO,CA
94247,SACRAMENTO,CA
94247,SACRAMENTO,CA
94248,SACRAMENTO,CA
94248,SACRAMENTO,CA
94249,SACRAMENTO,CA
94249,SACRAMENTO,CA
94250,SACRAMENTO,CA
94250,SACRAMENTO,CA
94252,SACRAMENTO,CA
94252,SACRAMENTO,CA
94254,SACRAMENTO,CA
94254,SACRAMENTO,CA
94256,SACRAMENTO,CA
94256,SACRAMENTO,CA
94257,SACRAMENTO,CA
94257,SACRAMENTO,CA
94258,SACRAMENTO,CA
94258,SACRAMENTO,CA
94259,SACRAMENTO,CA
94259,SACRAMENTO,CA
94261,SACRAMENTO,CA
94261,SACRAMENTO,CA
94262,SACRAMENTO,CA
94262,SACRAMENTO,CA
94263,SACRAMENTO,CA
94263,SACRAMENTO,CA
94267,SACRAMENTO,CA
94267,SACRAMENTO,CA
94268,SACRAMENTO,CA
94268,SACRAMENTO,CA
94269,SACRAMENTO,CA
94269,SACRAMENTO,CA
94271,SACRAMENTO,CA
94271,SACRAMENTO,CA
94273,SACRAMENTO,CA
94273,SACRAMENTO,CA
94274,SACRAMENTO,CA
94274,SACRAMENTO,CA
94277,SACRAMENTO,CA
94277,SACRAMENTO,CA
94278,SACRAMENTO,CA
94278,SACRAMENTO,CA
94279,SACRAMENTO,CA
94279,SACRAMENTO,CA
94280,SACRAMENTO,CA
94280,SACRAMENTO,CA
94283,SACRAMENTO,CA
94283,SACRAMENTO,CA
94284,SACRAMENTO,CA
94284,SACRAMENTO,CA
94285,SACRAMENTO,CA
94285,SACRAMENTO,CA
94287,SACRAMENTO,CA
94287,SACRAMENTO,CA
94288,SACRAMENTO,CA
94288,SACRAMENTO,CA
94289,SACRAMENTO,CA
94289,SACRAMENTO,CA
94290,SACRAMENTO,CA
94290,SACRAMENTO,CA
94293,SACRAMENTO,CA
94293,SACRAMENTO,CA
94294,SACRAMENTO,CA
94294,SACRAMENTO,CA
94295,SACRAMENTO,CA
94295,SACRAMENTO,CA
94296,SACRAMENTO,CA
94296,SACRAMENTO,CA
94297,SACRAMENTO,CA
94297,SACRAMENTO,CA
94298,SACRAMENTO,CA
94298,SACRAMENTO,CA
94299,SACRAMENTO,CA
94299,SACRAMENTO,CA
94301,SANTA CLARA,CA
94302,SANTA CLARA,CA
94303,SANTA CLARA,CA
94303,SANTA CLARA,CA
94303,SANTA CLARA,CA
94304,SANTA CLARA,CA
94305,SANTA CLARA,CA
94305,SANTA CLARA,CA
94306,SANTA CLARA,CA
94309,SANTA CLARA,CA
94309,SANTA CLARA,CA
94401,SAN MATEO,CA
94402,SAN MATEO,CA
94403,SAN MATEO,CA
94404,SAN MATEO,CA
94404,SAN MATEO,CA
94497,SAN MATEO,CA
94497,SAN MATEO,CA
94501,ALAMEDA,CA
94501,ALAMEDA,CA
94502,ALAMEDA,CA
94503,NAPA,CA
94503,NAPA,CA
94503,NAPA,CA
94505,CONTRA COSTA,CA
94505,CONTRA COSTA,CA
94506,CONTRA COSTA,CA
94506,CONTRA COSTA,CA
94507,CONTRA COSTA,CA
94508,NAPA,CA
94509,CONTRA COSTA,CA
94510,SOLANO,CA
94511,CONTRA COSTA,CA
94512,SOLANO,CA
94513,CONTRA COSTA,CA
94514,CONTRA COSTA,CA
94514,CONTRA COSTA,CA
94515,NAPA,CA
94516,CONTRA COSTA,CA
94517,CONTRA COSTA,CA
94518,CONTRA COSTA,CA
94519,CONTRA COSTA,CA
94520,CONTRA COSTA,CA
94520,CONTRA COSTA,CA
94521,CONTRA COSTA,CA
94522,CONTRA COSTA,CA
94523,CONTRA COSTA,CA
94523,CONTRA COSTA,CA
94524,CONTRA COSTA,CA
94525,CONTRA COSTA,CA
94526,CONTRA COSTA,CA
94527,CONTRA COSTA,CA
94528,CONTRA COSTA,CA
94529,CONTRA COSTA,CA
94529,CONTRA COSTA,CA
94529,CONTRA COSTA,CA
94530,CONTRA COSTA,CA
94531,CONTRA COSTA,CA
94533,SOLANO,CA
94534,SOLANO,CA
94534,SOLANO,CA
94535,SOLANO,CA
94535,SOLANO,CA
94536,ALAMEDA,CA
94537,ALAMEDA,CA
94538,ALAMEDA,CA
94539,ALAMEDA,CA
94540,ALAMEDA,CA
94541,ALAMEDA,CA
94541,ALAMEDA,CA
94541,ALAMEDA,CA
94541,ALAMEDA,CA
94541,ALAMEDA,CA
94541,ALAMEDA,CA
94542,ALAMEDA,CA
94542,ALAMEDA,CA
94542,ALAMEDA,CA
94543,ALAMEDA,CA
94544,ALAMEDA,CA
94545,ALAMEDA,CA
94546,ALAMEDA,CA
94546,ALAMEDA,CA
94547,CONTRA COSTA,CA
94547,CONTRA COSTA,CA
94548,CONTRA COSTA,CA
94549,CONTRA COSTA,CA
94550,ALAMEDA,CA
94551,ALAMEDA,CA
94552,ALAMEDA,CA
94552,ALAMEDA,CA
94552,ALAMEDA,CA
94553,CONTRA COSTA,CA
94553,CONTRA COSTA,CA
94553,CONTRA COSTA,CA
94555,ALAMEDA,CA
94556,CONTRA COSTA,CA
94557,ALAMEDA,CA
94557,ALAMEDA,CA
94558,NAPA,CA
94558,NAPA,CA
94559,NAPA,CA
94560,ALAMEDA,CA
94561,CONTRA COSTA,CA
94562,NAPA,CA
94563,CONTRA COSTA,CA
94564,CONTRA COSTA,CA
94565,CONTRA COSTA,CA
94565,CONTRA COSTA,CA
94565,CONTRA COSTA,CA
94565,CONTRA COSTA,CA
94566,ALAMEDA,CA
94567,NAPA,CA
94568,ALAMEDA,CA
94568,ALAMEDA,CA
94569,CONTRA COSTA,CA
94570,CONTRA COSTA,CA
94571,SOLANO,CA
94572,CONTRA COSTA,CA
94572,CONTRA COSTA,CA
94573,NAPA,CA
94574,NAPA,CA
94575,CONTRA COSTA,CA
94576,NAPA,CA
94576,NAPA,CA
94577,ALAMEDA,CA
94578,ALAMEDA,CA
94578,ALAMEDA,CA
94578,ALAMEDA,CA
94579,ALAMEDA,CA
94580,ALAMEDA,CA
94580,ALAMEDA,CA
94580,ALAMEDA,CA
94580,ALAMEDA,CA
94581,NAPA,CA
94582,CONTRA COSTA,CA
94582,CONTRA COSTA,CA
94583,CONTRA COSTA,CA
94585,SOLANO,CA
94585,SOLANO,CA
94586,ALAMEDA,CA
94587,ALAMEDA,CA
94588,ALAMEDA,CA
94589,SOLANO,CA
94589,SOLANO,CA
94589,SOLANO,CA
94590,SOLANO,CA
94591,SOLANO,CA
94592,SOLANO,CA
94592,SOLANO,CA
94595,CONTRA COSTA,CA
94595,CONTRA COSTA,CA
94596,CONTRA COSTA,CA
94597,CONTRA COSTA,CA
94597,CONTRA COSTA,CA
94598,CONTRA COSTA,CA
94599,NAPA,CA
94601,ALAMEDA,CA
94602,ALAMEDA,CA
94602,ALAMEDA,CA
94603,ALAMEDA,CA
94604,ALAMEDA,CA
94605,ALAMEDA,CA
94606,ALAMEDA,CA
94607,ALAMEDA,CA
94608,ALAMEDA,CA
94608,ALAMEDA,CA
94609,ALAMEDA,CA
94610,ALAMEDA,CA
94610,ALAMEDA,CA
94611,ALAMEDA,CA
94611,ALAMEDA,CA
94612,ALAMEDA,CA
94612,ALAMEDA,CA
94613,ALAMEDA,CA
94614,ALAMEDA,CA
94615,ALAMEDA,CA
94617,ALAMEDA,CA
94618,ALAMEDA,CA
94618,ALAMEDA,CA
94619,ALAMEDA,CA
94620,ALAMEDA,CA
94620,ALAMEDA,CA
94621,ALAMEDA,CA
94622,ALAMEDA,CA
94622,ALAMEDA,CA
94623,ALAMEDA,CA
94624,ALAMEDA,CA
94649,ALAMEDA,CA
94649,ALAMEDA,CA
94659,ALAMEDA,CA
94659,ALAMEDA,CA
94660,ALAMEDA,CA
94660,ALAMEDA,CA
94661,ALAMEDA,CA
94662,ALAMEDA,CA
94662,ALAMEDA,CA
94666,ALAMEDA,CA
94666,ALAMEDA,CA
94701,ALAMEDA,CA
94702,ALAMEDA,CA
94703,ALAMEDA,CA
94704,ALAMEDA,CA
94705,ALAMEDA,CA
94706,ALAMEDA,CA
94706,ALAMEDA,CA
94706,ALAMEDA,CA
94707,ALAMEDA,CA
94707,ALAMEDA,CA
94707,ALAMEDA,CA
94708,ALAMEDA,CA
94708,ALAMEDA,CA
94709,ALAMEDA,CA
94710,ALAMEDA,CA
94710,ALAMEDA,CA
94712,ALAMEDA,CA
94720,ALAMEDA,CA
94720,ALAMEDA,CA
94801,CONTRA COSTA,CA
94801,CONTRA COSTA,CA
94801,CONTRA COSTA,CA
94801,CONTRA COSTA,CA
94801,CONTRA COSTA,CA
94802,CONTRA COSTA,CA
94803,CONTRA COSTA,CA
94803,CONTRA COSTA,CA
94803,CONTRA COSTA,CA
94804,CONTRA COSTA,CA
94805,CONTRA COSTA,CA
94805,CONTRA COSTA,CA
94806,CONTRA COSTA,CA
94806,CONTRA COSTA,CA
94806,CONTRA COSTA,CA
94806,CONTRA COSTA,CA
94807,CONTRA COSTA,CA
94808,CONTRA COSTA,CA
94820,CONTRA COSTA,CA
94820,CONTRA COSTA,CA
94850,CONTRA COSTA,CA
94901,MARIN,CA
94901,MARIN,CA
94903,MARIN,CA
94903,MARIN,CA
94903,MARIN,CA
94903,MARIN,CA
94904,MARIN,CA
94904,MARIN,CA
94904,MARIN,CA
94912,MARIN,CA
94913,MARIN,CA
94914,MARIN,CA
94914,MARIN,CA
94915,MARIN,CA
94915,MARIN,CA
94920,MARIN,CA
94920,MARIN,CA
94920,MARIN,CA
94920,MARIN,CA
94922,SONOMA,CA
94923,SONOMA,CA
94923,SONOMA,CA
94924,MARIN,CA
94925,MARIN,CA
94926,SONOMA,CA
94926,SONOMA,CA
94926,SONOMA,CA
94927,SONOMA,CA
94927,SONOMA,CA
94928,SONOMA,CA
94928,SONOMA,CA
94929,MARIN,CA
94930,MARIN,CA
94931,SONOMA,CA
94933,MARIN,CA
94937,MARIN,CA
94938,MARIN,CA
94939,MARIN,CA
94940,MARIN,CA
94941,MARIN,CA
94941,MARIN,CA
94941,MARIN,CA
94941,MARIN,CA
94942,MARIN,CA
94945,MARIN,CA
94945,MARIN,CA
94945,MARIN,CA
94946,MARIN,CA
94947,MARIN,CA
94948,MARIN,CA
94949,MARIN,CA
94949,MARIN,CA
94949,MARIN,CA
94950,MARIN,CA
94951,SONOMA,CA
94952,SONOMA,CA
94952,SONOMA,CA
94952,SONOMA,CA
94952,SONOMA,CA
94952,SONOMA,CA
94953,SONOMA,CA
94954,SONOMA,CA
94955,SONOMA,CA
94956,MARIN,CA
94956,MARIN,CA
94957,MARIN,CA
94960,MARIN,CA
94963,MARIN,CA
94964,MARIN,CA
94965,MARIN,CA
94965,MARIN,CA
94965,MARIN,CA
94966,MARIN,CA
94970,MARIN,CA
94971,MARIN,CA
94972,SONOMA,CA
94973,MARIN,CA
94974,MARIN,CA
94975,SONOMA,CA
94976,MARIN,CA
94977,MARIN,CA
94978,MARIN,CA
94979,MARIN,CA
94998,MARIN,CA
94998,MARIN,CA
94999,SONOMA,CA
95001,SANTA CRUZ,CA
95002,SANTA CLARA,CA
95002,SANTA CLARA,CA
95003,SANTA CRUZ,CA
95003,SANTA CRUZ,CA
95003,SANTA CRUZ,CA
95003,SANTA CRUZ,CA
95004,MONTEREY,CA
95005,SANTA CRUZ,CA
95006,SANTA CRUZ,CA
95006,SANTA CRUZ,CA
95007,SANTA CRUZ,CA
95008,SANTA CLARA,CA
95009,SANTA CLARA,CA
95010,SANTA CRUZ,CA
95011,SANTA CLARA,CA
95012,MONTEREY,CA
95013,SANTA CLARA,CA
95014,SANTA CLARA,CA
95014,SANTA CLARA,CA
95014,SANTA CLARA,CA
95015,SANTA CLARA,CA
95017,SANTA CRUZ,CA
95018,SANTA CRUZ,CA
95018,SANTA CRUZ,CA
95019,SANTA CRUZ,CA
95020,SANTA CLARA,CA
95021,SANTA CLARA,CA
95023,SAN BENITO,CA
95024,SAN BENITO,CA
95025,SAN BENITO,CA
95026,SANTA CLARA,CA
95026,SANTA CLARA,CA
95026,SANTA CLARA,CA
95030,SANTA CLARA,CA
95030,SANTA CLARA,CA
95031,SANTA CLARA,CA
95032,SANTA CLARA,CA
95033,SANTA CLARA,CA
95035,SANTA CLARA,CA
95036,SANTA CLARA,CA
95037,SANTA CLARA,CA
95038,SANTA CLARA,CA
95039,MONTEREY,CA
95041,SANTA CRUZ,CA
95042,SANTA CLARA,CA
95043,SAN BENITO,CA
95043,SAN BENITO,CA
95043,SAN BENITO,CA
95043,SAN BENITO,CA
95043,SAN BENITO,CA
95044,SANTA CLARA,CA
95044,SANTA CLARA,CA
95044,SANTA CLARA,CA
95045,SAN BENITO,CA
95045,SAN BENITO,CA
95046,SANTA CLARA,CA
95050,SANTA CLARA,CA
95051,SANTA CLARA,CA
95052,SANTA CLARA,CA
95053,SANTA CLARA,CA
95053,SANTA CLARA,CA
95054,SANTA CLARA,CA
95055,SANTA CLARA,CA
95056,SANTA CLARA,CA
95060,SANTA CRUZ,CA
95060,SANTA CRUZ,CA
95060,SANTA CRUZ,CA
95060,SANTA CRUZ,CA
95061,SANTA CRUZ,CA
95062,SANTA CRUZ,CA
95063,SANTA CRUZ,CA
95064,SANTA CRUZ,CA
95065,SANTA CRUZ,CA
95066,SANTA CRUZ,CA
95066,SANTA CRUZ,CA
95067,SANTA CRUZ,CA
95067,SANTA CRUZ,CA
95070,SANTA CLARA,CA
95071,SANTA CLARA,CA
95073,SANTA CRUZ,CA
95075,SAN BENITO,CA
95076,SANTA CRUZ,CA
95076,SANTA CRUZ,CA
95076,SANTA CRUZ,CA
95076,SANTA CRUZ,CA
95076,SANTA CRUZ,CA
95076,SANTA CRUZ,CA
95076,SANTA CRUZ,CA
95076,SANTA CRUZ,CA
95077,SANTA CRUZ,CA
95101,SANTA CLARA,CA
95103,SANTA CLARA,CA
95106,SANTA CLARA,CA
95108,SANTA CLARA,CA
95109,SANTA CLARA,CA
95110,SANTA CLARA,CA
95111,SANTA CLARA,CA
95112,SANTA CLARA,CA
95113,SANTA CLARA,CA
95115,SANTA CLARA,CA
95116,SANTA CLARA,CA
95117,SANTA CLARA,CA
95118,SANTA CLARA,CA
95119,SANTA CLARA,CA
95120,SANTA CLARA,CA
95121,SANTA CLARA,CA
95122,SANTA CLARA,CA
95123,SANTA CLARA,CA
95124,SANTA CLARA,CA
95125,SANTA CLARA,CA
95126,SANTA CLARA,CA
95127,SANTA CLARA,CA
95128,SANTA CLARA,CA
95129,SANTA CLARA,CA
95130,SANTA CLARA,CA
95131,SANTA CLARA,CA
95132,SANTA CLARA,CA
95133,SANTA CLARA,CA
95134,SANTA CLARA,CA
95135,SANTA CLARA,CA
95136,SANTA CLARA,CA
95138,SANTA CLARA,CA
95139,SANTA CLARA,CA
95140,SANTA CLARA,CA
95140,SANTA CLARA,CA
95140,SANTA CLARA,CA
95141,SANTA CLARA,CA
95148,SANTA CLARA,CA
95150,SANTA CLARA,CA
95151,SANTA CLARA,CA
95152,SANTA CLARA,CA
95153,SANTA CLARA,CA
95154,SANTA CLARA,CA
95155,SANTA CLARA,CA
95156,SANTA CLARA,CA
95157,SANTA CLARA,CA
95158,SANTA CLARA,CA
95159,SANTA CLARA,CA
95160,SANTA CLARA,CA
95161,SANTA CLARA,CA
95164,SANTA CLARA,CA
95170,SANTA CLARA,CA
95172,SANTA CLARA,CA
95173,SANTA CLARA,CA
95190,SANTA CLARA,CA
95190,SANTA CLARA,CA
95191,SANTA CLARA,CA
95191,SANTA CLARA,CA
95192,SANTA CLARA,CA
95192,SANTA CLARA,CA
95193,SANTA CLARA,CA
95193,SANTA CLARA,CA
95194,SANTA CLARA,CA
95194,SANTA CLARA,CA
95196,SANTA CLARA,CA
95196,SANTA CLARA,CA
95201,SAN JOAQUIN,CA
95201,SAN JOAQUIN,CA
95202,SAN JOAQUIN,CA
95202,SAN JOAQUIN,CA
95203,SAN JOAQUIN,CA
95203,SAN JOAQUIN,CA
95204,SAN JOAQUIN,CA
95204,SAN JOAQUIN,CA
95205,SAN JOAQUIN,CA
95205,SAN JOAQUIN,CA
95206,SAN JOAQUIN,CA
95206,SAN JOAQUIN,CA
95207,SAN JOAQUIN,CA
95207,SAN JOAQUIN,CA
95208,SAN JOAQUIN,CA
95208,SAN JOAQUIN,CA
95209,SAN JOAQUIN,CA
95209,SAN JOAQUIN,CA
95210,SAN JOAQUIN,CA
95210,SAN JOAQUIN,CA
95211,SAN JOAQUIN,CA
95211,SAN JOAQUIN,CA
95211,SAN JOAQUIN,CA
95211,SAN JOAQUIN,CA
95211,SAN JOAQUIN,CA
95212,SAN JOAQUIN,CA
95212,SAN JOAQUIN,CA
95212,SAN JOAQUIN,CA
95213,SAN JOAQUIN,CA
95213,SAN JOAQUIN,CA
95215,SAN JOAQUIN,CA
95215,SAN JOAQUIN,CA
95219,SAN JOAQUIN,CA
95219,SAN JOAQUIN,CA
95220,SAN JOAQUIN,CA
95221,CALAVERAS,CA
95221,CALAVERAS,CA
95222,CALAVERAS,CA
95223,CALAVERAS,CA
95223,CALAVERAS,CA
95223,CALAVERAS,CA
95223,CALAVERAS,CA
95224,CALAVERAS,CA
95225,CALAVERAS,CA
95226,CALAVERAS,CA
95226,CALAVERAS,CA
95226,CALAVERAS,CA
95227,SAN JOAQUIN,CA
95228,CALAVERAS,CA
95229,CALAVERAS,CA
95229,CALAVERAS,CA
95230,SAN JOAQUIN,CA
95231,SAN JOAQUIN,CA
95232,CALAVERAS,CA
95233,CALAVERAS,CA
95233,CALAVERAS,CA
95234,SAN JOAQUIN,CA
95236,SAN JOAQUIN,CA
95237,SAN JOAQUIN,CA
95240,SAN JOAQUIN,CA
95241,SAN JOAQUIN,CA
95242,SAN JOAQUIN,CA
95245,CALAVERAS,CA
95245,CALAVERAS,CA
95246,CALAVERAS,CA
95246,CALAVERAS,CA
95246,CALAVERAS,CA
95246,CALAVERAS,CA
95247,CALAVERAS,CA
95248,CALAVERAS,CA
95248,CALAVERAS,CA
95248,CALAVERAS,CA
95249,CALAVERAS,CA
95251,CALAVERAS,CA
95252,CALAVERAS,CA
95252,CALAVERAS,CA
95253,SAN JOAQUIN,CA
95254,CALAVERAS,CA
95255,CALAVERAS,CA
95257,CALAVERAS,CA
95258,SAN JOAQUIN,CA
95267,SAN JOAQUIN,CA
95267,SAN JOAQUIN,CA
95269,SAN JOAQUIN,CA
95269,SAN JOAQUIN,CA
95296,SAN JOAQUIN,CA
95296,SAN JOAQUIN,CA
95296,SAN JOAQUIN,CA
95297,SAN JOAQUIN,CA
95297,SAN JOAQUIN,CA
95301,MERCED,CA
95303,MERCED,CA
95304,SAN JOAQUIN,CA
95304,SAN JOAQUIN,CA
95305,TUOLUMNE,CA
95306,MARIPOSA,CA
95306,MARIPOSA,CA
95307,STANISLAUS,CA
95309,TUOLUMNE,CA
95310,TUOLUMNE,CA
95311,MARIPOSA,CA
95312,MERCED,CA
95313,STANISLAUS,CA
95315,MERCED,CA
95316,STANISLAUS,CA
95317,MERCED,CA
95318,MARIPOSA,CA
95319,STANISLAUS,CA
95320,SAN JOAQUIN,CA
95321,TUOLUMNE,CA
95322,MERCED,CA
95322,MERCED,CA
95323,STANISLAUS,CA
95324,MERCED,CA
95325,MARIPOSA,CA
95326,STANISLAUS,CA
95327,TUOLUMNE,CA
95328,STANISLAUS,CA
95329,STANISLAUS,CA
95330,SAN JOAQUIN,CA
95333,MERCED,CA
95334,MERCED,CA
95335,TUOLUMNE,CA
95335,TUOLUMNE,CA
95336,SAN JOAQUIN,CA
95337,SAN JOAQUIN,CA
95338,MARIPOSA,CA
95340,MERCED,CA
95341,MERCED,CA
95343,MERCED,CA
95344,MERCED,CA
95345,MARIPOSA,CA
95346,TUOLUMNE,CA
95346,TUOLUMNE,CA
95347,TUOLUMNE,CA
95348,MERCED,CA
95350,STANISLAUS,CA
95351,STANISLAUS,CA
95352,STANISLAUS,CA
95353,STANISLAUS,CA
95354,STANISLAUS,CA
95355,STANISLAUS,CA
95356,STANISLAUS,CA
95357,STANISLAUS,CA
95358,STANISLAUS,CA
95360,STANISLAUS,CA
95361,STANISLAUS,CA
95361,STANISLAUS,CA
95361,STANISLAUS,CA
95363,STANISLAUS,CA
95363,STANISLAUS,CA
95363,STANISLAUS,CA
95364,TUOLUMNE,CA
95364,TUOLUMNE,CA
95365,MERCED,CA
95366,SAN JOAQUIN,CA
95367,STANISLAUS,CA
95368,STANISLAUS,CA
95369,MERCED,CA
95370,TUOLUMNE,CA
95372,TUOLUMNE,CA
95373,TUOLUMNE,CA
95373,TUOLUMNE,CA
95374,MERCED,CA
95375,TUOLUMNE,CA
95375,TUOLUMNE,CA
95376,SAN JOAQUIN,CA
95377,SAN JOAQUIN,CA
95378,SAN JOAQUIN,CA
95379,TUOLUMNE,CA
95380,STANISLAUS,CA
95381,STANISLAUS,CA
95382,STANISLAUS,CA
95383,TUOLUMNE,CA
95385,SAN JOAQUIN,CA
95386,STANISLAUS,CA
95387,STANISLAUS,CA
95388,MERCED,CA
95389,MARIPOSA,CA
95389,MARIPOSA,CA
95389,MARIPOSA,CA
95389,MARIPOSA,CA
95389,MARIPOSA,CA
95389,MARIPOSA,CA
95391,SAN JOAQUIN,CA
95391,SAN JOAQUIN,CA
95391,SAN JOAQUIN,CA
95397,STANISLAUS,CA
95397,STANISLAUS,CA
95401,SONOMA,CA
95402,SONOMA,CA
95403,SONOMA,CA
95403,SONOMA,CA
95404,SONOMA,CA
95405,SONOMA,CA
95406,SONOMA,CA
95407,SONOMA,CA
95407,SONOMA,CA
95409,SONOMA,CA
95409,SONOMA,CA
95410,MENDOCINO,CA
95412,SONOMA,CA
95415,MENDOCINO,CA
95416,SONOMA,CA
95416,SONOMA,CA
95416,SONOMA,CA
95416,SONOMA,CA
95416,SONOMA,CA
95417,MENDOCINO,CA
95417,MENDOCINO,CA
95418,MENDOCINO,CA
95418,MENDOCINO,CA
95419,SONOMA,CA
95420,MENDOCINO,CA
95421,SONOMA,CA
95422,LAKE,CA
95423,LAKE,CA
95423,LAKE,CA
95423,LAKE,CA
95424,LAKE,CA
95424,LAKE,CA
95425,SONOMA,CA
95425,SONOMA,CA
95425,SONOMA,CA
95426,LAKE,CA
95427,MENDOCINO,CA
95427,MENDOCINO,CA
95428,MENDOCINO,CA
95429,MENDOCINO,CA
95430,SONOMA,CA
95431,SONOMA,CA
95432,MENDOCINO,CA
95433,SONOMA,CA
95435,LAKE,CA
95436,SONOMA,CA
95437,MENDOCINO,CA
95437,MENDOCINO,CA
95437,MENDOCINO,CA
95437,MENDOCINO,CA
95437,MENDOCINO,CA
95437,MENDOCINO,CA
95437,MENDOCINO,CA
95439,SONOMA,CA
95441,SONOMA,CA
95442,SONOMA,CA
95443,LAKE,CA
95444,SONOMA,CA
95445,MENDOCINO,CA
95445,MENDOCINO,CA
95446,SONOMA,CA
95446,SONOMA,CA
95448,SONOMA,CA
95449,MENDOCINO,CA
95450,SONOMA,CA
95450,SONOMA,CA
95451,LAKE,CA
95452,SONOMA,CA
95453,LAKE,CA
95454,MENDOCINO,CA
95454,MENDOCINO,CA
95456,MENDOCINO,CA
95456,MENDOCINO,CA
95457,LAKE,CA
95458,LAKE,CA
95459,MENDOCINO,CA
95459,MENDOCINO,CA
95460,MENDOCINO,CA
95461,LAKE,CA
95461,LAKE,CA
95461,LAKE,CA
95462,SONOMA,CA
95462,SONOMA,CA
95462,SONOMA,CA
95463,MENDOCINO,CA
95464,LAKE,CA
95465,SONOMA,CA
95466,MENDOCINO,CA
95467,LAKE,CA
95467,LAKE,CA
95468,MENDOCINO,CA
95468,MENDOCINO,CA
95469,MENDOCINO,CA
95470,MENDOCINO,CA
95470,MENDOCINO,CA
95471,SONOMA,CA
95472,SONOMA,CA
95472,SONOMA,CA
95473,SONOMA,CA
95476,SONOMA,CA
95476,SONOMA,CA
95476,SONOMA,CA
95480,SONOMA,CA
95480,SONOMA,CA
95480,SONOMA,CA
95481,MENDOCINO,CA
95482,MENDOCINO,CA
95485,LAKE,CA
95486,SONOMA,CA
95487,SONOMA,CA
95488,MENDOCINO,CA
95488,MENDOCINO,CA
95490,MENDOCINO,CA
95492,SONOMA,CA
95493,LAKE,CA
95493,LAKE,CA
95493,LAKE,CA
95494,MENDOCINO,CA
95497,SONOMA,CA
95501,HUMBOLDT,CA
95502,HUMBOLDT,CA
95503,HUMBOLDT,CA
95511,HUMBOLDT,CA
95514,HUMBOLDT,CA
95518,HUMBOLDT,CA
95519,HUMBOLDT,CA
95521,HUMBOLDT,CA
95521,HUMBOLDT,CA
95521,HUMBOLDT,CA
95521,HUMBOLDT,CA
95524,HUMBOLDT,CA
95525,HUMBOLDT,CA
95526,HUMBOLDT,CA
95526,HUMBOLDT,CA
95526,HUMBOLDT,CA
95527,TRINITY,CA
95528,HUMBOLDT,CA
95531,DEL NORTE,CA
95531,DEL NORTE,CA
95532,DEL NORTE,CA
95532,DEL NORTE,CA
95534,HUMBOLDT,CA
95534,HUMBOLDT,CA
95536,HUMBOLDT,CA
95537,HUMBOLDT,CA
95537,HUMBOLDT,CA
95538,DEL NORTE,CA
95538,DEL NORTE,CA
95540,HUMBOLDT,CA
95542,HUMBOLDT,CA
95543,DEL NORTE,CA
95545,HUMBOLDT,CA
95546,HUMBOLDT,CA
95546,HUMBOLDT,CA
95546,HUMBOLDT,CA
95547,HUMBOLDT,CA
95548,DEL NORTE,CA
95549,HUMBOLDT,CA
95550,HUMBOLDT,CA
95551,HUMBOLDT,CA
95552,TRINITY,CA
95553,HUMBOLDT,CA
95554,HUMBOLDT,CA
95555,HUMBOLDT,CA
95556,HUMBOLDT,CA
95558,HUMBOLDT,CA
95559,HUMBOLDT,CA
95560,HUMBOLDT,CA
95562,HUMBOLDT,CA
95563,TRINITY,CA
95564,HUMBOLDT,CA
95565,HUMBOLDT,CA
95567,DEL NORTE,CA
95568,SISKIYOU,CA
95568,SISKIYOU,CA
95569,HUMBOLDT,CA
95570,HUMBOLDT,CA
95571,HUMBOLDT,CA
95573,HUMBOLDT,CA
95585,MENDOCINO,CA
95587,MENDOCINO,CA
95589,HUMBOLDT,CA
95589,HUMBOLDT,CA
95595,TRINITY,CA
95601,AMADOR,CA
95602,PLACER,CA
95603,PLACER,CA
95603,PLACER,CA
95603,PLACER,CA
95603,PLACER,CA
95603,PLACER,CA
95604,PLACER,CA
95604,PLACER,CA
95605,YOLO,CA
95605,YOLO,CA
95605,YOLO,CA
95605,YOLO,CA
95605,YOLO,CA
95606,YOLO,CA
95607,YOLO,CA
95607,YOLO,CA
95608,SACRAMENTO,CA
95609,SACRAMENTO,CA
95610,SACRAMENTO,CA
95610,SACRAMENTO,CA
95611,SACRAMENTO,CA
95611,SACRAMENTO,CA
95612,YOLO,CA
95613,EL DORADO,CA
95614,EL DORADO,CA
95614,EL DORADO,CA
95615,SACRAMENTO,CA
95615,SACRAMENTO,CA
95615,SACRAMENTO,CA
95615,SACRAMENTO,CA
95616,YOLO,CA
95617,YOLO,CA
95618,YOLO,CA
95618,YOLO,CA
95619,EL DORADO,CA
95619,EL DORADO,CA
95620,SOLANO,CA
95620,SOLANO,CA
95621,SACRAMENTO,CA
95621,SACRAMENTO,CA
95623,EL DORADO,CA
95623,EL DORADO,CA
95624,SACRAMENTO,CA
95625,SOLANO,CA
95626,SACRAMENTO,CA
95627,YOLO,CA
95628,SACRAMENTO,CA
95629,AMADOR,CA
95630,SACRAMENTO,CA
95630,SACRAMENTO,CA
95630,SACRAMENTO,CA
95630,SACRAMENTO,CA
95630,SACRAMENTO,CA
95631,PLACER,CA
95631,PLACER,CA
95631,PLACER,CA
95631,PLACER,CA
95632,SACRAMENTO,CA
95633,EL DORADO,CA
95634,EL DORADO,CA
95634,EL DORADO,CA
95634,EL DORADO,CA
95634,EL DORADO,CA
95634,EL DORADO,CA
95635,EL DORADO,CA
95636,EL DORADO,CA
95637,YOLO,CA
95638,SACRAMENTO,CA
95638,SACRAMENTO,CA
95639,SACRAMENTO,CA
95640,AMADOR,CA
95640,AMADOR,CA
95640,AMADOR,CA
95640,AMADOR,CA
95641,SACRAMENTO,CA
95641,SACRAMENTO,CA
95641,SACRAMENTO,CA
95641,SACRAMENTO,CA
95642,AMADOR,CA
95642,AMADOR,CA
95644,AMADOR,CA
95644,AMADOR,CA
95645,YOLO,CA
95645,YOLO,CA
95646,ALPINE,CA
95646,ALPINE,CA
95646,ALPINE,CA
95646,ALPINE,CA
95646,ALPINE,CA
95646,ALPINE,CA
95646,ALPINE,CA
95646,ALPINE,CA
95648,PLACER,CA
95648,PLACER,CA
95648,PLACER,CA
95650,PLACER,CA
95651,EL DORADO,CA
95652,SACRAMENTO,CA
95653,YOLO,CA
95654,AMADOR,CA
95654,AMADOR,CA
95655,SACRAMENTO,CA
95655,SACRAMENTO,CA
95655,SACRAMENTO,CA
95656,EL DORADO,CA
95658,PLACER,CA
95659,SUTTER,CA
95659,SUTTER,CA
95659,SUTTER,CA
95659,SUTTER,CA
95659,SUTTER,CA
95660,SACRAMENTO,CA
95660,SACRAMENTO,CA
95661,PLACER,CA
95661,PLACER,CA
95662,SACRAMENTO,CA
95662,SACRAMENTO,CA
95663,PLACER,CA
95664,EL DORADO,CA
95665,AMADOR,CA
95666,AMADOR,CA
95666,AMADOR,CA
95667,EL DORADO,CA
95667,EL DORADO,CA
95667,EL DORADO,CA
95667,EL DORADO,CA
95667,EL DORADO,CA
95667,EL DORADO,CA
95667,EL DORADO,CA
95667,EL DORADO,CA
95667,EL DORADO,CA
95667,EL DORADO,CA
95668,SUTTER,CA
95668,SUTTER,CA
95669,AMADOR,CA
95670,SACRAMENTO,CA
95670,SACRAMENTO,CA
95670,SACRAMENTO,CA
95670,SACRAMENTO,CA
95671,SACRAMENTO,CA
95671,SACRAMENTO,CA
95672,EL DORADO,CA
95673,SACRAMENTO,CA
95674,SUTTER,CA
95675,AMADOR,CA
95675,AMADOR,CA
95676,SUTTER,CA
95677,PLACER,CA
95677,PLACER,CA
95678,PLACER,CA
95679,YOLO,CA
95680,SACRAMENTO,CA
95681,PLACER,CA
95682,EL DORADO,CA
95682,EL DORADO,CA
95682,EL DORADO,CA
95682,EL DORADO,CA
95683,SACRAMENTO,CA
95683,SACRAMENTO,CA
95683,SACRAMENTO,CA
95684,EL DORADO,CA
95684,EL DORADO,CA
95684,EL DORADO,CA
95684,EL DORADO,CA
95685,AMADOR,CA
95685,AMADOR,CA
95686,SAN JOAQUIN,CA
95687,SOLANO,CA
95688,SOLANO,CA
95688,SOLANO,CA
95689,AMADOR,CA
95690,SACRAMENTO,CA
95690,SACRAMENTO,CA
95690,SACRAMENTO,CA
95690,SACRAMENTO,CA
95690,SACRAMENTO,CA
95690,SACRAMENTO,CA
95690,SACRAMENTO,CA
95690,SACRAMENTO,CA
95690,SACRAMENTO,CA
95691,YOLO,CA
95691,YOLO,CA
95692,YUBA,CA
95693,SACRAMENTO,CA
95694,YOLO,CA
95695,YOLO,CA
95696,SOLANO,CA
95697,YOLO,CA
95698,YOLO,CA
95699,AMADOR,CA
95699,AMADOR,CA
95701,PLACER,CA
95703,PLACER,CA
95703,PLACER,CA
95709,EL DORADO,CA
95709,EL DORADO,CA
95709,EL DORADO,CA
95709,EL DORADO,CA
95712,NEVADA,CA
95713,PLACER,CA
95713,PLACER,CA
95713,PLACER,CA
95713,PLACER,CA
95713,PLACER,CA
95713,PLACER,CA
95714,PLACER,CA
95715,PLACER,CA
95715,PLACER,CA
95715,PLACER,CA
95717,PLACER,CA
95717,PLACER,CA
95720,EL DORADO,CA
95720,EL DORADO,CA
95721,EL DORADO,CA
95721,EL DORADO,CA
95722,PLACER,CA
95724,NEVADA,CA
95724,NEVADA,CA
95726,EL DORADO,CA
95726,EL DORADO,CA
95726,EL DORADO,CA
95728,NEVADA,CA
95728,NEVADA,CA
95728,NEVADA,CA
95728,NEVADA,CA
95728,NEVADA,CA
95735,EL DORADO,CA
95736,PLACER,CA
95741,SACRAMENTO,CA
95741,SACRAMENTO,CA
95742,SACRAMENTO,CA
95742,SACRAMENTO,CA
95746,PLACER,CA
95746,PLACER,CA
95747,PLACER,CA
95757,SACRAMENTO,CA
95758,SACRAMENTO,CA
95759,SACRAMENTO,CA
95762,EL DORADO,CA
95762,EL DORADO,CA
95762,EL DORADO,CA
95763,SACRAMENTO,CA
95765,PLACER,CA
95776,YOLO,CA
95798,YOLO,CA
95798,YOLO,CA
95798,YOLO,CA
95799,YOLO,CA
95799,YOLO,CA
95811,SACRAMENTO,CA
95812,SACRAMENTO,CA
95813,SACRAMENTO,CA
95814,SACRAMENTO,CA
95815,SACRAMENTO,CA
95815,SACRAMENTO,CA
95816,SACRAMENTO,CA
95817,SACRAMENTO,CA
95818,SACRAMENTO,CA
95819,SACRAMENTO,CA
95820,SACRAMENTO,CA
95820,SACRAMENTO,CA
95821,SACRAMENTO,CA
95822,SACRAMENTO,CA
95823,SACRAMENTO,CA
95824,SACRAMENTO,CA
95825,SACRAMENTO,CA
95826,SACRAMENTO,CA
95826,SACRAMENTO,CA
95827,SACRAMENTO,CA
95828,SACRAMENTO,CA
95829,SACRAMENTO,CA
95830,SACRAMENTO,CA
95831,SACRAMENTO,CA
95832,SACRAMENTO,CA
95833,SACRAMENTO,CA
95834,SACRAMENTO,CA
95835,SACRAMENTO,CA
95836,SACRAMENTO,CA
95837,SACRAMENTO,CA
95838,SACRAMENTO,CA
95840,SACRAMENTO,CA
95840,SACRAMENTO,CA
95841,SACRAMENTO,CA
95841,SACRAMENTO,CA
95842,SACRAMENTO,CA
95843,SACRAMENTO,CA
95843,SACRAMENTO,CA
95851,SACRAMENTO,CA
95852,SACRAMENTO,CA
95853,SACRAMENTO,CA
95860,SACRAMENTO,CA
95864,SACRAMENTO,CA
95865,SACRAMENTO,CA
95866,SACRAMENTO,CA
95867,SACRAMENTO,CA
95867,SACRAMENTO,CA
95894,SACRAMENTO,CA
95894,SACRAMENTO,CA
95899,SACRAMENTO,CA
95901,YUBA,CA
95901,YUBA,CA
95901,YUBA,CA
95901,YUBA,CA
95901,YUBA,CA
95903,YUBA,CA
95903,YUBA,CA
95910,SIERRA,CA
95910,SIERRA,CA
95912,COLUSA,CA
95912,COLUSA,CA
95913,GLENN,CA
95914,BUTTE,CA
95915,PLUMAS,CA
95915,PLUMAS,CA
95915,PLUMAS,CA
95915,PLUMAS,CA
95916,BUTTE,CA
95916,BUTTE,CA
95917,BUTTE,CA
95918,YUBA,CA
95919,YUBA,CA
95920,GLENN,CA
95920,GLENN,CA
95922,YUBA,CA
95923,PLUMAS,CA
95923,PLUMAS,CA
95923,PLUMAS,CA
95923,PLUMAS,CA
95924,NEVADA,CA
95925,YUBA,CA
95925,YUBA,CA
95926,BUTTE,CA
95927,BUTTE,CA
95928,BUTTE,CA
95928,BUTTE,CA
95928,BUTTE,CA
95928,BUTTE,CA
95929,BUTTE,CA
95929,BUTTE,CA
95930,BUTTE,CA
95930,BUTTE,CA
95932,COLUSA,CA
95934,PLUMAS,CA
95934,PLUMAS,CA
95935,YUBA,CA
95936,SIERRA,CA
95937,YOLO,CA
95938,BUTTE,CA
95939,GLENN,CA
95939,GLENN,CA
95940,BUTTE,CA
95940,BUTTE,CA
95941,BUTTE,CA
95942,BUTTE,CA
95942,BUTTE,CA
95943,GLENN,CA
95943,GLENN,CA
95943,GLENN,CA
95944,SIERRA,CA
95945,NEVADA,CA
95945,NEVADA,CA
95945,NEVADA,CA
95945,NEVADA,CA
95945,NEVADA,CA
95945,NEVADA,CA
95945,NEVADA,CA
95945,NEVADA,CA
95945,NEVADA,CA
95945,NEVADA,CA
95945,NEVADA,CA
95945,NEVADA,CA
95945,NEVADA,CA
95946,NEVADA,CA
95946,NEVADA,CA
95947,PLUMAS,CA
95947,PLUMAS,CA
95948,BUTTE,CA
95948,BUTTE,CA
95948,BUTTE,CA
95949,NEVADA,CA
95950,COLUSA,CA
95951,GLENN,CA
95951,GLENN,CA
95953,SUTTER,CA
95953,SUTTER,CA
95954,BUTTE,CA
95954,BUTTE,CA
95954,BUTTE,CA
95955,COLUSA,CA
95956,PLUMAS,CA
95956,PLUMAS,CA
95957,SUTTER,CA
95957,SUTTER,CA
95958,BUTTE,CA
95958,BUTTE,CA
95959,NEVADA,CA
95959,NEVADA,CA
95959,NEVADA,CA
95959,NEVADA,CA
95959,NEVADA,CA
95960,NEVADA,CA
95960,NEVADA,CA
95960,NEVADA,CA
95960,NEVADA,CA
95961,YUBA,CA
95961,YUBA,CA
95961,YUBA,CA
95961,YUBA,CA
95962,YUBA,CA
95962,YUBA,CA
95963,GLENN,CA
95963,GLENN,CA
95965,BUTTE,CA
95965,BUTTE,CA
95965,BUTTE,CA
95965,BUTTE,CA
95965,BUTTE,CA
95965,BUTTE,CA
95965,BUTTE,CA
95965,BUTTE,CA
95965,BUTTE,CA
95965,BUTTE,CA
95965,BUTTE,CA
95965,BUTTE,CA
95965,BUTTE,CA
95965,BUTTE,CA
95965,BUTTE,CA
95965,BUTTE,CA
95965,BUTTE,CA
95966,BUTTE,CA
95967,BUTTE,CA
95968,BUTTE,CA
95969,BUTTE,CA
95970,COLUSA,CA
95970,COLUSA,CA
95971,PLUMAS,CA
95971,PLUMAS,CA
95971,PLUMAS,CA
95971,PLUMAS,CA
95971,PLUMAS,CA
95971,PLUMAS,CA
95972,YUBA,CA
95973,BUTTE,CA
95973,BUTTE,CA
95973,BUTTE,CA
95973,BUTTE,CA
95974,BUTTE,CA
95975,NEVADA,CA
95975,NEVADA,CA
95976,BUTTE,CA
95976,BUTTE,CA
95977,NEVADA,CA
95977,NEVADA,CA
95977,NEVADA,CA
95977,NEVADA,CA
95978,BUTTE,CA
95979,COLUSA,CA
95979,COLUSA,CA
95979,COLUSA,CA
95979,COLUSA,CA
95980,PLUMAS,CA
95980,PLUMAS,CA
95980,PLUMAS,CA
95980,PLUMAS,CA
95980,PLUMAS,CA
95980,PLUMAS,CA
95980,PLUMAS,CA
95981,YUBA,CA
95981,YUBA,CA
95982,SUTTER,CA
95983,PLUMAS,CA
95983,PLUMAS,CA
95984,PLUMAS,CA
95984,PLUMAS,CA
95986,NEVADA,CA
95987,COLUSA,CA
95987,COLUSA,CA
95987,COLUSA,CA
95988,GLENN,CA
95988,GLENN,CA
95991,SUTTER,CA
95991,SUTTER,CA
95992,SUTTER,CA
95993,SUTTER,CA
96001,SHASTA,CA
96001,SHASTA,CA
96002,SHASTA,CA
96003,SHASTA,CA
96006,MODOC,CA
96007,SHASTA,CA
96007,SHASTA,CA
96008,SHASTA,CA
96009,LASSEN,CA
96010,TRINITY,CA
96011,SHASTA,CA
96013,SHASTA,CA
96013,SHASTA,CA
96014,SISKIYOU,CA
96015,MODOC,CA
96016,SHASTA,CA
96017,SHASTA,CA
96017,SHASTA,CA
96019,SHASTA,CA
96019,SHASTA,CA
96019,SHASTA,CA
96020,PLUMAS,CA
96021,TEHAMA,CA
96022,SHASTA,CA
96023,SISKIYOU,CA
96024,TRINITY,CA
96025,SISKIYOU,CA
96027,SISKIYOU,CA
96027,SISKIYOU,CA
96028,SHASTA,CA
96028,SHASTA,CA
96029,TEHAMA,CA
96029,TEHAMA,CA
96031,SISKIYOU,CA
96031,SISKIYOU,CA
96032,SISKIYOU,CA
96033,SHASTA,CA
96034,SISKIYOU,CA
96035,TEHAMA,CA
96037,SISKIYOU,CA
96038,SISKIYOU,CA
96039,SISKIYOU,CA
96040,SHASTA,CA
96041,TRINITY,CA
96041,TRINITY,CA
96044,SISKIYOU,CA
96044,SISKIYOU,CA
96046,TRINITY,CA
96047,SHASTA,CA
96047,SHASTA,CA
96048,TRINITY,CA
96048,TRINITY,CA
96049,SHASTA,CA
96050,SISKIYOU,CA
96050,SISKIYOU,CA
96051,SHASTA,CA
96052,TRINITY,CA
96054,MODOC,CA
96055,TEHAMA,CA
96056,SHASTA,CA
96056,SHASTA,CA
96056,SHASTA,CA
96057,SISKIYOU,CA
96058,SISKIYOU,CA
96059,TEHAMA,CA
96061,TEHAMA,CA
96062,SHASTA,CA
96063,TEHAMA,CA
96063,TEHAMA,CA
96064,SISKIYOU,CA
96065,SHASTA,CA
96065,SHASTA,CA
96067,SISKIYOU,CA
96068,LASSEN,CA
96069,SHASTA,CA
96070,SHASTA,CA
96070,SHASTA,CA
96071,SHASTA,CA
96073,SHASTA,CA
96074,TEHAMA,CA
96075,TEHAMA,CA
96076,SHASTA,CA
96076,SHASTA,CA
96078,TEHAMA,CA
96079,SHASTA,CA
96079,SHASTA,CA
96079,SHASTA,CA
96079,SHASTA,CA
96080,TEHAMA,CA
96080,TEHAMA,CA
96084,SHASTA,CA
96084,SHASTA,CA
96085,SISKIYOU,CA
96086,SISKIYOU,CA
96087,SHASTA,CA
96088,SHASTA,CA
96088,SHASTA,CA
96089,SHASTA,CA
96089,SHASTA,CA
96090,TEHAMA,CA
96091,TRINITY,CA
96091,TRINITY,CA
96092,TEHAMA,CA
96093,TRINITY,CA
96094,SISKIYOU,CA
96094,SISKIYOU,CA
96094,SISKIYOU,CA
96095,SHASTA,CA
96096,SHASTA,CA
96097,SISKIYOU,CA
96099,SHASTA,CA
96101,MODOC,CA
96101,MODOC,CA
96101,MODOC,CA
96101,MODOC,CA
96103,PLUMAS,CA
96103,PLUMAS,CA
96103,PLUMAS,CA
96103,PLUMAS,CA
96103,PLUMAS,CA
96103,PLUMAS,CA
96104,MODOC,CA
96105,PLUMAS,CA
96106,PLUMAS,CA
96107,MONO,CA
96107,MONO,CA
96108,MODOC,CA
96108,MODOC,CA
96109,LASSEN,CA
96110,MODOC,CA
96111,NEVADA,CA
96112,MODOC,CA
96112,MODOC,CA
96113,LASSEN,CA
96113,LASSEN,CA
96113,LASSEN,CA
96114,LASSEN,CA
96115,MODOC,CA
96116,MODOC,CA
96117,LASSEN,CA
96118,SIERRA,CA
96119,LASSEN,CA
96120,ALPINE,CA
96120,ALPINE,CA
96120,ALPINE,CA
96120,ALPINE,CA
96120,ALPINE,CA
96120,ALPINE,CA
96120,ALPINE,CA
96121,LASSEN,CA
96122,PLUMAS,CA
96122,PLUMAS,CA
96123,LASSEN,CA
96124,SIERRA,CA
96124,SIERRA,CA
96125,SIERRA,CA
96125,SIERRA,CA
96126,SIERRA,CA
96127,LASSEN,CA
96128,LASSEN,CA
96129,PLUMAS,CA
96129,PLUMAS,CA
96130,LASSEN,CA
96130,LASSEN,CA
96130,LASSEN,CA
96130,LASSEN,CA
96130,LASSEN,CA
96132,LASSEN,CA
96133,MONO,CA
96134,SISKIYOU,CA
96134,SISKIYOU,CA
96134,SISKIYOU,CA
96134,SISKIYOU,CA
96134,SISKIYOU,CA
96135,PLUMAS,CA
96136,LASSEN,CA
96137,LASSEN,CA
96137,LASSEN,CA
96137,LASSEN,CA
96140,PLACER,CA
96140,PLACER,CA
96140,PLACER,CA
96140,PLACER,CA
96140,PLACER,CA
96140,PLACER,CA
96141,PLACER,CA
96141,PLACER,CA
96142,EL DORADO,CA
96142,EL DORADO,CA
96142,EL DORADO,CA
96143,PLACER,CA
96143,PLACER,CA
96145,PLACER,CA
96145,PLACER,CA
96145,PLACER,CA
96146,PLACER,CA
96146,PLACER,CA
96146,PLACER,CA
96146,PLACER,CA
96146,PLACER,CA
96148,PLACER,CA
96150,EL DORADO,CA
96150,EL DORADO,CA
96151,EL DORADO,CA
96151,EL DORADO,CA
96151,EL DORADO,CA
96152,EL DORADO,CA
96152,EL DORADO,CA
96154,EL DORADO,CA
96154,EL DORADO,CA
96155,EL DORADO,CA
96155,EL DORADO,CA
96155,EL DORADO,CA
96155,EL DORADO,CA
96156,EL DORADO,CA
96156,EL DORADO,CA
96156,EL DORADO,CA
96156,EL DORADO,CA
96157,EL DORADO,CA
96157,EL DORADO,CA
96157,EL DORADO,CA
96158,EL DORADO,CA
96158,EL DORADO,CA
96158,EL DORADO,CA
96160,NEVADA,CA
96161,NEVADA,CA
96161,NEVADA,CA
96161,NEVADA,CA
96161,NEVADA,CA
96161,NEVADA,CA
96161,NEVADA,CA
96161,NEVADA,CA
96161,NEVADA,CA
96162,NEVADA,CA
96162,NEVADA,CA
96162,NEVADA,CA
85001,MARICOPA,AZ
85002,MARICOPA,AZ
85003,MARICOPA,AZ
85004,MARICOPA,AZ
85005,MARICOPA,AZ
85006,MARICOPA,AZ
85007,MARICOPA,AZ
85008,MARICOPA,AZ
85009,MARICOPA,AZ
85010,MARICOPA,AZ
85011,MARICOPA,AZ
85012,MARICOPA,AZ
85013,MARICOPA,AZ
85014,MARICOPA,AZ
85015,MARICOPA,AZ
85016,MARICOPA,AZ
85017,MARICOPA,AZ
85018,MARICOPA,AZ
85019,MARICOPA,AZ
85020,MARICOPA,AZ
85021,MARICOPA,AZ
85022,MARICOPA,AZ
85023,MARICOPA,AZ
85024,MARICOPA,AZ
85026,MARICOPA,AZ
85027,MARICOPA,AZ
85028,MARICOPA,AZ
85029,MARICOPA,AZ
85030,MARICOPA,AZ
85031,MARICOPA,AZ
85032,MARICOPA,AZ
85033,MARICOPA,AZ
85034,MARICOPA,AZ
85035,MARICOPA,AZ
85036,MARICOPA,AZ
85037,MARICOPA,AZ
85038,MARICOPA,AZ
85040,MARICOPA,AZ
85041,MARICOPA,AZ
85042,MARICOPA,AZ
85043,MARICOPA,AZ
85044,MARICOPA,AZ
85045,MARICOPA,AZ
85046,MARICOPA,AZ
85048,MARICOPA,AZ
85050,MARICOPA,AZ
85051,MARICOPA,AZ
85053,MARICOPA,AZ
85054,MARICOPA,AZ
85060,MARICOPA,AZ
85061,MARICOPA,AZ
85062,MARICOPA,AZ
85063,MARICOPA,AZ
85064,MARICOPA,AZ
85066,MARICOPA,AZ
85067,MARICOPA,AZ
85068,MARICOPA,AZ
85069,MARICOPA,AZ
85070,MARICOPA,AZ
85071,MARICOPA,AZ
85072,MARICOPA,AZ
85074,MARICOPA,AZ
85076,MARICOPA,AZ
85078,MARICOPA,AZ
85079,MARICOPA,AZ
85080,MARICOPA,AZ
85082,MARICOPA,AZ
85083,MARICOPA,AZ
85085,MARICOPA,AZ
85086,MARICOPA,AZ
85086,MARICOPA,AZ
85086,MARICOPA,AZ
85087,MARICOPA,AZ
85087,MARICOPA,AZ
85117,PINAL,AZ
85117,PINAL,AZ
85118,PINAL,AZ
85118,PINAL,AZ
85118,PINAL,AZ
85118,PINAL,AZ
85118,PINAL,AZ
85118,PINAL,AZ
85118,PINAL,AZ
85119,PINAL,AZ
85119,PINAL,AZ
85119,PINAL,AZ
85119,PINAL,AZ
85120,PINAL,AZ
85120,PINAL,AZ
85121,PINAL,AZ
85122,PINAL,AZ
85122,PINAL,AZ
85122,PINAL,AZ
85123,PINAL,AZ
85127,MARICOPA,AZ
85127,MARICOPA,AZ
85128,PINAL,AZ
85130,PINAL,AZ
85131,PINAL,AZ
85131,PINAL,AZ
85132,PINAL,AZ
85135,GILA,AZ
85137,PINAL,AZ
85138,PINAL,AZ
85139,PINAL,AZ
85139,PINAL,AZ
85140,PINAL,AZ
85140,PINAL,AZ
85140,PINAL,AZ
85141,PINAL,AZ
85142,MARICOPA,AZ
85142,MARICOPA,AZ
85142,MARICOPA,AZ
85142,MARICOPA,AZ
85142,MARICOPA,AZ
85143,PINAL,AZ
85143,PINAL,AZ
85143,PINAL,AZ
85144,PINAL,AZ
85144,PINAL,AZ
85144,PINAL,AZ
85145,PINAL,AZ
85147,PINAL,AZ
85172,PINAL,AZ
85173,PINAL,AZ
85178,PINAL,AZ
85178,PINAL,AZ
85190,MARICOPA,AZ
85190,MARICOPA,AZ
85191,PINAL,AZ
85192,GILA,AZ
85192,GILA,AZ
85193,PINAL,AZ
85194,PINAL,AZ
85201,MARICOPA,AZ
85202,MARICOPA,AZ
85203,MARICOPA,AZ
85204,MARICOPA,AZ
85205,MARICOPA,AZ
85206,MARICOPA,AZ
85207,MARICOPA,AZ
85208,MARICOPA,AZ
85209,MARICOPA,AZ
85210,MARICOPA,AZ
85211,MARICOPA,AZ
85212,MARICOPA,AZ
85213,MARICOPA,AZ
85214,MARICOPA,AZ
85215,MARICOPA,AZ
85216,MARICOPA,AZ
85224,MARICOPA,AZ
85225,MARICOPA,AZ
85226,MARICOPA,AZ
85233,MARICOPA,AZ
85234,MARICOPA,AZ
85236,MARICOPA,AZ
85244,MARICOPA,AZ
85246,MARICOPA,AZ
85248,MARICOPA,AZ
85248,MARICOPA,AZ
85249,MARICOPA,AZ
85250,MARICOPA,AZ
85251,MARICOPA,AZ
85252,MARICOPA,AZ
85253,MARICOPA,AZ
85253,MARICOPA,AZ
85253,MARICOPA,AZ
85254,MARICOPA,AZ
85255,MARICOPA,AZ
85256,MARICOPA,AZ
85257,MARICOPA,AZ
85258,MARICOPA,AZ
85259,MARICOPA,AZ
85260,MARICOPA,AZ
85261,MARICOPA,AZ
85262,MARICOPA,AZ
85263,MARICOPA,AZ
85263,MARICOPA,AZ
85264,MARICOPA,AZ
85264,MARICOPA,AZ
85266,MARICOPA,AZ
85267,MARICOPA,AZ
85268,MARICOPA,AZ
85268,MARICOPA,AZ
85268,MARICOPA,AZ
85269,MARICOPA,AZ
85269,MARICOPA,AZ
85269,MARICOPA,AZ
85271,MARICOPA,AZ
85274,MARICOPA,AZ
85275,MARICOPA,AZ
85277,MARICOPA,AZ
85280,MARICOPA,AZ
85281,MARICOPA,AZ
85282,MARICOPA,AZ
85283,MARICOPA,AZ
85283,MARICOPA,AZ
85284,MARICOPA,AZ
85285,MARICOPA,AZ
85286,MARICOPA,AZ
85287,MARICOPA,AZ
85287,MARICOPA,AZ
85287,MARICOPA,AZ
85287,MARICOPA,AZ
85288,MARICOPA,AZ
85295,MARICOPA,AZ
85296,MARICOPA,AZ
85297,MARICOPA,AZ
85298,MARICOPA,AZ
85299,MARICOPA,AZ
85301,MARICOPA,AZ
85302,MARICOPA,AZ
85303,MARICOPA,AZ
85304,MARICOPA,AZ
85305,MARICOPA,AZ
85306,MARICOPA,AZ
85307,MARICOPA,AZ
85307,MARICOPA,AZ
85308,MARICOPA,AZ
85309,MARICOPA,AZ
85309,MARICOPA,AZ
85309,MARICOPA,AZ
85309,MARICOPA,AZ
85310,MARICOPA,AZ
85311,MARICOPA,AZ
85312,MARICOPA,AZ
85318,MARICOPA,AZ
85320,MARICOPA,AZ
85321,PIMA,AZ
85322,MARICOPA,AZ
85323,MARICOPA,AZ
85324,YAVAPAI,AZ
85324,YAVAPAI,AZ
85324,YAVAPAI,AZ
85325,LA PAZ,AZ
85326,MARICOPA,AZ
85327,MARICOPA,AZ
85328,LA PAZ,AZ
85329,MARICOPA,AZ
85331,MARICOPA,AZ
85332,YAVAPAI,AZ
85333,YUMA,AZ
85334,LA PAZ,AZ
85335,MARICOPA,AZ
85336,YUMA,AZ
85336,YUMA,AZ
85337,MARICOPA,AZ
85338,MARICOPA,AZ
85339,MARICOPA,AZ
85340,MARICOPA,AZ
85340,MARICOPA,AZ
85340,MARICOPA,AZ
85341,PIMA,AZ
85342,MARICOPA,AZ
85342,MARICOPA,AZ
85343,MARICOPA,AZ
85344,LA PAZ,AZ
85345,MARICOPA,AZ
85346,LA PAZ,AZ
85347,YUMA,AZ
85348,LA PAZ,AZ
85349,YUMA,AZ
85350,YUMA,AZ
85351,MARICOPA,AZ
85352,YUMA,AZ
85353,MARICOPA,AZ
85354,MARICOPA,AZ
85355,MARICOPA,AZ
85356,YUMA,AZ
85357,LA PAZ,AZ
85358,MARICOPA,AZ
85359,LA PAZ,AZ
85360,MOHAVE,AZ
85361,MARICOPA,AZ
85362,YAVAPAI,AZ
85363,MARICOPA,AZ
85364,YUMA,AZ
85365,YUMA,AZ
85365,YUMA,AZ
85365,YUMA,AZ
85365,YUMA,AZ
85366,YUMA,AZ
85367,YUMA,AZ
85369,YUMA,AZ
85371,LA PAZ,AZ
85372,MARICOPA,AZ
85373,MARICOPA,AZ
85373,MARICOPA,AZ
85374,MARICOPA,AZ
85374,MARICOPA,AZ
85375,MARICOPA,AZ
85375,MARICOPA,AZ
85376,MARICOPA,AZ
85377,MARICOPA,AZ
85378,MARICOPA,AZ
85379,MARICOPA,AZ
85379,MARICOPA,AZ
85380,MARICOPA,AZ
85381,MARICOPA,AZ
85382,MARICOPA,AZ
85383,MARICOPA,AZ
85385,MARICOPA,AZ
85387,MARICOPA,AZ
85387,MARICOPA,AZ
85387,MARICOPA,AZ
85388,MARICOPA,AZ
85390,MARICOPA,AZ
85392,MARICOPA,AZ
85395,MARICOPA,AZ
85396,MARICOPA,AZ
85501,GILA,AZ
85502,GILA,AZ
85530,GRAHAM,AZ
85531,GRAHAM,AZ
85532,GILA,AZ
85533,GREENLEE,AZ
85534,GREENLEE,AZ
85534,GREENLEE,AZ
85535,GRAHAM,AZ
85536,GRAHAM,AZ
85539,GILA,AZ
85540,GREENLEE,AZ
85541,GILA,AZ
85541,GILA,AZ
85542,GILA,AZ
85543,GRAHAM,AZ
85543,GRAHAM,AZ
85544,GILA,AZ
85544,GILA,AZ
85545,GILA,AZ
85546,GRAHAM,AZ
85547,GILA,AZ
85548,GRAHAM,AZ
85550,GILA,AZ
85551,GRAHAM,AZ
85552,GRAHAM,AZ
85553,GILA,AZ
85554,GILA,AZ
85601,PIMA,AZ
85602,COCHISE,AZ
85602,COCHISE,AZ
85602,COCHISE,AZ
85602,COCHISE,AZ
85603,COCHISE,AZ
85603,COCHISE,AZ
85603,COCHISE,AZ
85603,COCHISE,AZ
85603,COCHISE,AZ
85603,COCHISE,AZ
85603,COCHISE,AZ
85603,COCHISE,AZ
85605,COCHISE,AZ
85606,COCHISE,AZ
85607,COCHISE,AZ
85607,COCHISE,AZ
85607,COCHISE,AZ
85608,COCHISE,AZ
85609,COCHISE,AZ
85610,COCHISE,AZ
85610,COCHISE,AZ
85611,SANTA CRUZ,AZ
85611,SANTA CRUZ,AZ
85613,COCHISE,AZ
85613,COCHISE,AZ
85614,PIMA,AZ
85614,PIMA,AZ
85615,COCHISE,AZ
85615,COCHISE,AZ
85615,COCHISE,AZ
85615,COCHISE,AZ
85615,COCHISE,AZ
85616,COCHISE,AZ
85616,COCHISE,AZ
85617,COCHISE,AZ
85617,COCHISE,AZ
85617,COCHISE,AZ
85618,PINAL,AZ
85619,PIMA,AZ
85620,COCHISE,AZ
85621,SANTA CRUZ,AZ
85621,SANTA CRUZ,AZ
85622,PIMA,AZ
85623,PINAL,AZ
85624,SANTA CRUZ,AZ
85624,SANTA CRUZ,AZ
85624,SANTA CRUZ,AZ
85625,COCHISE,AZ
85625,COCHISE,AZ
85625,COCHISE,AZ
85626,COCHISE,AZ
85627,COCHISE,AZ
85628,SANTA CRUZ,AZ
85629,PIMA,AZ
85629,PIMA,AZ
85630,COCHISE,AZ
85631,PINAL,AZ
85632,COCHISE,AZ
85632,COCHISE,AZ
85632,COCHISE,AZ
85632,COCHISE,AZ
85633,PIMA,AZ
85634,PIMA,AZ
85634,PIMA,AZ
85634,PIMA,AZ
85634,PIMA,AZ
85634,PIMA,AZ
85634,PIMA,AZ
85634,PIMA,AZ
85634,PIMA,AZ
85635,COCHISE,AZ
85635,COCHISE,AZ
85636,COCHISE,AZ
85637,SANTA CRUZ,AZ
85637,SANTA CRUZ,AZ
85638,COCHISE,AZ
85639,PIMA,AZ
85640,SANTA CRUZ,AZ
85640,SANTA CRUZ,AZ
85640,SANTA CRUZ,AZ
85640,SANTA CRUZ,AZ
85641,PIMA,AZ
85641,PIMA,AZ
85641,PIMA,AZ
85641,PIMA,AZ
85641,PIMA,AZ
85641,PIMA,AZ
85643,COCHISE,AZ
85643,COCHISE,AZ
85643,COCHISE,AZ
85643,COCHISE,AZ
85643,COCHISE,AZ
85643,COCHISE,AZ
85643,COCHISE,AZ
85643,COCHISE,AZ
85643,COCHISE,AZ
85643,COCHISE,AZ
85643,COCHISE,AZ
85643,COCHISE,AZ
85644,COCHISE,AZ
85645,PIMA,AZ
85646,SANTA CRUZ,AZ
85648,SANTA CRUZ,AZ
85648,SANTA CRUZ,AZ
85650,COCHISE,AZ
85652,PIMA,AZ
85653,PIMA,AZ
85654,PIMA,AZ
85655,COCHISE,AZ
85658,PIMA,AZ
85670,COCHISE,AZ
85670,COCHISE,AZ
85701,PIMA,AZ
85702,PIMA,AZ
85703,PIMA,AZ
85704,PIMA,AZ
85704,PIMA,AZ
85705,PIMA,AZ
85706,PIMA,AZ
85706,PIMA,AZ
85707,PIMA,AZ
85707,PIMA,AZ
85707,PIMA,AZ
85708,PIMA,AZ
85708,PIMA,AZ
85709,PIMA,AZ
85709,PIMA,AZ
85710,PIMA,AZ
85710,PIMA,AZ
85711,PIMA,AZ
85711,PIMA,AZ
85712,PIMA,AZ
85712,PIMA,AZ
85713,PIMA,AZ
85713,PIMA,AZ
85714,PIMA,AZ
85714,PIMA,AZ
85715,PIMA,AZ
85715,PIMA,AZ
85716,PIMA,AZ
85716,PIMA,AZ
85717,PIMA,AZ
85718,PIMA,AZ
85719,PIMA,AZ
85719,PIMA,AZ
85721,PIMA,AZ
85721,PIMA,AZ
85723,PIMA,AZ
85723,PIMA,AZ
85724,PIMA,AZ
85724,PIMA,AZ
85725,PIMA,AZ
85726,PIMA,AZ
85728,PIMA,AZ
85730,PIMA,AZ
85730,PIMA,AZ
85731,PIMA,AZ
85732,PIMA,AZ
85732,PIMA,AZ
85733,PIMA,AZ
85733,PIMA,AZ
85734,PIMA,AZ
85734,PIMA,AZ
85735,PIMA,AZ
85736,PIMA,AZ
85737,PIMA,AZ
85737,PIMA,AZ
85738,PIMA,AZ
85738,PIMA,AZ
85739,PIMA,AZ
85739,PIMA,AZ
85739,PIMA,AZ
85740,PIMA,AZ
85741,PIMA,AZ
85742,PIMA,AZ
85742,PIMA,AZ
85743,PIMA,AZ
85744,PIMA,AZ
85744,PIMA,AZ
85745,PIMA,AZ
85746,PIMA,AZ
85747,PIMA,AZ
85747,PIMA,AZ
85748,PIMA,AZ
85748,PIMA,AZ
85749,PIMA,AZ
85749,PIMA,AZ
85749,PIMA,AZ
85750,PIMA,AZ
85750,PIMA,AZ
85751,PIMA,AZ
85751,PIMA,AZ
85752,PIMA,AZ
85754,PIMA,AZ
85755,PIMA,AZ
85755,PIMA,AZ
85756,PIMA,AZ
85756,PIMA,AZ
85757,PIMA,AZ
85775,PIMA,AZ
85775,PIMA,AZ
85901,NAVAJO,AZ
85901,NAVAJO,AZ
85902,NAVAJO,AZ
85911,NAVAJO,AZ
85911,NAVAJO,AZ
85912,NAVAJO,AZ
85912,NAVAJO,AZ
85920,APACHE,AZ
85922,GREENLEE,AZ
85923,NAVAJO,AZ
85924,APACHE,AZ
85924,APACHE,AZ
85925,APACHE,AZ
85926,NAVAJO,AZ
85927,APACHE,AZ
85928,NAVAJO,AZ
85929,NAVAJO,AZ
85929,NAVAJO,AZ
85930,APACHE,AZ
85930,APACHE,AZ
85931,COCONINO,AZ
85931,COCONINO,AZ
85932,APACHE,AZ
85933,NAVAJO,AZ
85934,NAVAJO,AZ
85935,NAVAJO,AZ
85935,NAVAJO,AZ
85935,NAVAJO,AZ
85936,APACHE,AZ
85936,APACHE,AZ
85936,APACHE,AZ
85936,APACHE,AZ
85936,APACHE,AZ
85937,NAVAJO,AZ
85938,APACHE,AZ
85938,APACHE,AZ
85939,NAVAJO,AZ
85940,APACHE,AZ
85941,NAVAJO,AZ
85942,NAVAJO,AZ
85942,NAVAJO,AZ
86001,COCONINO,AZ
86001,COCONINO,AZ
86002,COCONINO,AZ
86003,COCONINO,AZ
86004,COCONINO,AZ
86005,COCONINO,AZ
86011,COCONINO,AZ
86011,COCONINO,AZ
86015,COCONINO,AZ
86015,COCONINO,AZ
86016,COCONINO,AZ
86016,COCONINO,AZ
86017,COCONINO,AZ
86017,COCONINO,AZ
86018,COCONINO,AZ
86018,COCONINO,AZ
86018,COCONINO,AZ
86020,COCONINO,AZ
86020,COCONINO,AZ
86021,MOHAVE,AZ
86022,COCONINO,AZ
86022,COCONINO,AZ
86022,COCONINO,AZ
86022,COCONINO,AZ
86022,COCONINO,AZ
86022,COCONINO,AZ
86022,COCONINO,AZ
86023,COCONINO,AZ
86023,COCONINO,AZ
86023,COCONINO,AZ
86024,COCONINO,AZ
86024,COCONINO,AZ
86025,NAVAJO,AZ
86028,APACHE,AZ
86028,APACHE,AZ
86028,APACHE,AZ
86029,NAVAJO,AZ
86029,NAVAJO,AZ
86030,NAVAJO,AZ
86030,NAVAJO,AZ
86031,NAVAJO,AZ
86031,NAVAJO,AZ
86031,NAVAJO,AZ
86032,NAVAJO,AZ
86033,NAVAJO,AZ
86033,NAVAJO,AZ
86033,NAVAJO,AZ
86033,NAVAJO,AZ
86033,NAVAJO,AZ
86034,NAVAJO,AZ
86034,NAVAJO,AZ
86035,COCONINO,AZ
86036,COCONINO,AZ
86038,COCONINO,AZ
86038,COCONINO,AZ
86039,NAVAJO,AZ
86039,NAVAJO,AZ
86039,NAVAJO,AZ
86039,NAVAJO,AZ
86039,NAVAJO,AZ
86039,NAVAJO,AZ
86039,NAVAJO,AZ
86039,NAVAJO,AZ
86039,NAVAJO,AZ
86040,COCONINO,AZ
86040,COCONINO,AZ
86040,COCONINO,AZ
86042,NAVAJO,AZ
86042,NAVAJO,AZ
86042,NAVAJO,AZ
86042,NAVAJO,AZ
86042,NAVAJO,AZ
86043,NAVAJO,AZ
86043,NAVAJO,AZ
86043,NAVAJO,AZ
86043,NAVAJO,AZ
86043,NAVAJO,AZ
86044,COCONINO,AZ
86044,COCONINO,AZ
86045,COCONINO,AZ
86045,COCONINO,AZ
86045,COCONINO,AZ
86045,COCONINO,AZ
86045,COCONINO,AZ
86046,COCONINO,AZ
86047,NAVAJO,AZ
86047,NAVAJO,AZ
86047,NAVAJO,AZ
86047,NAVAJO,AZ
86047,NAVAJO,AZ
86052,COCONINO,AZ
86052,COCONINO,AZ
86053,COCONINO,AZ
86053,COCONINO,AZ
86054,NAVAJO,AZ
86054,NAVAJO,AZ
86301,YAVAPAI,AZ
86302,YAVAPAI,AZ
86303,YAVAPAI,AZ
86303,YAVAPAI,AZ
86304,YAVAPAI,AZ
86305,YAVAPAI,AZ
86305,YAVAPAI,AZ
86312,YAVAPAI,AZ
86312,YAVAPAI,AZ
86313,YAVAPAI,AZ
86314,YAVAPAI,AZ
86314,YAVAPAI,AZ
86315,YAVAPAI,AZ
86315,YAVAPAI,AZ
86320,YAVAPAI,AZ
86321,YAVAPAI,AZ
86322,YAVAPAI,AZ
86323,YAVAPAI,AZ
86324,YAVAPAI,AZ
86325,YAVAPAI,AZ
86326,YAVAPAI,AZ
86327,YAVAPAI,AZ
86327,YAVAPAI,AZ
86327,YAVAPAI,AZ
86329,YAVAPAI,AZ
86329,YAVAPAI,AZ
86329,YAVAPAI,AZ
86331,YAVAPAI,AZ
86332,YAVAPAI,AZ
86332,YAVAPAI,AZ
86332,YAVAPAI,AZ
86333,YAVAPAI,AZ
86333,YAVAPAI,AZ
86333,YAVAPAI,AZ
86333,YAVAPAI,AZ
86334,YAVAPAI,AZ
86335,YAVAPAI,AZ
86336,YAVAPAI,AZ
86337,YAVAPAI,AZ
86338,YAVAPAI,AZ
86339,COCONINO,AZ
86340,YAVAPAI,AZ
86341,YAVAPAI,AZ
86342,YAVAPAI,AZ
86342,YAVAPAI,AZ
86343,YAVAPAI,AZ
86351,YAVAPAI,AZ
86401,MOHAVE,AZ
86401,MOHAVE,AZ
86401,MOHAVE,AZ
86402,MOHAVE,AZ
86403,MOHAVE,AZ
86403,MOHAVE,AZ
86403,MOHAVE,AZ
86404,MOHAVE,AZ
86404,MOHAVE,AZ
86405,MOHAVE,AZ
86405,MOHAVE,AZ
86406,MOHAVE,AZ
86406,MOHAVE,AZ
86409,MOHAVE,AZ
86409,MOHAVE,AZ
86411,MOHAVE,AZ
86411,MOHAVE,AZ
86412,MOHAVE,AZ
86412,MOHAVE,AZ
86413,MOHAVE,AZ
86413,MOHAVE,AZ
86426,MOHAVE,AZ
86426,MOHAVE,AZ
86427,MOHAVE,AZ
86427,MOHAVE,AZ
86429,MOHAVE,AZ
86430,MOHAVE,AZ
86431,MOHAVE,AZ
86432,MOHAVE,AZ
86432,MOHAVE,AZ
86432,MOHAVE,AZ
86433,MOHAVE,AZ
86434,MOHAVE,AZ
86434,MOHAVE,AZ
86434,MOHAVE,AZ
86434,MOHAVE,AZ
86435,COCONINO,AZ
86435,COCONINO,AZ
86436,MOHAVE,AZ
86436,MOHAVE,AZ
86437,MOHAVE,AZ
86437,MOHAVE,AZ
86438,MOHAVE,AZ
86439,MOHAVE,AZ
86440,MOHAVE,AZ
86441,MOHAVE,AZ
86442,MOHAVE,AZ
86443,MOHAVE,AZ
86443,MOHAVE,AZ
86444,MOHAVE,AZ
86445,MOHAVE,AZ
86445,MOHAVE,AZ
86445,MOHAVE,AZ
86446,MOHAVE,AZ
86446,MOHAVE,AZ
86502,APACHE,AZ
86502,APACHE,AZ
86503,APACHE,AZ
86503,APACHE,AZ
86503,APACHE,AZ
86503,APACHE,AZ
86503,APACHE,AZ
86503,APACHE,AZ
86503,APACHE,AZ
86503,APACHE,AZ
86503,APACHE,AZ
86503,APACHE,AZ
86504,APACHE,AZ
86504,APACHE,AZ
86505,APACHE,AZ
86505,APACHE,AZ
86505,APACHE,AZ
86505,APACHE,AZ
86505,APACHE,AZ
86505,APACHE,AZ
86505,APACHE,AZ
86505,APACHE,AZ
86505,APACHE,AZ
86505,APACHE,AZ
86505,APACHE,AZ
86505,APACHE,AZ
86506,APACHE,AZ
86506,APACHE,AZ
86506,APACHE,AZ
86506,APACHE,AZ
86506,APACHE,AZ
86507,APACHE,AZ
86507,APACHE,AZ
86507,APACHE,AZ
86507,APACHE,AZ
86507,APACHE,AZ
86508,APACHE,AZ
86508,APACHE,AZ
86510,NAVAJO,AZ
86511,APACHE,AZ
86511,APACHE,AZ
86511,APACHE,AZ
86511,APACHE,AZ
86511,APACHE,AZ
86512,APACHE,AZ
86512,APACHE,AZ
86514,APACHE,AZ
86514,APACHE,AZ
86514,APACHE,AZ
86514,APACHE,AZ
86514,APACHE,AZ
86515,APACHE,AZ
86515,APACHE,AZ
86515,APACHE,AZ
86520,NAVAJO,AZ
86520,NAVAJO,AZ
86535,APACHE,AZ
86535,APACHE,AZ
86538,APACHE,AZ
86538,APACHE,AZ
86540,APACHE,AZ
86540,APACHE,AZ
86544,APACHE,AZ
86544,APACHE,AZ
86545,APACHE,AZ
86547,APACHE,AZ
86547,APACHE,AZ
86556,APACHE,AZ
86556,APACHE,AZ
96799,AMERICAN SAMOA,AS
71601,JEFFERSON,AR
71601,JEFFERSON,AR
71601,JEFFERSON,AR
71601,JEFFERSON,AR
71602,JEFFERSON,AR
71602,JEFFERSON,AR
71603,JEFFERSON,AR
71611,JEFFERSON,AR
71612,JEFFERSON,AR
71612,JEFFERSON,AR
71613,JEFFERSON,AR
71630,DESHA,AR
71630,DESHA,AR
71631,BRADLEY,AR
71631,BRADLEY,AR
71631,BRADLEY,AR
71635,ASHLEY,AR
71635,ASHLEY,AR
71638,CHICOT,AR
71638,CHICOT,AR
71638,CHICOT,AR
71638,CHICOT,AR
71638,CHICOT,AR
71638,CHICOT,AR
71639,DESHA,AR
71639,DESHA,AR
71639,DESHA,AR
71639,DESHA,AR
71639,DESHA,AR
71639,DESHA,AR
71639,DESHA,AR
71640,CHICOT,AR
71640,CHICOT,AR
71640,CHICOT,AR
71640,CHICOT,AR
71640,CHICOT,AR
71640,CHICOT,AR
71640,CHICOT,AR
71642,ASHLEY,AR
71642,ASHLEY,AR
71643,LINCOLN,AR
71643,LINCOLN,AR
71643,LINCOLN,AR
71644,LINCOLN,AR
71644,LINCOLN,AR
71644,LINCOLN,AR
71646,ASHLEY,AR
71646,ASHLEY,AR
71646,ASHLEY,AR
71646,ASHLEY,AR
71646,ASHLEY,AR
71646,ASHLEY,AR
71646,ASHLEY,AR
71646,ASHLEY,AR
71646,ASHLEY,AR
71646,ASHLEY,AR
71647,BRADLEY,AR
71647,BRADLEY,AR
71647,BRADLEY,AR
71647,BRADLEY,AR
71647,BRADLEY,AR
71647,BRADLEY,AR
71647,BRADLEY,AR
71647,BRADLEY,AR
71651,BRADLEY,AR
71651,BRADLEY,AR
71652,CLEVELAND,AR
71652,CLEVELAND,AR
71653,CHICOT,AR
71653,CHICOT,AR
71653,CHICOT,AR
71653,CHICOT,AR
71653,CHICOT,AR
71653,CHICOT,AR
71653,CHICOT,AR
71653,CHICOT,AR
71653,CHICOT,AR
71653,CHICOT,AR
71653,CHICOT,AR
71653,CHICOT,AR
71654,DESHA,AR
71654,DESHA,AR
71654,DESHA,AR
71654,DESHA,AR
71654,DESHA,AR
71655,DREW,AR
71655,DREW,AR
71655,DREW,AR
71655,DREW,AR
71655,DREW,AR
71655,DREW,AR
71655,DREW,AR
71655,DREW,AR
71655,DREW,AR
71655,DREW,AR
71656,DREW,AR
71656,DREW,AR
71657,DREW,AR
71658,ASHLEY,AR
71658,ASHLEY,AR
71658,ASHLEY,AR
71658,ASHLEY,AR
71659,JEFFERSON,AR
71659,JEFFERSON,AR
71660,CLEVELAND,AR
71660,CLEVELAND,AR
71660,CLEVELAND,AR
71661,ASHLEY,AR
71661,ASHLEY,AR
71662,DESHA,AR
71662,DESHA,AR
71662,DESHA,AR
71663,ASHLEY,AR
71665,CLEVELAND,AR
71665,CLEVELAND,AR
71665,CLEVELAND,AR
71665,CLEVELAND,AR
71665,CLEVELAND,AR
71665,CLEVELAND,AR
71665,CLEVELAND,AR
71665,CLEVELAND,AR
71665,CLEVELAND,AR
71665,CLEVELAND,AR
71665,CLEVELAND,AR
71666,DESHA,AR
71666,DESHA,AR
71666,DESHA,AR
71666,DESHA,AR
71666,DESHA,AR
71667,LINCOLN,AR
71667,LINCOLN,AR
71667,LINCOLN,AR
71667,LINCOLN,AR
71667,LINCOLN,AR
71667,LINCOLN,AR
71667,LINCOLN,AR
71667,LINCOLN,AR
71667,LINCOLN,AR
71670,DESHA,AR
71670,DESHA,AR
71671,BRADLEY,AR
71671,BRADLEY,AR
71671,BRADLEY,AR
71671,BRADLEY,AR
71671,BRADLEY,AR
71674,DESHA,AR
71674,DESHA,AR
71674,DESHA,AR
71674,DESHA,AR
71674,DESHA,AR
71675,DREW,AR
71675,DREW,AR
71675,DREW,AR
71676,ASHLEY,AR
71677,DREW,AR
71677,DREW,AR
71678,LINCOLN,AR
71701,OUACHITA,AR
71701,OUACHITA,AR
71711,OUACHITA,AR
71720,OUACHITA,AR
71721,CLARK,AR
71722,NEVADA,AR
71724,UNION,AR
71725,DALLAS,AR
71726,OUACHITA,AR
71726,OUACHITA,AR
71728,CLARK,AR
71730,UNION,AR
71731,UNION,AR
71740,COLUMBIA,AR
71742,DALLAS,AR
71743,CLARK,AR
71744,CALHOUN,AR
71745,CALHOUN,AR
71747,UNION,AR
71748,DALLAS,AR
71749,UNION,AR
71750,UNION,AR
71751,OUACHITA,AR
71752,COLUMBIA,AR
71753,COLUMBIA,AR
71753,COLUMBIA,AR
71754,COLUMBIA,AR
71758,UNION,AR
71759,UNION,AR
71762,UNION,AR
71763,DALLAS,AR
71763,DALLAS,AR
71764,OUACHITA,AR
71765,UNION,AR
71766,CALHOUN,AR
71770,COLUMBIA,AR
71772,CLARK,AR
71772,CLARK,AR
71801,HEMPSTEAD,AR
71801,HEMPSTEAD,AR
71802,HEMPSTEAD,AR
71820,LITTLE RIVER,AR
71822,LITTLE RIVER,AR
71823,SEVIER,AR
71825,HEMPSTEAD,AR
71826,LAFAYETTE,AR
71827,LAFAYETTE,AR
71828,NEVADA,AR
71831,HEMPSTEAD,AR
71832,SEVIER,AR
71833,HOWARD,AR
71834,MILLER,AR
71835,NEVADA,AR
71836,LITTLE RIVER,AR
71837,MILLER,AR
71838,HEMPSTEAD,AR
71839,MILLER,AR
71840,MILLER,AR
71841,SEVIER,AR
71842,SEVIER,AR
71845,LAFAYETTE,AR
71846,SEVIER,AR
71847,HEMPSTEAD,AR
71851,HOWARD,AR
71851,HOWARD,AR
71852,HOWARD,AR
71853,LITTLE RIVER,AR
71854,MILLER,AR
71855,HEMPSTEAD,AR
71857,NEVADA,AR
71857,NEVADA,AR
71857,NEVADA,AR
71858,NEVADA,AR
71859,HOWARD,AR
71859,HOWARD,AR
71860,LAFAYETTE,AR
71861,COLUMBIA,AR
71862,HEMPSTEAD,AR
71864,NEVADA,AR
71865,LITTLE RIVER,AR
71866,LITTLE RIVER,AR
71901,GARLAND,AR
71901,GARLAND,AR
71901,GARLAND,AR
71901,GARLAND,AR
71901,GARLAND,AR
71901,GARLAND,AR
71901,GARLAND,AR
71901,GARLAND,AR
71901,GARLAND,AR
71901,GARLAND,AR
71901,GARLAND,AR
71901,GARLAND,AR
71901,GARLAND,AR
71901,GARLAND,AR
71901,GARLAND,AR
71901,GARLAND,AR
71901,GARLAND,AR
71901,GARLAND,AR
71902,GARLAND,AR
71902,GARLAND,AR
71902,GARLAND,AR
71903,GARLAND,AR
71903,GARLAND,AR
71909,GARLAND,AR
71909,GARLAND,AR
71909,GARLAND,AR
71909,GARLAND,AR
71909,GARLAND,AR
71910,GARLAND,AR
71910,GARLAND,AR
71910,GARLAND,AR
71913,GARLAND,AR
71913,GARLAND,AR
71913,GARLAND,AR
71913,GARLAND,AR
71914,GARLAND,AR
71914,GARLAND,AR
71914,GARLAND,AR
71920,CLARK,AR
71921,CLARK,AR
71921,CLARK,AR
71921,CLARK,AR
71921,CLARK,AR
71921,CLARK,AR
71921,CLARK,AR
71921,CLARK,AR
71922,PIKE,AR
71923,CLARK,AR
71923,CLARK,AR
71923,CLARK,AR
71923,CLARK,AR
71923,CLARK,AR
71923,CLARK,AR
71923,CLARK,AR
71923,CLARK,AR
71923,CLARK,AR
71923,CLARK,AR
71923,CLARK,AR
71923,CLARK,AR
71929,HOT SPRING,AR
71929,HOT SPRING,AR
71932,POLK,AR
71932,POLK,AR
71933,HOT SPRING,AR
71933,HOT SPRING,AR
71935,MONTGOMERY,AR
71935,MONTGOMERY,AR
71935,MONTGOMERY,AR
71935,MONTGOMERY,AR
71937,POLK,AR
71937,POLK,AR
71940,PIKE,AR
71940,PIKE,AR
71940,PIKE,AR
71940,PIKE,AR
71940,PIKE,AR
71940,PIKE,AR
71941,HOT SPRING,AR
71941,HOT SPRING,AR
71942,HOT SPRING,AR
71943,PIKE,AR
71943,PIKE,AR
71944,POLK,AR
71945,POLK,AR
71949,GARLAND,AR
71949,GARLAND,AR
71949,GARLAND,AR
71950,PIKE,AR
71952,PIKE,AR
71953,POLK,AR
71953,POLK,AR
71953,POLK,AR
71953,POLK,AR
71953,POLK,AR
71953,POLK,AR
71953,POLK,AR
71953,POLK,AR
71953,POLK,AR
71953,POLK,AR
71953,POLK,AR
71953,POLK,AR
71953,POLK,AR
71956,GARLAND,AR
71956,GARLAND,AR
71957,MONTGOMERY,AR
71958,PIKE,AR
71958,PIKE,AR
71958,PIKE,AR
71958,PIKE,AR
71959,PIKE,AR
71960,MONTGOMERY,AR
71961,MONTGOMERY,AR
71961,MONTGOMERY,AR
71961,MONTGOMERY,AR
71961,MONTGOMERY,AR
71962,CLARK,AR
71964,GARLAND,AR
71965,MONTGOMERY,AR
71965,MONTGOMERY,AR
71966,MONTGOMERY,AR
71966,MONTGOMERY,AR
71968,GARLAND,AR
71968,GARLAND,AR
71969,MONTGOMERY,AR
71969,MONTGOMERY,AR
71970,MONTGOMERY,AR
71971,HOWARD,AR
71971,HOWARD,AR
71972,POLK,AR
71973,POLK,AR
71998,CLARK,AR
71998,CLARK,AR
71999,CLARK,AR
71999,CLARK,AR
72001,PERRY,AR
72002,SALINE,AR
72003,ARKANSAS,AR
72004,JEFFERSON,AR
72005,JACKSON,AR
72005,JACKSON,AR
72006,WOODRUFF,AR
72007,LONOKE,AR
72010,WHITE,AR
72011,SALINE,AR
72012,WHITE,AR
72013,VAN BUREN,AR
72014,JACKSON,AR
72015,SALINE,AR
72015,SALINE,AR
72015,SALINE,AR
72015,SALINE,AR
72016,PERRY,AR
72017,PRAIRIE,AR
72018,SALINE,AR
72019,SALINE,AR
72019,SALINE,AR
72020,WHITE,AR
72021,MONROE,AR
72022,SALINE,AR
72022,SALINE,AR
72023,LONOKE,AR
72024,LONOKE,AR
72024,LONOKE,AR
72025,PERRY,AR
72025,PERRY,AR
72025,PERRY,AR
72025,PERRY,AR
72025,PERRY,AR
72026,ARKANSAS,AR
72027,CONWAY,AR
72027,CONWAY,AR
72027,CONWAY,AR
72027,CONWAY,AR
72028,VAN BUREN,AR
72029,MONROE,AR
72030,CONWAY,AR
72030,CONWAY,AR
72031,VAN BUREN,AR
72031,VAN BUREN,AR
72031,VAN BUREN,AR
72031,VAN BUREN,AR
72031,VAN BUREN,AR
72031,VAN BUREN,AR
72031,VAN BUREN,AR
72031,VAN BUREN,AR
72031,VAN BUREN,AR
72031,VAN BUREN,AR
72031,VAN BUREN,AR
72032,FAULKNER,AR
72032,FAULKNER,AR
72032,FAULKNER,AR
72032,FAULKNER,AR
72032,FAULKNER,AR
72032,FAULKNER,AR
72032,FAULKNER,AR
72032,FAULKNER,AR
72032,FAULKNER,AR
72032,FAULKNER,AR
72033,FAULKNER,AR
72034,FAULKNER,AR
72035,FAULKNER,AR
72035,FAULKNER,AR
72035,FAULKNER,AR
72035,FAULKNER,AR
72036,WOODRUFF,AR
72036,WOODRUFF,AR
72037,LONOKE,AR
72038,ARKANSAS,AR
72038,ARKANSAS,AR
72039,VAN BUREN,AR
72039,VAN BUREN,AR
72039,VAN BUREN,AR
72039,VAN BUREN,AR
72040,PRAIRIE,AR
72040,PRAIRIE,AR
72040,PRAIRIE,AR
72040,PRAIRIE,AR
72040,PRAIRIE,AR
72040,PRAIRIE,AR
72041,PRAIRIE,AR
72041,PRAIRIE,AR
72041,PRAIRIE,AR
72041,PRAIRIE,AR
72042,ARKANSAS,AR
72042,ARKANSAS,AR
72042,ARKANSAS,AR
72043,JACKSON,AR
72044,CLEBURNE,AR
72044,CLEBURNE,AR
72044,CLEBURNE,AR
72045,WHITE,AR
72046,LONOKE,AR
72047,FAULKNER,AR
72047,FAULKNER,AR
72048,ARKANSAS,AR
72051,STONE,AR
72051,STONE,AR
72052,WHITE,AR
72053,PULASKI,AR
72053,PULASKI,AR
72053,PULASKI,AR
72055,ARKANSAS,AR
72055,ARKANSAS,AR
72057,GRANT,AR
72058,FAULKNER,AR
72058,FAULKNER,AR
72058,FAULKNER,AR
72058,FAULKNER,AR
72058,FAULKNER,AR
72058,FAULKNER,AR
72059,WOODRUFF,AR
72060,WHITE,AR
72061,FAULKNER,AR
72063,CONWAY,AR
72063,CONWAY,AR
72063,CONWAY,AR
72063,CONWAY,AR
72064,PRAIRIE,AR
72064,PRAIRIE,AR
72064,PRAIRIE,AR
72065,SALINE,AR
72065,SALINE,AR
72066,PRAIRIE,AR
72066,PRAIRIE,AR
72067,CLEBURNE,AR
72067,CLEBURNE,AR
72068,WHITE,AR
72068,WHITE,AR
72069,MONROE,AR
72069,MONROE,AR
72069,MONROE,AR
72069,MONROE,AR
72069,MONROE,AR
72069,MONROE,AR
72070,PERRY,AR
72070,PERRY,AR
72070,PERRY,AR
72072,LONOKE,AR
72073,JEFFERSON,AR
72074,WOODRUFF,AR
72075,JACKSON,AR
72076,PULASKI,AR
72076,PULASKI,AR
72076,PULASKI,AR
72076,PULASKI,AR
72076,PULASKI,AR
72076,PULASKI,AR
72076,PULASKI,AR
72076,PULASKI,AR
72076,PULASKI,AR
72078,PULASKI,AR
72079,JEFFERSON,AR
72080,CONWAY,AR
72080,CONWAY,AR
72080,CONWAY,AR
72081,WHITE,AR
72081,WHITE,AR
72081,WHITE,AR
72082,WHITE,AR
72082,WHITE,AR
72082,WHITE,AR
72083,LONOKE,AR
72084,GRANT,AR
72084,GRANT,AR
72084,GRANT,AR
72084,GRANT,AR
72085,WHITE,AR
72086,LONOKE,AR
72086,LONOKE,AR
72086,LONOKE,AR
72086,LONOKE,AR
72086,LONOKE,AR
72087,GARLAND,AR
72087,GARLAND,AR
72088,VAN BUREN,AR
72088,VAN BUREN,AR
72089,SALINE,AR
72099,PULASKI,AR
72099,PULASKI,AR
72099,PULASKI,AR
72099,PULASKI,AR
72099,PULASKI,AR
72099,PULASKI,AR
72101,WOODRUFF,AR
72101,WOODRUFF,AR
72101,WOODRUFF,AR
72101,WOODRUFF,AR
72101,WOODRUFF,AR
72101,WOODRUFF,AR
72101,WOODRUFF,AR
72101,WOODRUFF,AR
72101,WOODRUFF,AR
72101,WOODRUFF,AR
72102,WHITE,AR
72103,SALINE,AR
72103,SALINE,AR
72103,SALINE,AR
72104,HOT SPRING,AR
72104,HOT SPRING,AR
72104,HOT SPRING,AR
72104,HOT SPRING,AR
72104,HOT SPRING,AR
72104,HOT SPRING,AR
72104,HOT SPRING,AR
72104,HOT SPRING,AR
72104,HOT SPRING,AR
72104,HOT SPRING,AR
72104,HOT SPRING,AR
72106,FAULKNER,AR
72106,FAULKNER,AR
72107,CONWAY,AR
72108,MONROE,AR
72110,CONWAY,AR
72110,CONWAY,AR
72110,CONWAY,AR
72110,CONWAY,AR
72110,CONWAY,AR
72110,CONWAY,AR
72110,CONWAY,AR
72110,CONWAY,AR
72110,CONWAY,AR
72111,FAULKNER,AR
72111,FAULKNER,AR
72111,FAULKNER,AR
72112,JACKSON,AR
72113,PULASKI,AR
72113,PULASKI,AR
72113,PULASKI,AR
72113,PULASKI,AR
72113,PULASKI,AR
72114,PULASKI,AR
72114,PULASKI,AR
72114,PULASKI,AR
72114,PULASKI,AR
72114,PULASKI,AR
72114,PULASKI,AR
72114,PULASKI,AR
72115,PULASKI,AR
72115,PULASKI,AR
72115,PULASKI,AR
72116,PULASKI,AR
72116,PULASKI,AR
72116,PULASKI,AR
72116,PULASKI,AR
72116,PULASKI,AR
72116,PULASKI,AR
72117,PULASKI,AR
72117,PULASKI,AR
72117,PULASKI,AR
72117,PULASKI,AR
72117,PULASKI,AR
72117,PULASKI,AR
72117,PULASKI,AR
72117,PULASKI,AR
72117,PULASKI,AR
72117,PULASKI,AR
72117,PULASKI,AR
72117,PULASKI,AR
72118,PULASKI,AR
72118,PULASKI,AR
72118,PULASKI,AR
72118,PULASKI,AR
72118,PULASKI,AR
72118,PULASKI,AR
72118,PULASKI,AR
72118,PULASKI,AR
72118,PULASKI,AR
72118,PULASKI,AR
72119,PULASKI,AR
72119,PULASKI,AR
72119,PULASKI,AR
72119,PULASKI,AR
72120,PULASKI,AR
72120,PULASKI,AR
72120,PULASKI,AR
72120,PULASKI,AR
72120,PULASKI,AR
72121,WHITE,AR
72121,WHITE,AR
72121,WHITE,AR
72121,WHITE,AR
72121,WHITE,AR
72121,WHITE,AR
72122,SALINE,AR
72123,WOODRUFF,AR
72124,PULASKI,AR
72124,PULASKI,AR
72124,PULASKI,AR
72124,PULASKI,AR
72124,PULASKI,AR
72125,PERRY,AR
72126,PERRY,AR
72126,PERRY,AR
72126,PERRY,AR
72126,PERRY,AR
72126,PERRY,AR
72126,PERRY,AR
72126,PERRY,AR
72127,CONWAY,AR
72127,CONWAY,AR
72128,GRANT,AR
72129,GRANT,AR
72129,GRANT,AR
72130,CLEBURNE,AR
72130,CLEBURNE,AR
72131,CLEBURNE,AR
72131,CLEBURNE,AR
72131,CLEBURNE,AR
72132,JEFFERSON,AR
72132,JEFFERSON,AR
72132,JEFFERSON,AR
72133,JEFFERSON,AR
72134,MONROE,AR
72134,MONROE,AR
72134,MONROE,AR
72134,MONROE,AR
72135,PULASKI,AR
72135,PULASKI,AR
72135,PULASKI,AR
72135,PULASKI,AR
72136,WHITE,AR
72136,WHITE,AR
72137,WHITE,AR
72137,WHITE,AR
72139,WHITE,AR
72140,ARKANSAS,AR
72141,VAN BUREN,AR
72142,PULASKI,AR
72142,PULASKI,AR
72142,PULASKI,AR
72142,PULASKI,AR
72143,WHITE,AR
72143,WHITE,AR
72145,WHITE,AR
72149,WHITE,AR
72149,WHITE,AR
72150,GRANT,AR
72150,GRANT,AR
72150,GRANT,AR
72150,GRANT,AR
72150,GRANT,AR
72152,JEFFERSON,AR
72152,JEFFERSON,AR
72152,JEFFERSON,AR
72153,VAN BUREN,AR
72153,VAN BUREN,AR
72153,VAN BUREN,AR
72153,VAN BUREN,AR
72156,CONWAY,AR
72156,CONWAY,AR
72156,CONWAY,AR
72157,CONWAY,AR
72157,CONWAY,AR
72157,CONWAY,AR
72158,SALINE,AR
72160,ARKANSAS,AR
72160,ARKANSAS,AR
72160,ARKANSAS,AR
72160,ARKANSAS,AR
72160,ARKANSAS,AR
72160,ARKANSAS,AR
72160,ARKANSAS,AR
72164,PULASKI,AR
72165,INDEPENDENCE,AR
72166,ARKANSAS,AR
72166,ARKANSAS,AR
72167,SALINE,AR
72167,SALINE,AR
72168,JEFFERSON,AR
72169,JACKSON,AR
72170,PRAIRIE,AR
72173,FAULKNER,AR
72173,FAULKNER,AR
72173,FAULKNER,AR
72173,FAULKNER,AR
72175,JEFFERSON,AR
72176,LONOKE,AR
72176,LONOKE,AR
72176,LONOKE,AR
72178,WHITE,AR
72179,CLEBURNE,AR
72179,CLEBURNE,AR
72180,PULASKI,AR
72181,FAULKNER,AR
72182,JEFFERSON,AR
72182,JEFFERSON,AR
72183,PULASKI,AR
72183,PULASKI,AR
72183,PULASKI,AR
72190,PULASKI,AR
72190,PULASKI,AR
72190,PULASKI,AR
72190,PULASKI,AR
72199,PULASKI,AR
72199,PULASKI,AR
72199,PULASKI,AR
72199,PULASKI,AR
72199,PULASKI,AR
72201,PULASKI,AR
72202,PULASKI,AR
72203,PULASKI,AR
72204,PULASKI,AR
72205,PULASKI,AR
72206,PULASKI,AR
72207,PULASKI,AR
72207,PULASKI,AR
72207,PULASKI,AR
72209,PULASKI,AR
72210,PULASKI,AR
72211,PULASKI,AR
72212,PULASKI,AR
72214,PULASKI,AR
72215,PULASKI,AR
72216,PULASKI,AR
72217,PULASKI,AR
72219,PULASKI,AR
72221,PULASKI,AR
72222,PULASKI,AR
72223,PULASKI,AR
72225,PULASKI,AR
72227,PULASKI,AR
72231,PULASKI,AR
72231,PULASKI,AR
72231,PULASKI,AR
72255,PULASKI,AR
72255,PULASKI,AR
72260,PULASKI,AR
72295,PULASKI,AR
72301,CRITTENDEN,AR
72303,CRITTENDEN,AR
72310,MISSISSIPPI,AR
72311,LEE,AR
72312,PHILLIPS,AR
72313,MISSISSIPPI,AR
72315,MISSISSIPPI,AR
72315,MISSISSIPPI,AR
72316,MISSISSIPPI,AR
72319,MISSISSIPPI,AR
72319,MISSISSIPPI,AR
72320,LEE,AR
72321,MISSISSIPPI,AR
72321,MISSISSIPPI,AR
72322,SAINT FRANCIS,AR
72324,CROSS,AR
72324,CROSS,AR
72325,CRITTENDEN,AR
72326,SAINT FRANCIS,AR
72327,CRITTENDEN,AR
72327,CRITTENDEN,AR
72327,CRITTENDEN,AR
72328,PHILLIPS,AR
72329,MISSISSIPPI,AR
72330,MISSISSIPPI,AR
72331,CRITTENDEN,AR
72331,CRITTENDEN,AR
72332,CRITTENDEN,AR
72333,PHILLIPS,AR
72335,SAINT FRANCIS,AR
72336,SAINT FRANCIS,AR
72338,MISSISSIPPI,AR
72338,MISSISSIPPI,AR
72339,CRITTENDEN,AR
72340,SAINT FRANCIS,AR
72341,LEE,AR
72342,PHILLIPS,AR
72346,SAINT FRANCIS,AR
72346,SAINT FRANCIS,AR
72347,CROSS,AR
72348,SAINT FRANCIS,AR
72348,SAINT FRANCIS,AR
72348,SAINT FRANCIS,AR
72350,MISSISSIPPI,AR
72351,MISSISSIPPI,AR
72352,LEE,AR
72353,PHILLIPS,AR
72354,POINSETT,AR
72355,PHILLIPS,AR
72358,MISSISSIPPI,AR
72358,MISSISSIPPI,AR
72359,SAINT FRANCIS,AR
72360,LEE,AR
72364,CRITTENDEN,AR
72365,POINSETT,AR
72366,PHILLIPS,AR
72367,PHILLIPS,AR
72368,LEE,AR
72369,PHILLIPS,AR
72370,MISSISSIPPI,AR
72372,SAINT FRANCIS,AR
72373,CROSS,AR
72374,PHILLIPS,AR
72376,CRITTENDEN,AR
72377,POINSETT,AR
72379,DESHA,AR
72383,PHILLIPS,AR
72384,CRITTENDEN,AR
72386,POINSETT,AR
72387,CROSS,AR
72389,PHILLIPS,AR
72390,PHILLIPS,AR
72391,MISSISSIPPI,AR
72392,SAINT FRANCIS,AR
72394,SAINT FRANCIS,AR
72394,SAINT FRANCIS,AR
72395,MISSISSIPPI,AR
72395,MISSISSIPPI,AR
72396,CROSS,AR
72401,CRAIGHEAD,AR
72402,CRAIGHEAD,AR
72403,CRAIGHEAD,AR
72404,CRAIGHEAD,AR
72405,CRAIGHEAD,AR
72410,LAWRENCE,AR
72411,CRAIGHEAD,AR
72412,GREENE,AR
72413,RANDOLPH,AR
72414,CRAIGHEAD,AR
72415,LAWRENCE,AR
72416,CRAIGHEAD,AR
72417,CRAIGHEAD,AR
72419,CRAIGHEAD,AR
72421,CRAIGHEAD,AR
72422,CLAY,AR
72424,CLAY,AR
72425,GREENE,AR
72426,MISSISSIPPI,AR
72427,CRAIGHEAD,AR
72428,MISSISSIPPI,AR
72429,POINSETT,AR
72430,CLAY,AR
72431,JACKSON,AR
72432,POINSETT,AR
72433,LAWRENCE,AR
72434,LAWRENCE,AR
72435,CLAY,AR
72435,CLAY,AR
72436,GREENE,AR
72436,GREENE,AR
72437,CRAIGHEAD,AR
72438,MISSISSIPPI,AR
72440,LAWRENCE,AR
72441,CLAY,AR
72442,MISSISSIPPI,AR
72443,GREENE,AR
72444,RANDOLPH,AR
72445,LAWRENCE,AR
72447,CRAIGHEAD,AR
72449,RANDOLPH,AR
72450,GREENE,AR
72451,GREENE,AR
72453,CLAY,AR
72454,CLAY,AR
72455,RANDOLPH,AR
72456,CLAY,AR
72457,LAWRENCE,AR
72458,LAWRENCE,AR
72459,LAWRENCE,AR
72460,RANDOLPH,AR
72460,RANDOLPH,AR
72461,CLAY,AR
72462,RANDOLPH,AR
72464,CLAY,AR
72465,LAWRENCE,AR
72466,LAWRENCE,AR
72467,CRAIGHEAD,AR
72467,CRAIGHEAD,AR
72467,CRAIGHEAD,AR
72469,LAWRENCE,AR
72469,LAWRENCE,AR
72470,CLAY,AR
72471,JACKSON,AR
72472,POINSETT,AR
72473,JACKSON,AR
72474,GREENE,AR
72475,POINSETT,AR
72476,LAWRENCE,AR
72476,LAWRENCE,AR
72476,LAWRENCE,AR
72478,RANDOLPH,AR
72479,POINSETT,AR
72482,SHARP,AR
72501,INDEPENDENCE,AR
72501,INDEPENDENCE,AR
72503,INDEPENDENCE,AR
72512,IZARD,AR
72512,IZARD,AR
72512,IZARD,AR
72513,SHARP,AR
72515,FULTON,AR
72517,IZARD,AR
72519,IZARD,AR
72519,IZARD,AR
72520,FULTON,AR
72521,SHARP,AR
72522,INDEPENDENCE,AR
72523,CLEBURNE,AR
72524,INDEPENDENCE,AR
72525,SHARP,AR
72525,SHARP,AR
72526,INDEPENDENCE,AR
72527,INDEPENDENCE,AR
72528,IZARD,AR
72529,SHARP,AR
72529,SHARP,AR
72529,SHARP,AR
72530,CLEBURNE,AR
72530,CLEBURNE,AR
72531,FULTON,AR
72532,SHARP,AR
72533,STONE,AR
72533,STONE,AR
72534,INDEPENDENCE,AR
72536,IZARD,AR
72536,IZARD,AR
72537,BAXTER,AR
72538,FULTON,AR
72539,FULTON,AR
72540,IZARD,AR
72542,SHARP,AR
72542,SHARP,AR
72543,CLEBURNE,AR
72543,CLEBURNE,AR
72544,BAXTER,AR
72545,CLEBURNE,AR
72545,CLEBURNE,AR
72546,CLEBURNE,AR
72550,INDEPENDENCE,AR
72553,INDEPENDENCE,AR
72554,FULTON,AR
72554,FULTON,AR
72555,STONE,AR
72556,IZARD,AR
72556,IZARD,AR
72556,IZARD,AR
72560,STONE,AR
72560,STONE,AR
72561,IZARD,AR
72561,IZARD,AR
72562,INDEPENDENCE,AR
72564,INDEPENDENCE,AR
72565,IZARD,AR
72566,IZARD,AR
72567,STONE,AR
72567,STONE,AR
72568,INDEPENDENCE,AR
72568,INDEPENDENCE,AR
72569,SHARP,AR
72571,INDEPENDENCE,AR
72572,LAWRENCE,AR
72573,IZARD,AR
72575,INDEPENDENCE,AR
72576,FULTON,AR
72576,FULTON,AR
72577,SHARP,AR
72578,FULTON,AR
72579,INDEPENDENCE,AR
72581,CLEBURNE,AR
72581,CLEBURNE,AR
72583,FULTON,AR
72584,IZARD,AR
72584,IZARD,AR
72585,IZARD,AR
72585,IZARD,AR
72587,IZARD,AR
72601,BOONE,AR
72601,BOONE,AR
72602,BOONE,AR
72611,BOONE,AR
72611,BOONE,AR
72613,CARROLL,AR
72615,BOONE,AR
72616,CARROLL,AR
72616,CARROLL,AR
72616,CARROLL,AR
72616,CARROLL,AR
72616,CARROLL,AR
72617,BAXTER,AR
72617,BAXTER,AR
72619,MARION,AR
72623,BAXTER,AR
72624,NEWTON,AR
72626,BAXTER,AR
72628,NEWTON,AR
72628,NEWTON,AR
72628,NEWTON,AR
72628,NEWTON,AR
72629,VAN BUREN,AR
72630,BOONE,AR
72631,CARROLL,AR
72631,CARROLL,AR
72631,CARROLL,AR
72631,CARROLL,AR
72631,CARROLL,AR
72632,CARROLL,AR
72632,CARROLL,AR
72632,CARROLL,AR
72632,CARROLL,AR
72633,BOONE,AR
72634,MARION,AR
72634,MARION,AR
72635,BAXTER,AR
72635,BAXTER,AR
72635,BAXTER,AR
72635,BAXTER,AR
72636,SEARCY,AR
72638,CARROLL,AR
72638,CARROLL,AR
72639,SEARCY,AR
72639,SEARCY,AR
72640,NEWTON,AR
72641,NEWTON,AR
72641,NEWTON,AR
72641,NEWTON,AR
72641,NEWTON,AR
72641,NEWTON,AR
72642,BAXTER,AR
72644,BOONE,AR
72644,BOONE,AR
72645,SEARCY,AR
72645,SEARCY,AR
72645,SEARCY,AR
72645,SEARCY,AR
72645,SEARCY,AR
72648,NEWTON,AR
72648,NEWTON,AR
72648,NEWTON,AR
72648,NEWTON,AR
72650,SEARCY,AR
72650,SEARCY,AR
72650,SEARCY,AR
72650,SEARCY,AR
72651,BAXTER,AR
72653,BAXTER,AR
72653,BAXTER,AR
72653,BAXTER,AR
72654,BAXTER,AR
72654,BAXTER,AR
72655,NEWTON,AR
72655,NEWTON,AR
72657,STONE,AR
72658,BAXTER,AR
72658,BAXTER,AR
72659,BAXTER,AR
72660,CARROLL,AR
72661,MARION,AR
72661,MARION,AR
72662,BOONE,AR
72663,STONE,AR
72663,STONE,AR
72666,NEWTON,AR
72668,MARION,AR
72669,SEARCY,AR
72670,NEWTON,AR
72672,MARION,AR
72675,SEARCY,AR
72675,SEARCY,AR
72677,MARION,AR
72679,POPE,AR
72680,STONE,AR
72680,STONE,AR
72682,BOONE,AR
72682,BOONE,AR
72682,BOONE,AR
72683,NEWTON,AR
72685,NEWTON,AR
72685,NEWTON,AR
72685,NEWTON,AR
72686,SEARCY,AR
72687,MARION,AR
72701,WASHINGTON,AR
72702,WASHINGTON,AR
72703,WASHINGTON,AR
72704,WASHINGTON,AR
72704,WASHINGTON,AR
72704,WASHINGTON,AR
72711,BENTON,AR
72712,BENTON,AR
72713,BENTON,AR
72714,BENTON,AR
72715,BENTON,AR
72716,BENTON,AR
72716,BENTON,AR
72717,WASHINGTON,AR
72718,BENTON,AR
72719,BENTON,AR
72721,MADISON,AR
72722,BENTON,AR
72727,WASHINGTON,AR
72728,WASHINGTON,AR
72729,WASHINGTON,AR
72730,WASHINGTON,AR
72730,WASHINGTON,AR
72732,BENTON,AR
72733,BENTON,AR
72734,BENTON,AR
72734,BENTON,AR
72735,WASHINGTON,AR
72736,BENTON,AR
72737,WASHINGTON,AR
72738,MADISON,AR
72739,BENTON,AR
72740,MADISON,AR
72741,WASHINGTON,AR
72742,MADISON,AR
72744,WASHINGTON,AR
72745,BENTON,AR
72747,BENTON,AR
72749,WASHINGTON,AR
72751,BENTON,AR
72752,MADISON,AR
72753,WASHINGTON,AR
72756,BENTON,AR
72756,BENTON,AR
72757,BENTON,AR
72758,BENTON,AR
72760,MADISON,AR
72761,BENTON,AR
72761,BENTON,AR
72762,WASHINGTON,AR
72762,WASHINGTON,AR
72762,WASHINGTON,AR
72764,WASHINGTON,AR
72764,WASHINGTON,AR
72764,WASHINGTON,AR
72764,WASHINGTON,AR
72765,WASHINGTON,AR
72766,WASHINGTON,AR
72768,BENTON,AR
72768,BENTON,AR
72769,WASHINGTON,AR
72770,WASHINGTON,AR
72773,MADISON,AR
72774,WASHINGTON,AR
72776,MADISON,AR
72801,POPE,AR
72802,POPE,AR
72811,POPE,AR
72812,POPE,AR
72820,FRANKLIN,AR
72821,FRANKLIN,AR
72821,FRANKLIN,AR
72821,FRANKLIN,AR
72823,POPE,AR
72823,POPE,AR
72823,POPE,AR
72824,YELL,AR
72824,YELL,AR
72826,LOGAN,AR
72827,YELL,AR
72828,YELL,AR
72829,YELL,AR
72830,JOHNSON,AR
72832,JOHNSON,AR
72833,YELL,AR
72834,YELL,AR
72835,LOGAN,AR
72837,POPE,AR
72838,YELL,AR
72839,JOHNSON,AR
72840,JOHNSON,AR
72840,JOHNSON,AR
72841,SCOTT,AR
72842,YELL,AR
72842,YELL,AR
72843,POPE,AR
72845,JOHNSON,AR
72846,JOHNSON,AR
72847,POPE,AR
72851,LOGAN,AR
72852,JOHNSON,AR
72853,YELL,AR
72854,JOHNSON,AR
72855,LOGAN,AR
72856,POPE,AR
72857,YELL,AR
72858,POPE,AR
72860,YELL,AR
72863,LOGAN,AR
72865,LOGAN,AR
72901,SEBASTIAN,AR
72902,SEBASTIAN,AR
72903,SEBASTIAN,AR
72904,SEBASTIAN,AR
72905,SEBASTIAN,AR
72905,SEBASTIAN,AR
72906,SEBASTIAN,AR
72908,SEBASTIAN,AR
72913,SEBASTIAN,AR
72914,SEBASTIAN,AR
72916,SEBASTIAN,AR
72916,SEBASTIAN,AR
72917,SEBASTIAN,AR
72918,SEBASTIAN,AR
72919,SEBASTIAN,AR
72919,SEBASTIAN,AR
72921,CRAWFORD,AR
72923,SEBASTIAN,AR
72926,SCOTT,AR
72927,LOGAN,AR
72928,FRANKLIN,AR
72930,FRANKLIN,AR
72932,CRAWFORD,AR
72933,FRANKLIN,AR
72934,CRAWFORD,AR
72935,CRAWFORD,AR
72936,SEBASTIAN,AR
72937,SEBASTIAN,AR
72938,SEBASTIAN,AR
72940,SEBASTIAN,AR
72941,SEBASTIAN,AR
72941,SEBASTIAN,AR
72943,LOGAN,AR
72944,SCOTT,AR
72944,SCOTT,AR
72945,SEBASTIAN,AR
72946,CRAWFORD,AR
72947,CRAWFORD,AR
72948,CRAWFORD,AR
72949,FRANKLIN,AR
72950,SCOTT,AR
72951,LOGAN,AR
72952,CRAWFORD,AR
72955,CRAWFORD,AR
72956,CRAWFORD,AR
72957,CRAWFORD,AR
72958,SCOTT,AR
72958,SCOTT,AR
72959,WASHINGTON,AR
96201,,AP
96202,,AP
96203,,AP
96204,,AP
96205,,AP
96206,,AP
96207,,AP
96208,,AP
96209,,AP
96210,,AP
96212,,AP
96213,,AP
96214,,AP
96215,,AP
96218,,AP
96224,,AP
96251,,AP
96257,,AP
96258,,AP
96260,,AP
96262,,AP
96264,,AP
96266,,AP
96269,,AP
96271,,AP
96273,,AP
96275,,AP
96276,,AP
96278,,AP
96283,,AP
96284,,AP
96297,,AP
96301,,AP
96303,,AP
96306,,AP
96309,,AP
96310,,AP
96311,,AP
96315,,AP
96319,,AP
96321,,AP
96322,,AP
96326,,AP
96328,,AP
96331,,AP
96336,,AP
96337,,AP
96338,,AP
96339,,AP
96343,,AP
96346,,AP
96347,,AP
96349,,AP
96350,,AP
96351,,AP
96362,,AP
96365,,AP
96367,,AP
96368,,AP
96370,,AP
96371,,AP
96372,,AP
96373,,AP
96374,,AP
96374,,AP
96375,,AP
96376,,AP
96377,,AP
96378,,AP
96379,,AP
96380,,AP
96382,,AP
96384,,AP
96385,,AP
96386,,AP
96387,,AP
96388,,AP
96389,,AP
96401,,AP
96502,,AP
96503,,AP
96504,,AP
96505,,AP
96506,,AP
96507,,AP
96511,,AP
96515,,AP
96516,,AP
96517,,AP
96520,,AP
96521,,AP
96530,,AP
96531,,AP
96532,,AP
96534,,AP
96535,,AP
96537,,AP
96540,,AP
96542,,AP
96542,,AP
96543,,AP
96543,,AP
96548,,AP
96549,,AP
96550,,AP
96551,,AP
96552,,AP
96553,,AP
96554,,AP
96555,,AP
96557,,AP
96562,,AP
96577,,AP
96578,,AP
96595,,AP
96598,,AP
96599,,AP
96601,,AP
96602,,AP
96603,,AP
96604,,AP
96605,,AP
96607,,AP
96610,,AP
96611,,AP
96612,,AP
96613,,AP
96615,,AP
96616,,AP
96619,,AP
96620,,AP
96628,,AP
96629,,AP
96632,,AP
96633,,AP
96641,,AP
96642,,AP
96643,,AP
96644,,AP
96645,,AP
96649,,AP
96650,,AP
96657,,AP
96660,,AP
96661,,AP
96662,,AP
96663,,AP
96664,,AP
96665,,AP
96666,,AP
96667,,AP
96668,,AP
96669,,AP
96670,,AP
96671,,AP
96672,,AP
96673,,AP
96674,,AP
96675,,AP
96677,,AP
96678,,AP
96679,,AP
96681,,AP
96682,,AP
96683,,AP
96686,,AP
96691,,AP
96692,,AP
96693,,AP
96694,,AP
96695,,AP
96696,,AP
96698,,AP
35004,SAINT CLAIR,AL
35004,SAINT CLAIR,AL
35005,JEFFERSON,AL
35006,JEFFERSON,AL
35006,JEFFERSON,AL
35007,SHELBY,AL
35010,TALLAPOOSA,AL
35010,TALLAPOOSA,AL
35011,TALLAPOOSA,AL
35011,TALLAPOOSA,AL
35013,BLOUNT,AL
35014,TALLADEGA,AL
35015,JEFFERSON,AL
35016,MARSHALL,AL
35019,CULLMAN,AL
35020,JEFFERSON,AL
35020,JEFFERSON,AL
35021,JEFFERSON,AL
35022,JEFFERSON,AL
35022,JEFFERSON,AL
35022,JEFFERSON,AL
35022,JEFFERSON,AL
35023,JEFFERSON,AL
35023,JEFFERSON,AL
35023,JEFFERSON,AL
35023,JEFFERSON,AL
35031,BLOUNT,AL
35032,TALLADEGA,AL
35033,CULLMAN,AL
35033,CULLMAN,AL
35034,BIBB,AL
35035,BIBB,AL
35036,JEFFERSON,AL
35036,JEFFERSON,AL
35038,WALKER,AL
35040,SHELBY,AL
35042,BIBB,AL
35042,BIBB,AL
35043,SHELBY,AL
35044,TALLADEGA,AL
35044,TALLADEGA,AL
35045,CHILTON,AL
35046,CHILTON,AL
35048,JEFFERSON,AL
35049,BLOUNT,AL
35049,BLOUNT,AL
35051,SHELBY,AL
35052,SAINT CLAIR,AL
35053,CULLMAN,AL
35054,SAINT CLAIR,AL
35055,CULLMAN,AL
35055,CULLMAN,AL
35055,CULLMAN,AL
35056,CULLMAN,AL
35057,CULLMAN,AL
35057,CULLMAN,AL
35058,CULLMAN,AL
35060,JEFFERSON,AL
35061,JEFFERSON,AL
35062,JEFFERSON,AL
35063,WALKER,AL
35064,JEFFERSON,AL
35068,JEFFERSON,AL
35068,JEFFERSON,AL
35068,JEFFERSON,AL
35070,CULLMAN,AL
35071,JEFFERSON,AL
35072,COOSA,AL
35073,JEFFERSON,AL
35073,JEFFERSON,AL
35073,JEFFERSON,AL
35074,BIBB,AL
35077,CULLMAN,AL
35078,SHELBY,AL
35079,BLOUNT,AL
35079,BLOUNT,AL
35080,SHELBY,AL
35080,SHELBY,AL
35082,CLAY,AL
35082,CLAY,AL
35083,CULLMAN,AL
35085,CHILTON,AL
35087,CULLMAN,AL
35089,COOSA,AL
35091,JEFFERSON,AL
35094,JEFFERSON,AL
35096,TALLADEGA,AL
35097,BLOUNT,AL
35098,CULLMAN,AL
35111,JEFFERSON,AL
35111,JEFFERSON,AL
35112,SAINT CLAIR,AL
35114,SHELBY,AL
35114,SHELBY,AL
35115,SHELBY,AL
35115,SHELBY,AL
35116,JEFFERSON,AL
35117,JEFFERSON,AL
35118,JEFFERSON,AL
35118,JEFFERSON,AL
35118,JEFFERSON,AL
35118,JEFFERSON,AL
35119,JEFFERSON,AL
35120,SAINT CLAIR,AL
35120,SAINT CLAIR,AL
35121,BLOUNT,AL
35121,BLOUNT,AL
35121,BLOUNT,AL
35121,BLOUNT,AL
35121,BLOUNT,AL
35123,JEFFERSON,AL
35124,SHELBY,AL
35124,SHELBY,AL
35124,SHELBY,AL
35124,SHELBY,AL
35124,SHELBY,AL
35124,SHELBY,AL
35125,SAINT CLAIR,AL
35125,SAINT CLAIR,AL
35125,SAINT CLAIR,AL
35125,SAINT CLAIR,AL
35126,JEFFERSON,AL
35126,JEFFERSON,AL
35127,JEFFERSON,AL
35127,JEFFERSON,AL
35127,JEFFERSON,AL
35128,SAINT CLAIR,AL
35130,WALKER,AL
35130,WALKER,AL
35130,WALKER,AL
35130,WALKER,AL
35131,SAINT CLAIR,AL
35133,BLOUNT,AL
35135,SAINT CLAIR,AL
35136,COOSA,AL
35137,SHELBY,AL
35139,JEFFERSON,AL
35142,JEFFERSON,AL
35142,JEFFERSON,AL
35143,SHELBY,AL
35146,SAINT CLAIR,AL
35147,SHELBY,AL
35147,SHELBY,AL
35148,WALKER,AL
35148,WALKER,AL
35149,TALLADEGA,AL
35150,TALLADEGA,AL
35150,TALLADEGA,AL
35150,TALLADEGA,AL
35150,TALLADEGA,AL
35151,TALLADEGA,AL
35151,TALLADEGA,AL
35151,TALLADEGA,AL
35160,TALLADEGA,AL
35160,TALLADEGA,AL
35161,TALLADEGA,AL
35161,TALLADEGA,AL
35171,CHILTON,AL
35172,JEFFERSON,AL
35172,JEFFERSON,AL
35173,JEFFERSON,AL
35173,JEFFERSON,AL
35175,MARSHALL,AL
35175,MARSHALL,AL
35175,MARSHALL,AL
35176,SHELBY,AL
35178,SHELBY,AL
35179,CULLMAN,AL
35179,CULLMAN,AL
35179,CULLMAN,AL
35179,CULLMAN,AL
35180,JEFFERSON,AL
35181,JEFFERSON,AL
35182,SAINT CLAIR,AL
35182,SAINT CLAIR,AL
35183,COOSA,AL
35184,BIBB,AL
35185,SHELBY,AL
35186,SHELBY,AL
35187,SHELBY,AL
35188,BIBB,AL
35201,JEFFERSON,AL
35202,JEFFERSON,AL
35203,JEFFERSON,AL
35204,JEFFERSON,AL
35205,JEFFERSON,AL
35205,JEFFERSON,AL
35206,JEFFERSON,AL
35207,JEFFERSON,AL
35208,JEFFERSON,AL
35209,JEFFERSON,AL
35209,JEFFERSON,AL
35209,JEFFERSON,AL
35209,JEFFERSON,AL
35210,JEFFERSON,AL
35210,JEFFERSON,AL
35210,JEFFERSON,AL
35210,JEFFERSON,AL
35210,JEFFERSON,AL
35210,JEFFERSON,AL
35210,JEFFERSON,AL
35210,JEFFERSON,AL
35211,JEFFERSON,AL
35211,JEFFERSON,AL
35212,JEFFERSON,AL
35213,JEFFERSON,AL
35213,JEFFERSON,AL
35213,JEFFERSON,AL
35213,JEFFERSON,AL
35213,JEFFERSON,AL
35214,JEFFERSON,AL
35214,JEFFERSON,AL
35215,JEFFERSON,AL
35215,JEFFERSON,AL
35216,JEFFERSON,AL
35216,JEFFERSON,AL
35216,JEFFERSON,AL
35216,JEFFERSON,AL
35216,JEFFERSON,AL
35216,JEFFERSON,AL
35217,JEFFERSON,AL
35217,JEFFERSON,AL
35218,JEFFERSON,AL
35218,JEFFERSON,AL
35219,JEFFERSON,AL
35219,JEFFERSON,AL
35219,JEFFERSON,AL
35219,JEFFERSON,AL
35220,JEFFERSON,AL
35220,JEFFERSON,AL
35220,JEFFERSON,AL
35221,JEFFERSON,AL
35222,JEFFERSON,AL
35222,JEFFERSON,AL
35223,JEFFERSON,AL
35223,JEFFERSON,AL
35223,JEFFERSON,AL
35223,JEFFERSON,AL
35223,JEFFERSON,AL
35224,JEFFERSON,AL
35226,JEFFERSON,AL
35226,JEFFERSON,AL
35226,JEFFERSON,AL
35226,JEFFERSON,AL
35226,JEFFERSON,AL
35226,JEFFERSON,AL
35228,JEFFERSON,AL
35228,JEFFERSON,AL
35229,JEFFERSON,AL
35229,JEFFERSON,AL
35229,JEFFERSON,AL
35231,JEFFERSON,AL
35232,JEFFERSON,AL
35233,JEFFERSON,AL
35234,JEFFERSON,AL
35235,JEFFERSON,AL
35235,JEFFERSON,AL
35235,JEFFERSON,AL
35235,JEFFERSON,AL
35235,JEFFERSON,AL
35235,JEFFERSON,AL
35235,JEFFERSON,AL
35236,JEFFERSON,AL
35236,JEFFERSON,AL
35238,SHELBY,AL
35238,SHELBY,AL
35242,SHELBY,AL
35242,SHELBY,AL
35242,SHELBY,AL
35242,SHELBY,AL
35242,SHELBY,AL
35242,SHELBY,AL
35242,SHELBY,AL
35243,JEFFERSON,AL
35243,JEFFERSON,AL
35243,JEFFERSON,AL
35243,JEFFERSON,AL
35243,JEFFERSON,AL
35243,JEFFERSON,AL
35243,JEFFERSON,AL
35244,JEFFERSON,AL
35244,JEFFERSON,AL
35244,JEFFERSON,AL
35244,JEFFERSON,AL
35246,JEFFERSON,AL
35246,JEFFERSON,AL
35246,JEFFERSON,AL
35249,JEFFERSON,AL
35249,JEFFERSON,AL
35253,JEFFERSON,AL
35253,JEFFERSON,AL
35253,JEFFERSON,AL
35254,JEFFERSON,AL
35254,JEFFERSON,AL
35254,JEFFERSON,AL
35255,JEFFERSON,AL
35259,JEFFERSON,AL
35259,JEFFERSON,AL
35259,JEFFERSON,AL
35260,JEFFERSON,AL
35260,JEFFERSON,AL
35261,JEFFERSON,AL
35261,JEFFERSON,AL
35266,JEFFERSON,AL
35266,JEFFERSON,AL
35266,JEFFERSON,AL
35266,JEFFERSON,AL
35266,JEFFERSON,AL
35266,JEFFERSON,AL
35270,JEFFERSON,AL
35270,JEFFERSON,AL
35282,JEFFERSON,AL
35282,JEFFERSON,AL
35282,JEFFERSON,AL
35283,JEFFERSON,AL
35283,JEFFERSON,AL
35283,JEFFERSON,AL
35285,JEFFERSON,AL
35285,JEFFERSON,AL
35285,JEFFERSON,AL
35287,JEFFERSON,AL
35287,JEFFERSON,AL
35287,JEFFERSON,AL
35288,JEFFERSON,AL
35288,JEFFERSON,AL
35288,JEFFERSON,AL
35290,JEFFERSON,AL
35290,JEFFERSON,AL
35290,JEFFERSON,AL
35291,JEFFERSON,AL
35291,JEFFERSON,AL
35291,JEFFERSON,AL
35292,JEFFERSON,AL
35292,JEFFERSON,AL
35292,JEFFERSON,AL
35293,JEFFERSON,AL
35293,JEFFERSON,AL
35293,JEFFERSON,AL
35294,JEFFERSON,AL
35294,JEFFERSON,AL
35294,JEFFERSON,AL
35295,JEFFERSON,AL
35295,JEFFERSON,AL
35295,JEFFERSON,AL
35296,JEFFERSON,AL
35296,JEFFERSON,AL
35296,JEFFERSON,AL
35297,JEFFERSON,AL
35297,JEFFERSON,AL
35297,JEFFERSON,AL
35298,JEFFERSON,AL
35298,JEFFERSON,AL
35298,JEFFERSON,AL
35401,TUSCALOOSA,AL
35401,TUSCALOOSA,AL
35402,TUSCALOOSA,AL
35402,TUSCALOOSA,AL
35403,TUSCALOOSA,AL
35404,TUSCALOOSA,AL
35405,TUSCALOOSA,AL
35405,TUSCALOOSA,AL
35406,TUSCALOOSA,AL
35407,TUSCALOOSA,AL
35440,TUSCALOOSA,AL
35441,HALE,AL
35441,HALE,AL
35442,PICKENS,AL
35442,PICKENS,AL
35442,PICKENS,AL
35442,PICKENS,AL
35443,GREENE,AL
35443,GREENE,AL
35444,TUSCALOOSA,AL
35446,TUSCALOOSA,AL
35446,TUSCALOOSA,AL
35447,PICKENS,AL
35447,PICKENS,AL
35448,GREENE,AL
35449,TUSCALOOSA,AL
35452,TUSCALOOSA,AL
35453,TUSCALOOSA,AL
35453,TUSCALOOSA,AL
35456,TUSCALOOSA,AL
35457,TUSCALOOSA,AL
35458,TUSCALOOSA,AL
35459,SUMTER,AL
35459,SUMTER,AL
35460,SUMTER,AL
35460,SUMTER,AL
35461,PICKENS,AL
35462,GREENE,AL
35462,GREENE,AL
35463,TUSCALOOSA,AL
35464,SUMTER,AL
35466,PICKENS,AL
35469,GREENE,AL
35470,SUMTER,AL
35470,SUMTER,AL
35471,PICKENS,AL
35473,TUSCALOOSA,AL
35473,TUSCALOOSA,AL
35473,TUSCALOOSA,AL
35473,TUSCALOOSA,AL
35474,HALE,AL
35474,HALE,AL
35474,HALE,AL
35475,TUSCALOOSA,AL
35475,TUSCALOOSA,AL
35475,TUSCALOOSA,AL
35475,TUSCALOOSA,AL
35476,TUSCALOOSA,AL
35476,TUSCALOOSA,AL
35476,TUSCALOOSA,AL
35476,TUSCALOOSA,AL
35477,SUMTER,AL
35478,TUSCALOOSA,AL
35480,TUSCALOOSA,AL
35481,PICKENS,AL
35481,PICKENS,AL
35481,PICKENS,AL
35482,TUSCALOOSA,AL
35486,TUSCALOOSA,AL
35487,TUSCALOOSA,AL
35487,TUSCALOOSA,AL
35490,TUSCALOOSA,AL
35491,GREENE,AL
35501,WALKER,AL
35502,WALKER,AL
35503,WALKER,AL
35504,WALKER,AL
35540,WINSTON,AL
35540,WINSTON,AL
35541,WINSTON,AL
35542,FAYETTE,AL
35543,MARION,AL
35544,LAMAR,AL
35545,FAYETTE,AL
35546,FAYETTE,AL
35548,MARION,AL
35549,WALKER,AL
35550,WALKER,AL
35550,WALKER,AL
35551,WINSTON,AL
35552,LAMAR,AL
35553,WINSTON,AL
35553,WINSTON,AL
35554,WALKER,AL
35555,FAYETTE,AL
35555,FAYETTE,AL
35559,FAYETTE,AL
35559,FAYETTE,AL
35560,WALKER,AL
35563,MARION,AL
35563,MARION,AL
35564,MARION,AL
35565,WINSTON,AL
35570,MARION,AL
35570,MARION,AL
35571,FRANKLIN,AL
35571,FRANKLIN,AL
35572,WINSTON,AL
35572,WINSTON,AL
35573,WALKER,AL
35574,LAMAR,AL
35574,LAMAR,AL
35575,WINSTON,AL
35576,LAMAR,AL
35576,LAMAR,AL
35577,WINSTON,AL
35577,WINSTON,AL
35578,WALKER,AL
35578,WALKER,AL
35579,WALKER,AL
35580,WALKER,AL
35581,FRANKLIN,AL
35582,FRANKLIN,AL
35584,WALKER,AL
35585,FRANKLIN,AL
35586,LAMAR,AL
35587,WALKER,AL
35592,LAMAR,AL
35593,FRANKLIN,AL
35593,FRANKLIN,AL
35594,MARION,AL
35601,MORGAN,AL
35602,MORGAN,AL
35603,MORGAN,AL
35609,MORGAN,AL
35610,LAUDERDALE,AL
35611,LIMESTONE,AL
35612,LIMESTONE,AL
35613,LIMESTONE,AL
35614,LIMESTONE,AL
35615,LIMESTONE,AL
35616,COLBERT,AL
35617,LAUDERDALE,AL
35618,LAWRENCE,AL
35618,LAWRENCE,AL
35618,LAWRENCE,AL
35619,MORGAN,AL
35620,LIMESTONE,AL
35621,MORGAN,AL
35622,MORGAN,AL
35630,LAUDERDALE,AL
35630,LAUDERDALE,AL
35630,LAUDERDALE,AL
35631,LAUDERDALE,AL
35632,LAUDERDALE,AL
35632,LAUDERDALE,AL
35633,LAUDERDALE,AL
35634,LAUDERDALE,AL
35640,MORGAN,AL
35643,LAWRENCE,AL
35645,LAUDERDALE,AL
35646,COLBERT,AL
35647,LIMESTONE,AL
35648,LAUDERDALE,AL
35649,LIMESTONE,AL
35650,LAWRENCE,AL
35651,LAWRENCE,AL
35652,LAUDERDALE,AL
35652,LAUDERDALE,AL
35653,FRANKLIN,AL
35653,FRANKLIN,AL
35654,FRANKLIN,AL
35660,COLBERT,AL
35661,COLBERT,AL
35662,COLBERT,AL
35670,MORGAN,AL
35671,LIMESTONE,AL
35672,LAWRENCE,AL
35673,MORGAN,AL
35674,COLBERT,AL
35677,LAUDERDALE,AL
35699,MORGAN,AL
35699,MORGAN,AL
35739,LIMESTONE,AL
35740,JACKSON,AL
35741,MADISON,AL
35742,LIMESTONE,AL
35744,JACKSON,AL
35745,JACKSON,AL
35746,JACKSON,AL
35747,MARSHALL,AL
35748,MADISON,AL
35749,MADISON,AL
35750,MADISON,AL
35751,JACKSON,AL
35752,JACKSON,AL
35754,MORGAN,AL
35755,JACKSON,AL
35756,LIMESTONE,AL
35757,MADISON,AL
35758,MADISON,AL
35758,MADISON,AL
35759,MADISON,AL
35760,MADISON,AL
35761,MADISON,AL
35762,MADISON,AL
35762,MADISON,AL
35763,MADISON,AL
35763,MADISON,AL
35763,MADISON,AL
35763,MADISON,AL
35763,MADISON,AL
35764,JACKSON,AL
35765,JACKSON,AL
35766,JACKSON,AL
35767,MADISON,AL
35768,JACKSON,AL
35768,JACKSON,AL
35769,JACKSON,AL
35771,JACKSON,AL
35772,JACKSON,AL
35773,MADISON,AL
35774,JACKSON,AL
35775,MORGAN,AL
35775,MORGAN,AL
35775,MORGAN,AL
35775,MORGAN,AL
35776,JACKSON,AL
35801,MADISON,AL
35802,MADISON,AL
35803,MADISON,AL
35804,MADISON,AL
35805,MADISON,AL
35806,MADISON,AL
35807,MADISON,AL
35808,MADISON,AL
35809,MADISON,AL
35810,MADISON,AL
35811,MADISON,AL
35812,MADISON,AL
35813,MADISON,AL
35814,MADISON,AL
35815,MADISON,AL
35816,MADISON,AL
35824,MADISON,AL
35893,MADISON,AL
35893,MADISON,AL
35894,MADISON,AL
35894,MADISON,AL
35895,MADISON,AL
35895,MADISON,AL
35896,MADISON,AL
35896,MADISON,AL
35897,MADISON,AL
35897,MADISON,AL
35898,MADISON,AL
35898,MADISON,AL
35898,MADISON,AL
35898,MADISON,AL
35899,MADISON,AL
35899,MADISON,AL
35901,ETOWAH,AL
35902,ETOWAH,AL
35903,ETOWAH,AL
35903,ETOWAH,AL
35903,ETOWAH,AL
35904,ETOWAH,AL
35905,ETOWAH,AL
35905,ETOWAH,AL
35906,ETOWAH,AL
35906,ETOWAH,AL
35906,ETOWAH,AL
35907,ETOWAH,AL
35907,ETOWAH,AL
35950,MARSHALL,AL
35951,MARSHALL,AL
35952,ETOWAH,AL
35952,ETOWAH,AL
35952,ETOWAH,AL
35953,SAINT CLAIR,AL
35954,ETOWAH,AL
35954,ETOWAH,AL
35954,ETOWAH,AL
35954,ETOWAH,AL
35954,ETOWAH,AL
35956,ETOWAH,AL
35956,ETOWAH,AL
35957,MARSHALL,AL
35957,MARSHALL,AL
35958,JACKSON,AL
35959,CHEROKEE,AL
35960,CHEROKEE,AL
35961,DE KALB,AL
35962,DE KALB,AL
35963,DE KALB,AL
35964,MARSHALL,AL
35966,JACKSON,AL
35966,JACKSON,AL
35967,DE KALB,AL
35968,DE KALB,AL
35968,DE KALB,AL
35968,DE KALB,AL
35971,DE KALB,AL
35971,DE KALB,AL
35972,ETOWAH,AL
35973,CHEROKEE,AL
35974,DE KALB,AL
35975,DE KALB,AL
35976,MARSHALL,AL
35978,DE KALB,AL
35979,JACKSON,AL
35980,MARSHALL,AL
35981,DE KALB,AL
35983,CHEROKEE,AL
35983,CHEROKEE,AL
35983,CHEROKEE,AL
35984,DE KALB,AL
35986,DE KALB,AL
35986,DE KALB,AL
35986,DE KALB,AL
35987,SAINT CLAIR,AL
35988,DE KALB,AL
35989,DE KALB,AL
35989,DE KALB,AL
35990,ETOWAH,AL
36003,AUTAUGA,AL
36005,PIKE,AL
36006,AUTAUGA,AL
36008,AUTAUGA,AL
36009,CRENSHAW,AL
36010,PIKE,AL
36013,MONTGOMERY,AL
36015,BUTLER,AL
36016,BARBOUR,AL
36017,BARBOUR,AL
36017,BARBOUR,AL
36020,ELMORE,AL
36022,ELMORE,AL
36024,ELMORE,AL
36024,ELMORE,AL
36025,ELMORE,AL
36026,COOSA,AL
36026,COOSA,AL
36027,BARBOUR,AL
36027,BARBOUR,AL
36028,CRENSHAW,AL
36029,BULLOCK,AL
36030,BUTLER,AL
36031,MACON,AL
36032,LOWNDES,AL
36033,BUTLER,AL
36033,BUTLER,AL
36034,CRENSHAW,AL
36035,PIKE,AL
36036,MONTGOMERY,AL
36037,BUTLER,AL
36038,COVINGTON,AL
36039,MACON,AL
36040,LOWNDES,AL
36040,LOWNDES,AL
36040,LOWNDES,AL
36041,CRENSHAW,AL
36042,CRENSHAW,AL
36043,MONTGOMERY,AL
36046,MONTGOMERY,AL
36047,LOWNDES,AL
36048,BARBOUR,AL
36049,CRENSHAW,AL
36049,CRENSHAW,AL
36051,AUTAUGA,AL
36051,AUTAUGA,AL
36052,MONTGOMERY,AL
36053,BULLOCK,AL
36053,BULLOCK,AL
36053,BULLOCK,AL
36054,ELMORE,AL
36057,MONTGOMERY,AL
36062,CRENSHAW,AL
36064,MONTGOMERY,AL
36065,MONTGOMERY,AL
36066,AUTAUGA,AL
36066,AUTAUGA,AL
36067,AUTAUGA,AL
36067,AUTAUGA,AL
36068,AUTAUGA,AL
36068,AUTAUGA,AL
36069,MONTGOMERY,AL
36071,CRENSHAW,AL
36072,BARBOUR,AL
36075,MACON,AL
36078,ELMORE,AL
36079,PIKE,AL
36080,ELMORE,AL
36081,PIKE,AL
36082,PIKE,AL
36082,PIKE,AL
36083,MACON,AL
36083,MACON,AL
36087,MACON,AL
36087,MACON,AL
36088,MACON,AL
36088,MACON,AL
36088,MACON,AL
36089,BULLOCK,AL
36089,BULLOCK,AL
36089,BULLOCK,AL
36091,CHILTON,AL
36092,ELMORE,AL
36093,ELMORE,AL
36101,MONTGOMERY,AL
36101,MONTGOMERY,AL
36102,MONTGOMERY,AL
36102,MONTGOMERY,AL
36103,MONTGOMERY,AL
36103,MONTGOMERY,AL
36104,MONTGOMERY,AL
36104,MONTGOMERY,AL
36105,MONTGOMERY,AL
36105,MONTGOMERY,AL
36106,MONTGOMERY,AL
36106,MONTGOMERY,AL
36107,MONTGOMERY,AL
36107,MONTGOMERY,AL
36108,MONTGOMERY,AL
36108,MONTGOMERY,AL
36108,MONTGOMERY,AL
36109,MONTGOMERY,AL
36109,MONTGOMERY,AL
36110,MONTGOMERY,AL
36110,MONTGOMERY,AL
36110,MONTGOMERY,AL
36111,MONTGOMERY,AL
36111,MONTGOMERY,AL
36112,MONTGOMERY,AL
36112,MONTGOMERY,AL
36112,MONTGOMERY,AL
36113,MONTGOMERY,AL
36113,MONTGOMERY,AL
36113,MONTGOMERY,AL
36114,MONTGOMERY,AL
36114,MONTGOMERY,AL
36114,MONTGOMERY,AL
36114,MONTGOMERY,AL
36114,MONTGOMERY,AL
36115,MONTGOMERY,AL
36115,MONTGOMERY,AL
36115,MONTGOMERY,AL
36115,MONTGOMERY,AL
36116,MONTGOMERY,AL
36116,MONTGOMERY,AL
36117,MONTGOMERY,AL
36117,MONTGOMERY,AL
36118,MONTGOMERY,AL
36118,MONTGOMERY,AL
36118,MONTGOMERY,AL
36118,MONTGOMERY,AL
36118,MONTGOMERY,AL
36119,MONTGOMERY,AL
36119,MONTGOMERY,AL
36120,MONTGOMERY,AL
36120,MONTGOMERY,AL
36121,MONTGOMERY,AL
36121,MONTGOMERY,AL
36123,MONTGOMERY,AL
36123,MONTGOMERY,AL
36123,MONTGOMERY,AL
36124,MONTGOMERY,AL
36124,MONTGOMERY,AL
36125,MONTGOMERY,AL
36125,MONTGOMERY,AL
36130,MONTGOMERY,AL
36130,MONTGOMERY,AL
36130,MONTGOMERY,AL
36130,MONTGOMERY,AL
36131,MONTGOMERY,AL
36131,MONTGOMERY,AL
36131,MONTGOMERY,AL
36132,MONTGOMERY,AL
36132,MONTGOMERY,AL
36132,MONTGOMERY,AL
36132,MONTGOMERY,AL
36135,MONTGOMERY,AL
36135,MONTGOMERY,AL
36135,MONTGOMERY,AL
36135,MONTGOMERY,AL
36140,MONTGOMERY,AL
36140,MONTGOMERY,AL
36140,MONTGOMERY,AL
36140,MONTGOMERY,AL
36141,MONTGOMERY,AL
36141,MONTGOMERY,AL
36141,MONTGOMERY,AL
36141,MONTGOMERY,AL
36142,MONTGOMERY,AL
36142,MONTGOMERY,AL
36142,MONTGOMERY,AL
36142,MONTGOMERY,AL
36177,MONTGOMERY,AL
36177,MONTGOMERY,AL
36177,MONTGOMERY,AL
36177,MONTGOMERY,AL
36191,MONTGOMERY,AL
36191,MONTGOMERY,AL
36191,MONTGOMERY,AL
36201,CALHOUN,AL
36201,CALHOUN,AL
36202,CALHOUN,AL
36203,CALHOUN,AL
36203,CALHOUN,AL
36203,CALHOUN,AL
36204,CALHOUN,AL
36204,CALHOUN,AL
36205,CALHOUN,AL
36205,CALHOUN,AL
36205,CALHOUN,AL
36206,CALHOUN,AL
36207,CALHOUN,AL
36250,CALHOUN,AL
36251,CLAY,AL
36251,CLAY,AL
36251,CLAY,AL
36251,CLAY,AL
36251,CLAY,AL
36251,CLAY,AL
36253,CALHOUN,AL
36254,CALHOUN,AL
36255,CLAY,AL
36255,CLAY,AL
36256,TALLAPOOSA,AL
36256,TALLAPOOSA,AL
36257,CALHOUN,AL
36258,CLAY,AL
36258,CLAY,AL
36258,CLAY,AL
36258,CLAY,AL
36260,CALHOUN,AL
36261,CLEBURNE,AL
36262,CLEBURNE,AL
36263,RANDOLPH,AL
36263,RANDOLPH,AL
36264,CLEBURNE,AL
36264,CLEBURNE,AL
36264,CLEBURNE,AL
36265,CALHOUN,AL
36266,CLAY,AL
36266,CLAY,AL
36266,CLAY,AL
36266,CLAY,AL
36266,CLAY,AL
36266,CLAY,AL
36266,CLAY,AL
36266,CLAY,AL
36266,CLAY,AL
36267,CLAY,AL
36268,TALLADEGA,AL
36269,CLEBURNE,AL
36271,CALHOUN,AL
36272,CALHOUN,AL
36272,CALHOUN,AL
36272,CALHOUN,AL
36273,CLEBURNE,AL
36273,CLEBURNE,AL
36274,RANDOLPH,AL
36275,CHEROKEE,AL
36276,RANDOLPH,AL
36276,RANDOLPH,AL
36276,RANDOLPH,AL
36276,RANDOLPH,AL
36276,RANDOLPH,AL
36276,RANDOLPH,AL
36276,RANDOLPH,AL
36276,RANDOLPH,AL
36277,CALHOUN,AL
36278,RANDOLPH,AL
36278,RANDOLPH,AL
36278,RANDOLPH,AL
36278,RANDOLPH,AL
36279,CALHOUN,AL
36280,RANDOLPH,AL
36280,RANDOLPH,AL
36280,RANDOLPH,AL
36301,HOUSTON,AL
36301,HOUSTON,AL
36301,HOUSTON,AL
36301,HOUSTON,AL
36301,HOUSTON,AL
36301,HOUSTON,AL
36302,HOUSTON,AL
36303,HOUSTON,AL
36303,HOUSTON,AL
36303,HOUSTON,AL
36304,HOUSTON,AL
36305,HOUSTON,AL
36305,HOUSTON,AL
36305,HOUSTON,AL
36310,HENRY,AL
36310,HENRY,AL
36311,DALE,AL
36312,HOUSTON,AL
36312,HOUSTON,AL
36313,GENEVA,AL
36314,GENEVA,AL
36316,GENEVA,AL
36316,GENEVA,AL
36317,HENRY,AL
36318,GENEVA,AL
36318,GENEVA,AL
36319,HOUSTON,AL
36319,HOUSTON,AL
36320,HOUSTON,AL
36320,HOUSTON,AL
36321,HOUSTON,AL
36322,DALE,AL
36322,DALE,AL
36322,DALE,AL
36323,COFFEE,AL
36330,COFFEE,AL
36330,COFFEE,AL
36331,COFFEE,AL
36331,COFFEE,AL
36340,GENEVA,AL
36340,GENEVA,AL
36343,HOUSTON,AL
36343,HOUSTON,AL
36344,GENEVA,AL
36344,GENEVA,AL
36345,HENRY,AL
36346,COFFEE,AL
36346,COFFEE,AL
36346,COFFEE,AL
36349,GENEVA,AL
36350,DALE,AL
36350,DALE,AL
36351,COFFEE,AL
36352,DALE,AL
36352,DALE,AL
36353,HENRY,AL
36353,HENRY,AL
36353,HENRY,AL
36360,DALE,AL
36361,DALE,AL
36362,DALE,AL
36362,DALE,AL
36370,HOUSTON,AL
36371,DALE,AL
36373,HENRY,AL
36374,DALE,AL
36374,DALE,AL
36375,GENEVA,AL
36376,HOUSTON,AL
36401,CONECUH,AL
36401,CONECUH,AL
36420,COVINGTON,AL
36420,COVINGTON,AL
36420,COVINGTON,AL
36420,COVINGTON,AL
36420,COVINGTON,AL
36420,COVINGTON,AL
36420,COVINGTON,AL
36420,COVINGTON,AL
36420,COVINGTON,AL
36420,COVINGTON,AL
36421,COVINGTON,AL
36425,MONROE,AL
36425,MONROE,AL
36426,ESCAMBIA,AL
36426,ESCAMBIA,AL
36426,ESCAMBIA,AL
36426,ESCAMBIA,AL
36426,ESCAMBIA,AL
36426,ESCAMBIA,AL
36427,ESCAMBIA,AL
36429,CONECUH,AL
36432,CONECUH,AL
36435,WILCOX,AL
36436,CLARKE,AL
36436,CLARKE,AL
36439,MONROE,AL
36441,ESCAMBIA,AL
36441,ESCAMBIA,AL
36442,COVINGTON,AL
36442,COVINGTON,AL
36444,MONROE,AL
36445,MONROE,AL
36446,CLARKE,AL
36451,CLARKE,AL
36451,CLARKE,AL
36453,COFFEE,AL
36454,CONECUH,AL
36455,COVINGTON,AL
36456,BUTLER,AL
36456,BUTLER,AL
36458,MONROE,AL
36460,MONROE,AL
36460,MONROE,AL
36461,MONROE,AL
36461,MONROE,AL
36461,MONROE,AL
36467,COVINGTON,AL
36467,COVINGTON,AL
36467,COVINGTON,AL
36470,MONROE,AL
36470,MONROE,AL
36471,MONROE,AL
36473,CONECUH,AL
36474,COVINGTON,AL
36475,CONECUH,AL
36476,COVINGTON,AL
36477,GENEVA,AL
36480,MONROE,AL
36480,MONROE,AL
36481,MONROE,AL
36481,MONROE,AL
36482,CLARKE,AL
36482,CLARKE,AL
36482,CLARKE,AL
36483,COVINGTON,AL
36483,COVINGTON,AL
36502,ESCAMBIA,AL
36502,ESCAMBIA,AL
36502,ESCAMBIA,AL
36502,ESCAMBIA,AL
36503,ESCAMBIA,AL
36504,ESCAMBIA,AL
36505,MOBILE,AL
36505,MOBILE,AL
36507,BALDWIN,AL
36507,BALDWIN,AL
36507,BALDWIN,AL
36509,MOBILE,AL
36509,MOBILE,AL
36511,BALDWIN,AL
36512,MOBILE,AL
36513,WASHINGTON,AL
36518,WASHINGTON,AL
36521,MOBILE,AL
36521,MOBILE,AL
36521,MOBILE,AL
36521,MOBILE,AL
36521,MOBILE,AL
36522,MOBILE,AL
36523,MOBILE,AL
36523,MOBILE,AL
36523,MOBILE,AL
36523,MOBILE,AL
36524,CLARKE,AL
36525,MOBILE,AL
36526,BALDWIN,AL
36527,BALDWIN,AL
36527,BALDWIN,AL
36527,BALDWIN,AL
36528,MOBILE,AL
36528,MOBILE,AL
36529,WASHINGTON,AL
36529,WASHINGTON,AL
36529,WASHINGTON,AL
36530,BALDWIN,AL
36530,BALDWIN,AL
36530,BALDWIN,AL
36530,BALDWIN,AL
36532,BALDWIN,AL
36532,BALDWIN,AL
36533,BALDWIN,AL
36535,BALDWIN,AL
36535,BALDWIN,AL
36535,BALDWIN,AL
36535,BALDWIN,AL
36536,BALDWIN,AL
36538,WASHINGTON,AL
36538,WASHINGTON,AL
36539,WASHINGTON,AL
36539,WASHINGTON,AL
36540,CLARKE,AL
36541,MOBILE,AL
36542,BALDWIN,AL
36542,BALDWIN,AL
36543,ESCAMBIA,AL
36544,MOBILE,AL
36545,CLARKE,AL
36545,CLARKE,AL
36545,CLARKE,AL
36545,CLARKE,AL
36547,BALDWIN,AL
36548,WASHINGTON,AL
36548,WASHINGTON,AL
36548,WASHINGTON,AL
36549,BALDWIN,AL
36550,BALDWIN,AL
36551,BALDWIN,AL
36553,WASHINGTON,AL
36555,BALDWIN,AL
36555,BALDWIN,AL
36556,WASHINGTON,AL
36558,WASHINGTON,AL
36558,WASHINGTON,AL
36558,WASHINGTON,AL
36558,WASHINGTON,AL
36558,WASHINGTON,AL
36558,WASHINGTON,AL
36558,WASHINGTON,AL
36558,WASHINGTON,AL
36559,BALDWIN,AL
36560,MOBILE,AL
36560,MOBILE,AL
36561,BALDWIN,AL
36562,BALDWIN,AL
36564,BALDWIN,AL
36567,BALDWIN,AL
36567,BALDWIN,AL
36567,BALDWIN,AL
36567,BALDWIN,AL
36567,BALDWIN,AL
36568,MOBILE,AL
36569,WASHINGTON,AL
36569,WASHINGTON,AL
36571,MOBILE,AL
36572,MOBILE,AL
36574,BALDWIN,AL
36574,BALDWIN,AL
36575,MOBILE,AL
36576,BALDWIN,AL
36577,BALDWIN,AL
36578,BALDWIN,AL
36579,BALDWIN,AL
36580,BALDWIN,AL
36581,WASHINGTON,AL
36582,MOBILE,AL
36582,MOBILE,AL
36583,WASHINGTON,AL
36584,WASHINGTON,AL
36585,WASHINGTON,AL
36585,WASHINGTON,AL
36585,WASHINGTON,AL
36585,WASHINGTON,AL
36587,MOBILE,AL
36590,MOBILE,AL
36601,MOBILE,AL
36602,MOBILE,AL
36603,MOBILE,AL
36604,MOBILE,AL
36605,MOBILE,AL
36606,MOBILE,AL
36607,MOBILE,AL
36608,MOBILE,AL
36609,MOBILE,AL
36610,MOBILE,AL
36610,MOBILE,AL
36610,MOBILE,AL
36611,MOBILE,AL
36611,MOBILE,AL
36612,MOBILE,AL
36612,MOBILE,AL
36613,MOBILE,AL
36613,MOBILE,AL
36613,MOBILE,AL
36615,MOBILE,AL
36615,MOBILE,AL
36615,MOBILE,AL
36616,MOBILE,AL
36617,MOBILE,AL
36617,MOBILE,AL
36618,MOBILE,AL
36619,MOBILE,AL
36628,MOBILE,AL
36628,MOBILE,AL
36633,MOBILE,AL
36640,MOBILE,AL
36644,MOBILE,AL
36644,MOBILE,AL
36652,MOBILE,AL
36660,MOBILE,AL
36663,MOBILE,AL
36663,MOBILE,AL
36670,MOBILE,AL
36671,MOBILE,AL
36675,MOBILE,AL
36675,MOBILE,AL
36685,MOBILE,AL
36688,MOBILE,AL
36688,MOBILE,AL
36689,MOBILE,AL
36691,MOBILE,AL
36693,MOBILE,AL
36695,MOBILE,AL
36701,DALLAS,AL
36701,DALLAS,AL
36702,DALLAS,AL
36703,DALLAS,AL
36703,DALLAS,AL
36720,WILCOX,AL
36722,WILCOX,AL
36723,WILCOX,AL
36726,WILCOX,AL
36726,WILCOX,AL
36727,CLARKE,AL
36728,WILCOX,AL
36728,WILCOX,AL
36732,MARENGO,AL
36736,MARENGO,AL
36738,MARENGO,AL
36738,MARENGO,AL
36740,GREENE,AL
36741,WILCOX,AL
36742,HALE,AL
36742,HALE,AL
36744,HALE,AL
36745,MARENGO,AL
36748,MARENGO,AL
36749,AUTAUGA,AL
36750,CHILTON,AL
36751,WILCOX,AL
36751,WILCOX,AL
36751,WILCOX,AL
36751,WILCOX,AL
36752,LOWNDES,AL
36752,LOWNDES,AL
36752,LOWNDES,AL
36753,WILCOX,AL
36754,MARENGO,AL
36756,PERRY,AL
36756,PERRY,AL
36758,DALLAS,AL
36759,DALLAS,AL
36759,DALLAS,AL
36761,DALLAS,AL
36761,DALLAS,AL
36763,MARENGO,AL
36764,MARENGO,AL
36765,HALE,AL
36766,WILCOX,AL
36766,WILCOX,AL
36767,DALLAS,AL
36768,WILCOX,AL
36768,WILCOX,AL
36768,WILCOX,AL
36768,WILCOX,AL
36769,WILCOX,AL
36769,WILCOX,AL
36769,WILCOX,AL
36773,DALLAS,AL
36775,DALLAS,AL
36776,HALE,AL
36782,MARENGO,AL
36783,MARENGO,AL
36784,CLARKE,AL
36785,LOWNDES,AL
36785,LOWNDES,AL
36785,LOWNDES,AL
36786,PERRY,AL
36790,CHILTON,AL
36792,BIBB,AL
36793,BIBB,AL
36801,LEE,AL
36803,LEE,AL
36804,LEE,AL
36830,LEE,AL
36831,LEE,AL
36832,LEE,AL
36849,LEE,AL
36849,LEE,AL
36849,LEE,AL
36849,LEE,AL
36850,TALLAPOOSA,AL
36851,RUSSELL,AL
36852,LEE,AL
36853,TALLAPOOSA,AL
36854,CHAMBERS,AL
36854,CHAMBERS,AL
36854,CHAMBERS,AL
36854,CHAMBERS,AL
36855,CHAMBERS,AL
36856,RUSSELL,AL
36858,RUSSELL,AL
36860,RUSSELL,AL
36861,TALLAPOOSA,AL
36862,CHAMBERS,AL
36862,CHAMBERS,AL
36863,CHAMBERS,AL
36863,CHAMBERS,AL
36865,LEE,AL
36866,MACON,AL
36867,RUSSELL,AL
36868,RUSSELL,AL
36869,RUSSELL,AL
36870,LEE,AL
36871,RUSSELL,AL
36874,LEE,AL
36875,RUSSELL,AL
36877,LEE,AL
36877,LEE,AL
36877,LEE,AL
36879,LEE,AL
36879,LEE,AL
36901,SUMTER,AL
36904,CHOCTAW,AL
36904,CHOCTAW,AL
36904,CHOCTAW,AL
36907,SUMTER,AL
36908,CHOCTAW,AL
36910,CHOCTAW,AL
36912,CHOCTAW,AL
36912,CHOCTAW,AL
36913,CHOCTAW,AL
36915,CHOCTAW,AL
36916,CHOCTAW,AL
36919,CHOCTAW,AL
36919,CHOCTAW,AL
36919,CHOCTAW,AL
36921,CHOCTAW,AL
36922,CHOCTAW,AL
36925,SUMTER,AL
36925,SUMTER,AL
99501,ANCHORAGE,AK
99502,ANCHORAGE,AK
99503,ANCHORAGE,AK
99504,ANCHORAGE,AK
99505,ANCHORAGE,AK
99505,ANCHORAGE,AK
99505,ANCHORAGE,AK
99505,ANCHORAGE,AK
99505,ANCHORAGE,AK
99506,ANCHORAGE,AK
99506,ANCHORAGE,AK
99506,ANCHORAGE,AK
99507,ANCHORAGE,AK
99508,ANCHORAGE,AK
99509,ANCHORAGE,AK
99510,ANCHORAGE,AK
99511,ANCHORAGE,AK
99513,ANCHORAGE,AK
99514,ANCHORAGE,AK
99515,ANCHORAGE,AK
99516,ANCHORAGE,AK
99517,ANCHORAGE,AK
99518,ANCHORAGE,AK
99519,ANCHORAGE,AK
99520,ANCHORAGE,AK
99521,ANCHORAGE,AK
99522,ANCHORAGE,AK
99523,ANCHORAGE,AK
99524,ANCHORAGE,AK
99529,ANCHORAGE,AK
99530,ANCHORAGE,AK
99540,ANCHORAGE,AK
99540,ANCHORAGE,AK
99540,ANCHORAGE,AK
99545,BETHEL,AK
99546,ALEUTIANS WEST,AK
99547,ALEUTIANS WEST,AK
99548,LAKE AND PENINSULA,AK
99548,LAKE AND PENINSULA,AK
99549,LAKE AND PENINSULA,AK
99549,LAKE AND PENINSULA,AK
99550,KODIAK ISLAND,AK
99551,BETHEL,AK
99552,BETHEL,AK
99553,ALEUTIANS EAST,AK
99554,KUSILVAK,AK
99555,DILLINGHAM,AK
99556,KENAI PENINSULA,AK
99556,KENAI PENINSULA,AK
99557,BETHEL,AK
99557,BETHEL,AK
99557,BETHEL,AK
99558,YUKON KOYUKUK,AK
99559,BETHEL,AK
99559,BETHEL,AK
99559,BETHEL,AK
99559,BETHEL,AK
99561,BETHEL,AK
99563,KUSILVAK,AK
99564,LAKE AND PENINSULA,AK
99565,LAKE AND PENINSULA,AK
99565,LAKE AND PENINSULA,AK
99566,COPPER RIVER,AK
99567,ANCHORAGE,AK
99568,KENAI PENINSULA,AK
99569,DILLINGHAM,AK
99571,ALEUTIANS EAST,AK
99571,ALEUTIANS EAST,AK
99571,ALEUTIANS EAST,AK
99572,KENAI PENINSULA,AK
99572,KENAI PENINSULA,AK
99573,COPPER RIVER,AK
99574,CHUGACH,AK
99574,CHUGACH,AK
99575,BETHEL,AK
99576,DILLINGHAM,AK
99576,DILLINGHAM,AK
99576,DILLINGHAM,AK
99577,ANCHORAGE,AK
99578,BETHEL,AK
99579,LAKE AND PENINSULA,AK
99580,DILLINGHAM,AK
99581,KUSILVAK,AK
99583,ALEUTIANS EAST,AK
99585,KUSILVAK,AK
99586,COPPER RIVER,AK
99586,COPPER RIVER,AK
99586,COPPER RIVER,AK
99586,COPPER RIVER,AK
99587,ANCHORAGE,AK
99588,COPPER RIVER,AK
99589,BETHEL,AK
99590,YUKON KOYUKUK,AK
99591,ALEUTIANS WEST,AK
99591,ALEUTIANS WEST,AK
99591,ALEUTIANS WEST,AK
99591,ALEUTIANS WEST,AK
99591,ALEUTIANS WEST,AK
99599,ANCHORAGE,AK
99602,YUKON KOYUKUK,AK
99603,KENAI PENINSULA,AK
99603,KENAI PENINSULA,AK
99603,KENAI PENINSULA,AK
99603,KENAI PENINSULA,AK
99603,KENAI PENINSULA,AK
99603,KENAI PENINSULA,AK
99603,KENAI PENINSULA,AK
99604,KUSILVAK,AK
99605,KENAI PENINSULA,AK
99606,LAKE AND PENINSULA,AK
99606,LAKE AND PENINSULA,AK
99606,LAKE AND PENINSULA,AK
99607,BETHEL,AK
99608,KODIAK ISLAND,AK
99609,BETHEL,AK
99610,KENAI PENINSULA,AK
99611,KENAI PENINSULA,AK
99611,KENAI PENINSULA,AK
99612,ALEUTIANS EAST,AK
99613,BRISTOL BAY,AK
99613,BRISTOL BAY,AK
99614,BETHEL,AK
99615,KODIAK ISLAND,AK
99615,KODIAK ISLAND,AK
99615,KODIAK ISLAND,AK
99619,KODIAK ISLAND,AK
99619,KODIAK ISLAND,AK
99620,KUSILVAK,AK
99621,BETHEL,AK
99622,BETHEL,AK
99623,MATANUSKA SUSITNA,AK
99623,MATANUSKA SUSITNA,AK
99623,MATANUSKA SUSITNA,AK
99623,MATANUSKA SUSITNA,AK
99624,KODIAK ISLAND,AK
99625,LAKE AND PENINSULA,AK
99626,BETHEL,AK
99627,YUKON KOYUKUK,AK
99627,YUKON KOYUKUK,AK
99628,DILLINGHAM,AK
99629,MATANUSKA SUSITNA,AK
99629,MATANUSKA SUSITNA,AK
99630,BETHEL,AK
99631,KENAI PENINSULA,AK
99632,KUSILVAK,AK
99632,KUSILVAK,AK
99633,BRISTOL BAY,AK
99634,BETHEL,AK
99635,KENAI PENINSULA,AK
99635,KENAI PENINSULA,AK
99635,KENAI PENINSULA,AK
99636,DILLINGHAM,AK
99637,BETHEL,AK
99637,BETHEL,AK
99638,ALEUTIANS WEST,AK
99639,KENAI PENINSULA,AK
99640,LAKE AND PENINSULA,AK
99641,BETHEL,AK
99643,KODIAK ISLAND,AK
99644,KODIAK ISLAND,AK
99645,MATANUSKA SUSITNA,AK
99647,LAKE AND PENINSULA,AK
99647,LAKE AND PENINSULA,AK
99648,LAKE AND PENINSULA,AK
99649,LAKE AND PENINSULA,AK
99650,KUSILVAK,AK
99651,BETHEL,AK
99652,MATANUSKA SUSITNA,AK
99652,MATANUSKA SUSITNA,AK
99653,LAKE AND PENINSULA,AK
99654,MATANUSKA SUSITNA,AK
99655,BETHEL,AK
99656,BETHEL,AK
99657,KUSILVAK,AK
99657,KUSILVAK,AK
99658,KUSILVAK,AK
99658,KUSILVAK,AK
99659,NOME,AK
99659,NOME,AK
99660,ALEUTIANS WEST,AK
99660,ALEUTIANS WEST,AK
99660,ALEUTIANS WEST,AK
99660,ALEUTIANS WEST,AK
99660,ALEUTIANS WEST,AK
99661,ALEUTIANS EAST,AK
99662,KUSILVAK,AK
99663,KENAI PENINSULA,AK
99664,KENAI PENINSULA,AK
99665,YUKON KOYUKUK,AK
99666,KUSILVAK,AK
99667,MATANUSKA SUSITNA,AK
99668,BETHEL,AK
99669,KENAI PENINSULA,AK
99670,BRISTOL BAY,AK
99670,BRISTOL BAY,AK
99671,NOME,AK
99672,KENAI PENINSULA,AK
99674,MATANUSKA SUSITNA,AK
99674,MATANUSKA SUSITNA,AK
99675,YUKON KOYUKUK,AK
99675,YUKON KOYUKUK,AK
99676,MATANUSKA SUSITNA,AK
99677,CHUGACH,AK
99677,CHUGACH,AK
99678,DILLINGHAM,AK
99679,BETHEL,AK
99679,BETHEL,AK
99680,BETHEL,AK
99680,BETHEL,AK
99681,BETHEL,AK
99682,KENAI PENINSULA,AK
99683,MATANUSKA SUSITNA,AK
99683,MATANUSKA SUSITNA,AK
99684,NOME,AK
99685,ALEUTIANS WEST,AK
99686,CHUGACH,AK
99687,MATANUSKA SUSITNA,AK
99688,MATANUSKA SUSITNA,AK
99689,YAKUTAT,AK
99690,BETHEL,AK
99690,BETHEL,AK
99691,YUKON KOYUKUK,AK
99691,YUKON KOYUKUK,AK
99692,ALEUTIANS WEST,AK
99692,ALEUTIANS WEST,AK
99693,CHUGACH,AK
99693,CHUGACH,AK
99694,MATANUSKA SUSITNA,AK
99695,ANCHORAGE,AK
99697,KODIAK ISLAND,AK
99701,FAIRBANKS NORTH STAR,AK
99702,FAIRBANKS NORTH STAR,AK
99702,FAIRBANKS NORTH STAR,AK
99703,FAIRBANKS NORTH STAR,AK
99703,FAIRBANKS NORTH STAR,AK
99704,DENALI,AK
99704,DENALI,AK
99705,FAIRBANKS NORTH STAR,AK
99705,FAIRBANKS NORTH STAR,AK
99706,FAIRBANKS NORTH STAR,AK
99707,FAIRBANKS NORTH STAR,AK
99708,FAIRBANKS NORTH STAR,AK
99709,FAIRBANKS NORTH STAR,AK
99710,FAIRBANKS NORTH STAR,AK
99710,FAIRBANKS NORTH STAR,AK
99711,FAIRBANKS NORTH STAR,AK
99711,FAIRBANKS NORTH STAR,AK
99712,FAIRBANKS NORTH STAR,AK
99714,FAIRBANKS NORTH STAR,AK
99714,FAIRBANKS NORTH STAR,AK
99716,FAIRBANKS NORTH STAR,AK
99716,FAIRBANKS NORTH STAR,AK
99720,YUKON KOYUKUK,AK
99721,NORTH SLOPE,AK
99721,NORTH SLOPE,AK
99722,YUKON KOYUKUK,AK
99722,YUKON KOYUKUK,AK
99723,NORTH SLOPE,AK
99724,YUKON KOYUKUK,AK
99725,FAIRBANKS NORTH STAR,AK
99726,YUKON KOYUKUK,AK
99726,YUKON KOYUKUK,AK
99727,NORTHWEST ARCTIC,AK
99729,DENALI,AK
99730,YUKON KOYUKUK,AK
99731,SOUTHEAST FAIRBANKS,AK
99731,SOUTHEAST FAIRBANKS,AK
99731,SOUTHEAST FAIRBANKS,AK
99732,SOUTHEAST FAIRBANKS,AK
99733,YUKON KOYUKUK,AK
99734,NORTH SLOPE,AK
99736,NORTHWEST ARCTIC,AK
99737,SOUTHEAST FAIRBANKS,AK
99737,SOUTHEAST FAIRBANKS,AK
99737,SOUTHEAST FAIRBANKS,AK
99738,SOUTHEAST FAIRBANKS,AK
99739,NOME,AK
99740,YUKON KOYUKUK,AK
99740,YUKON KOYUKUK,AK
99741,YUKON KOYUKUK,AK
99742,NOME,AK
99743,DENALI,AK
99744,DENALI,AK
99744,DENALI,AK
99745,YUKON KOYUKUK,AK
99746,YUKON KOYUKUK,AK
99747,NORTH SLOPE,AK
99748,YUKON KOYUKUK,AK
99749,NORTHWEST ARCTIC,AK
99750,NORTHWEST ARCTIC,AK
99751,NORTHWEST ARCTIC,AK
99752,NORTHWEST ARCTIC,AK
99753,NOME,AK
99754,YUKON KOYUKUK,AK
99755,DENALI,AK
99755,DENALI,AK
99756,YUKON KOYUKUK,AK
99756,YUKON KOYUKUK,AK
99757,YUKON KOYUKUK,AK
99757,YUKON KOYUKUK,AK
99758,YUKON KOYUKUK,AK
99759,NORTH SLOPE,AK
99759,NORTH SLOPE,AK
99760,YUKON KOYUKUK,AK
99761,NORTHWEST ARCTIC,AK
99762,NOME,AK
99762,NOME,AK
99762,NOME,AK
99762,NOME,AK
99762,NOME,AK
99763,NORTHWEST ARCTIC,AK
99764,SOUTHEAST FAIRBANKS,AK
99765,YUKON KOYUKUK,AK
99766,NORTH SLOPE,AK
99767,YUKON KOYUKUK,AK
99767,YUKON KOYUKUK,AK
99768,YUKON KOYUKUK,AK
99769,NOME,AK
99770,NORTHWEST ARCTIC,AK
99771,NOME,AK
99772,NOME,AK
99773,NORTHWEST ARCTIC,AK
99774,YUKON KOYUKUK,AK
99774,YUKON KOYUKUK,AK
99775,FAIRBANKS NORTH STAR,AK
99775,FAIRBANKS NORTH STAR,AK
99776,SOUTHEAST FAIRBANKS,AK
99776,SOUTHEAST FAIRBANKS,AK
99777,YUKON KOYUKUK,AK
99778,NOME,AK
99780,SOUTHEAST FAIRBANKS,AK
99780,SOUTHEAST FAIRBANKS,AK
99781,YUKON KOYUKUK,AK
99782,NORTH SLOPE,AK
99783,NOME,AK
99784,NOME,AK
99784,NOME,AK
99785,NOME,AK
99785,NOME,AK
99786,NORTHWEST ARCTIC,AK
99788,YUKON KOYUKUK,AK
99788,YUKON KOYUKUK,AK
99789,NORTH SLOPE,AK
99789,NORTH SLOPE,AK
99790,FAIRBANKS NORTH STAR,AK
99791,NORTH SLOPE,AK
99791,NORTH SLOPE,AK
99801,JUNEAU,AK
99802,JUNEAU,AK
99803,JUNEAU,AK
99811,JUNEAU,AK
99812,JUNEAU,AK
99812,JUNEAU,AK
99820,HOONAH ANGOON,AK
99821,JUNEAU,AK
99821,JUNEAU,AK
99824,JUNEAU,AK
99824,JUNEAU,AK
99825,HOONAH ANGOON,AK
99826,HOONAH ANGOON,AK
99827,HAINES,AK
99829,HOONAH ANGOON,AK
99830,PETERSBURG,AK
99832,HOONAH ANGOON,AK
99833,PETERSBURG,AK
99833,PETERSBURG,AK
99835,SITKA,AK
99836,SITKA,AK
99836,SITKA,AK
99836,SITKA,AK
99840,SKAGWAY,AK
99841,HOONAH ANGOON,AK
99841,HOONAH ANGOON,AK
99850,JUNEAU,AK
99901,KETCHIKAN GATEWAY,AK
99901,KETCHIKAN GATEWAY,AK
99901,KETCHIKAN GATEWAY,AK
99901,KETCHIKAN GATEWAY,AK
99901,KETCHIKAN GATEWAY,AK
99903,WRANGELL,AK
99903,WRANGELL,AK
99918,PRINCE OF WALES HYDER,AK
99918,PRINCE OF WALES HYDER,AK
99919,PRINCE OF WALES HYDER,AK
99919,PRINCE OF WALES HYDER,AK
99921,PRINCE OF WALES HYDER,AK
99922,PRINCE OF WALES HYDER,AK
99923,PRINCE OF WALES HYDER,AK
99925,PRINCE OF WALES HYDER,AK
99926,PRINCE OF WALES HYDER,AK
99927,PRINCE OF WALES HYDER,AK
99928,KETCHIKAN GATEWAY,AK
99929,WRANGELL,AK
99950,KETCHIKAN GATEWAY,AK
99950,KETCHIKAN GATEWAY,AK
99950,KETCHIKAN GATEWAY,AK